{"type":"FeatureCollection","features":[{"type":"Feature","properties":{"title":"CARS / ROAD","kind":"hazard"},"geometry":{"type":"Polygon","coordinates":[[[-106.03633,39.43298],[-106.03484,39.43151],[-106.03442,39.4307],[-106.03336,39.42977],[-106.03224,39.42903],[-106.0319,39.42917],[-106.03182,39.42882],[-106.03243,39.42881],[-106.03332,39.42929],[-106.03415,39.43009],[-106.03485,39.43065],[-106.03508,39.43129],[-106.03565,39.43184],[-106.03622,39.43247],[-106.03657,39.43279],[-106.03632,39.43297],[-106.03633,39.43298]]]}},{"type":"Feature","properties":{"title":"DANGER - ROAD X-ING","kind":"hazard"},"geometry":{"type":"Polygon","coordinates":[[[-106.03269,39.47644],[-106.03247,39.47652],[-106.03256,39.47668],[-106.03279,39.4766],[-106.03268,39.47643],[-106.03269,39.47644]]]}},{"type":"Feature","properties":{"title":"ROAD CROSSING","kind":"hazard"},"geometry":{"type":"Polygon","coordinates":[[[-106.02459,39.45098],[-106.02434,39.45098],[-106.02409,39.45084],[-106.0239,39.45065],[-106.02403,39.45056],[-106.02438,39.4508],[-106.02465,39.4508],[-106.02459,39.45098]]]}},{"type":"Feature","properties":{"title":"VEHICLE INTERFACE","kind":"hazard"},"geometry":{"type":"Polygon","coordinates":[[[-106.02611,39.45029],[-106.0265,39.45049],[-106.02617,39.45088],[-106.02583,39.4507],[-106.0261,39.45029]]]}},{"type":"Feature","properties":{"title":"VEHICLE INTERFACE - CAUTION","kind":"hazard"},"geometry":{"type":"Polygon","coordinates":[[[-105.99673,39.4432],[-105.99562,39.4434],[-105.9934,39.43853],[-105.99337,39.438],[-105.99363,39.4376],[-105.99419,39.43719],[-105.99453,39.43697],[-105.99458,39.43667],[-105.99352,39.43618],[-105.99207,39.43594],[-105.99125,39.43574],[-105.99043,39.43536],[-105.98986,39.43483],[-105.98996,39.4341],[-105.99061,39.43362],[-105.99095,39.43304],[-105.99061,39.43216],[-105.99001,39.43135],[-105.98913,39.43062],[-105.98835,39.42996],[-105.98756,39.42931],[-105.98666,39.42852],[-105.98567,39.42794],[-105.98471,39.42787],[-105.98395,39.428],[-105.9832,39.4281],[-105.98224,39.42766],[-105.98207,39.42696],[-105.98222,39.42603],[-105.98192,39.42539],[-105.98147,39.42515],[-105.98228,39.42454],[-105.98305,39.42515],[-105.98316,39.42608],[-105.98305,39.42679],[-105.98305,39.42716],[-105.9834,39.42742],[-105.98423,39.42741],[-105.98507,39.42719],[-105.98681,39.42761],[-105.98883,39.42926],[-105.99016,39.43052],[-105.99071,39.43092],[-105.9917,39.43221],[-105.992,39.43318],[-105.99194,39.43389],[-105.99144,39.43437],[-105.99114,39.43468],[-105.9914,39.4351],[-105.99273,39.43541],[-105.9941,39.43558],[-105.99524,39.43611],[-105.99571,39.43689],[-105.9957,39.43755],[-105.99463,39.43811],[-105.99459,39.43888],[-105.99527,39.44024],[-105.99665,39.44325],[-105.99673,39.4432]]]}},{"type":"Feature","properties":{"title":"GATE - NO VEHICLE ACCESS","kind":"hazard"},"geometry":{"type":"Polygon","coordinates":[[[-105.97884,39.48626],[-105.97863,39.48626],[-105.97863,39.48609],[-105.97882,39.48609],[-105.97883,39.48626]]]}},{"type":"Feature","properties":{"title":"DANGER - CARS/ROAD","kind":"hazard"},"geometry":{"type":"Polygon","coordinates":[[[-106.02487,39.48457],[-106.02271,39.48276],[-106.01977,39.48145],[-106.01554,39.4828],[-106.01286,39.48341],[-106.00966,39.48429],[-106.00942,39.48362],[-106.01968,39.48096],[-106.02251,39.48202],[-106.02543,39.48437],[-106.02479,39.48458],[-106.02487,39.48457]]]}},{"type":"Feature","properties":{"title":"DANGER - CARS!!!","kind":"hazard"},"geometry":{"type":"Polygon","coordinates":[[[-105.9985,39.52969],[-105.99618,39.52881],[-105.99575,39.52936],[-105.9982,39.53024],[-105.99854,39.52969],[-105.9985,39.52969]]]}},{"type":"Feature","properties":{"title":"CARS - careful","kind":"hazard"},"geometry":{"type":"Polygon","coordinates":[[[-105.94584,39.50647],[-105.94537,39.50286],[-105.94464,39.50197],[-105.94494,39.50094],[-105.94468,39.49889],[-105.94421,39.49647],[-105.94455,39.49554],[-105.94558,39.49551],[-105.94545,39.49664],[-105.94558,39.49889],[-105.94601,39.50071],[-105.94601,39.5021],[-105.94648,39.50342],[-105.94683,39.50472],[-105.94687,39.5063],[-105.94584,39.50644],[-105.94584,39.50647]]]}},{"type":"Feature","properties":{"title":"CARS - USE Caution","kind":"hazard"},"geometry":{"type":"Polygon","coordinates":[[[-105.91015,39.4225],[-105.90917,39.42426],[-105.90728,39.42519],[-105.90642,39.42605],[-105.90715,39.42681],[-105.90755,39.42756],[-105.9089,39.43042],[-105.91032,39.43372],[-105.91111,39.43533],[-105.91205,39.43637],[-105.91364,39.43719],[-105.91491,39.43793],[-105.91506,39.43881],[-105.91407,39.43932],[-105.91326,39.43974],[-105.91246,39.44038],[-105.91104,39.44098],[-105.91141,39.44317],[-105.91265,39.4454],[-105.91426,39.44646],[-105.91478,39.44801],[-105.91407,39.44926],[-105.91353,39.45028],[-105.91124,39.44975],[-105.91175,39.45064],[-105.91319,39.45261],[-105.91514,39.4542],[-105.91733,39.45553],[-105.91954,39.45626],[-105.92083,39.45667],[-105.92165,39.45707],[-105.92167,39.45761],[-105.92044,39.45783],[-105.91804,39.45795],[-105.91673,39.45826],[-105.91637,39.45765],[-105.91952,39.45715],[-105.91641,39.45607],[-105.91373,39.4543],[-105.9116,39.45254],[-105.9107,39.45089],[-105.90963,39.4487],[-105.90907,39.44759],[-105.90946,39.44711],[-105.91034,39.44724],[-105.91135,39.44867],[-105.91274,39.44918],[-105.91351,39.44807],[-105.91345,39.44724],[-105.9122,39.44625],[-105.91113,39.44511],[-105.91055,39.44358],[-105.90999,39.44192],[-105.90995,39.44045],[-105.91051,39.44027],[-105.91255,39.43906],[-105.9136,39.43831],[-105.91212,39.43749],[-105.91053,39.43642],[-105.90929,39.43439],[-105.90808,39.43213],[-105.90748,39.43036],[-105.90684,39.42892],[-105.90622,39.42769],[-105.90596,39.42708],[-105.90497,39.42647],[-105.90517,39.42522],[-105.90656,39.42413],[-105.90843,39.42312],[-105.90879,39.42239],[-105.91014,39.4225],[-105.91015,39.4225]]]}},{"type":"Feature","properties":{"title":"XING - CAUTION","kind":"hazard"},"geometry":{"type":"Polygon","coordinates":[[[-105.99642,39.48539],[-105.99614,39.48507],[-105.99645,39.48495],[-105.99676,39.48527],[-105.9964,39.48539],[-105.99642,39.48539]]]}}]}
