{"type":"FeatureCollection","features":[{"type":"Feature","properties":{"title":"STAGE 1 - WATER","kind":"water","climb":false,"stage":1,"mile":33.05,"offMiles":0},"geometry":{"type":"Point","coordinates":[-106.00966,39.48327]}},{"type":"Feature","properties":{"title":"DANGER - INTERSECTION","kind":"crossing","climb":false,"stage":1,"mile":32.04,"offMiles":0},"geometry":{"type":"Point","coordinates":[-106.02533,39.48462]}},{"type":"Feature","properties":{"title":"X-ING","kind":"crossing","climb":false,"stage":1,"mile":35.1,"offMiles":0},"geometry":{"type":"Point","coordinates":[-106.0326,39.47647]}},{"type":"Feature","properties":{"title":"VEHICLE INTERFACE","kind":"crossing","climb":false,"stage":1,"mile":6.04,"offMiles":0.01},"geometry":{"type":"Point","coordinates":[-106.0262,39.45051]}},{"type":"Feature","properties":{"title":"VEHICLE INTERFACE","kind":"crossing","climb":false,"stage":1,"mile":5.84,"offMiles":0},"geometry":{"type":"Point","coordinates":[-106.02437,39.45085]}},{"type":"Feature","properties":{"title":"ROAD X-ING","kind":"crossing","climb":false,"stage":1,"mile":12.99,"offMiles":0},"geometry":{"type":"Point","coordinates":[-105.98189,39.42483]}},{"type":"Feature","properties":{"title":"GATE","kind":"crossing","climb":false,"stage":1,"mile":19.95,"offMiles":0.01},"geometry":{"type":"Point","coordinates":[-105.97873,39.48619]}},{"type":"Feature","properties":{"title":"Penn Gulch - climb start","kind":"landmark","climb":true,"stage":1,"mile":7.26,"offMiles":0},"geometry":{"type":"Point","coordinates":[-106.03801,39.43648]}},{"type":"Feature","properties":{"title":"Indiana Gulch - climb start","kind":"landmark","climb":true,"stage":1,"mile":11.35,"offMiles":0},"geometry":{"type":"Point","coordinates":[-106.00385,39.43222]}},{"type":"Feature","properties":{"title":"Little French - the hard part","kind":"landmark","climb":false,"stage":1,"mile":21.29,"offMiles":0},"geometry":{"type":"Point","coordinates":[-105.96022,39.47942]}},{"type":"Feature","properties":{"title":"CARS!!!","kind":"crossing","climb":false,"stage":2,"mile":66.48,"offMiles":0.03},"geometry":{"type":"Point","coordinates":[-105.99848,39.52998]}},{"type":"Feature","properties":{"title":"Heinous Hill","kind":"landmark","climb":true,"stage":2,"mile":40.51,"offMiles":0},"geometry":{"type":"Point","coordinates":[-106.00848,39.49665]}},{"type":"Feature","properties":{"title":"CO Trail Climb","kind":"landmark","climb":true,"stage":2,"mile":51,"offMiles":0},"geometry":{"type":"Point","coordinates":[-105.92563,39.49792]}},{"type":"Feature","properties":{"title":"Blair Witch","kind":"landmark","climb":false,"stage":2,"mile":62.71,"offMiles":0},"geometry":{"type":"Point","coordinates":[-105.99555,39.56027]}},{"type":"Feature","properties":{"title":"CARS!!!","kind":"crossing","climb":false,"stage":2,"mile":66.55,"offMiles":0},"geometry":{"type":"Point","coordinates":[-105.99689,39.5294]}},{"type":"Feature","properties":{"title":"Summit Gulch Climb","kind":"landmark","climb":true,"stage":2,"mile":66.61,"offMiles":0},"geometry":{"type":"Point","coordinates":[-105.99605,39.52889]}},{"type":"Feature","properties":{"title":"Gold Run Climb","kind":"landmark","climb":true,"stage":2,"mile":72.08,"offMiles":0},"geometry":{"type":"Point","coordinates":[-106.02553,39.52015]}},{"type":"Feature","properties":{"title":"Lincoln Park Climb","kind":"landmark","climb":true,"stage":3,"mile":78.82,"offMiles":0},"geometry":{"type":"Point","coordinates":[-105.97923,39.48648]}},{"type":"Feature","properties":{"title":"French Pass - Climb Start","kind":"landmark","climb":true,"stage":3,"mile":83.9,"offMiles":0},"geometry":{"type":"Point","coordinates":[-105.96015,39.47923]}},{"type":"Feature","properties":{"title":"Mich. Creek Climb","kind":"landmark","climb":true,"stage":3,"mile":90.33,"offMiles":0},"geometry":{"type":"Point","coordinates":[-105.90951,39.42205]}},{"type":"Feature","properties":{"title":"Georgia Pass Climb Start","kind":"landmark","climb":true,"stage":3,"mile":100.19,"offMiles":0},"geometry":{"type":"Point","coordinates":[-105.94605,39.49581]}},{"type":"Feature","properties":{"title":"CONTINENTAL DIVIDE","kind":"landmark","climb":false,"stage":3,"mile":94.15,"offMiles":0.03},"geometry":{"type":"Point","coordinates":[-105.91657,39.4583]}},{"type":"Feature","properties":{"title":"CONTINENTAL DIVIDE - SKITTLES!","kind":"landmark","climb":false,"stage":3,"mile":86.99,"offMiles":0},"geometry":{"type":"Point","coordinates":[-105.95129,39.43936]}},{"type":"Feature","properties":{"title":"XING - DANGER","kind":"crossing","climb":false,"stage":3,"mile":77.87,"offMiles":0},"geometry":{"type":"Point","coordinates":[-105.99644,39.4852]}},{"type":"Feature","properties":{"title":"Anger. Disillusionment.","kind":"landmark","climb":false,"stage":3,"mile":111.9,"offMiles":0},"geometry":{"type":"Point","coordinates":[-105.99636,39.48325]}},{"type":"Feature","properties":{"title":"Great Flume - start","kind":"landmark","climb":false,"stage":3,"mile":102.82,"offMiles":0},"geometry":{"type":"Point","coordinates":[-105.91855,39.46993]}}]}
