{"type":"Feature","properties":{"name":"MEGA EPIC","miles":216},"geometry":{"type":"LineString","coordinates":[[-106.04539,39.48081],[-106.04369,39.48101],[-106.04272,39.477],[-106.0407,39.47618],[-106.04038,39.47582],[-106.03951,39.47599],[-106.03878,39.47529],[-106.03836,39.47512],[-106.03791,39.4744],[-106.03798,39.47362],[-106.0382,39.47317],[-106.032,39.47013],[-106.03097,39.46924],[-106.03061,39.46794],[-106.03022,39.46756],[-106.0296,39.46741],[-106.02886,39.46764],[-106.02846,39.4682],[-106.02801,39.4695],[-106.02767,39.47002],[-106.0269,39.47075],[-106.02615,39.47069],[-106.02537,39.47048],[-106.02396,39.46967],[-106.02359,39.46907],[-106.02306,39.46753],[-106.02202,39.46655],[-106.02165,39.4665],[-106.02124,39.4668],[-106.02119,39.4671],[-106.02145,39.46748],[-106.02138,39.46761],[-106.01985,39.46658],[-106.0189,39.46635],[-106.01874,39.46648],[-106.01908,39.46684],[-106.0191,39.46707],[-106.01898,39.46711],[-106.01717,39.46578],[-106.01643,39.46546],[-106.01547,39.46525],[-106.01513,39.46488],[-106.01518,39.46444],[-106.01547,39.46417],[-106.01594,39.46406],[-106.01756,39.4641],[-106.01817,39.46402],[-106.01991,39.46292],[-106.02144,39.46265],[-106.02212,39.46191],[-106.02254,39.4618],[-106.02233,39.46258],[-106.0228,39.46362],[-106.02243,39.46381],[-106.02213,39.46412],[-106.02283,39.46464],[-106.0229,39.46498],[-106.02332,39.46497],[-106.02335,39.46481],[-106.02345,39.46484],[-106.02364,39.46505],[-106.02375,39.46561],[-106.02457,39.46628],[-106.02453,39.46646],[-106.02465,39.4666],[-106.02496,39.46663],[-106.02522,39.46648],[-106.0254,39.46616],[-106.02535,39.46592],[-106.0258,39.46619],[-106.02588,39.46667],[-106.02618,39.4664],[-106.02629,39.46594],[-106.0265,39.46617],[-106.02649,39.46653],[-106.02666,39.46646],[-106.02692,39.46607],[-106.02699,39.46647],[-106.02683,39.46668],[-106.02685,39.46691],[-106.02754,39.46746],[-106.02755,39.46708],[-106.02812,39.46753],[-106.02834,39.46727],[-106.02813,39.46708],[-106.02808,39.46667],[-106.02873,39.46691],[-106.02888,39.46681],[-106.02896,39.46713],[-106.02929,39.46674],[-106.02978,39.46659],[-106.02998,39.4662],[-106.03081,39.46579],[-106.0314,39.46516],[-106.03241,39.46487],[-106.03288,39.46453],[-106.03329,39.46446],[-106.03317,39.46428],[-106.03251,39.4639],[-106.03193,39.4627],[-106.03151,39.46255],[-106.03037,39.46155],[-106.02972,39.46068],[-106.02878,39.46014],[-106.02865,39.45957],[-106.02895,39.45856],[-106.02856,39.45747],[-106.02786,39.45672],[-106.02742,39.456],[-106.02634,39.4551],[-106.0261,39.45468],[-106.0262,39.45406],[-106.02516,39.45292],[-106.02419,39.45218],[-106.02379,39.45167],[-106.02369,39.4513],[-106.024,39.4507],[-106.02434,39.45089],[-106.02454,39.45087],[-106.02426,39.45001],[-106.0253,39.45051],[-106.0258,39.45065],[-106.02599,39.4506],[-106.02686,39.44968],[-106.02696,39.44889],[-106.02811,39.44765],[-106.03015,39.44639],[-106.03059,39.446],[-106.03194,39.44547],[-106.03355,39.4445],[-106.03429,39.44391],[-106.03663,39.44144],[-106.03678,39.44079],[-106.03701,39.44059],[-106.03737,39.43985],[-106.03788,39.43815],[-106.03803,39.43652],[-106.03788,39.43636],[-106.03768,39.43526],[-106.03704,39.435],[-106.03692,39.43451],[-106.03648,39.43382],[-106.03638,39.43319],[-106.03645,39.43286],[-106.03559,39.43189],[-106.03503,39.43146],[-106.03464,39.43066],[-106.03341,39.42961],[-106.03223,39.42895],[-106.03207,39.42906],[-106.03294,39.4304],[-106.03086,39.42967],[-106.02794,39.42954],[-106.02718,39.42922],[-106.0254,39.42886],[-106.02336,39.42809],[-106.02221,39.42797],[-106.02071,39.42746],[-106.01886,39.42752],[-106.0183,39.4274],[-106.01771,39.42705],[-106.01583,39.42669],[-106.01493,39.42644],[-106.01455,39.42621],[-106.01397,39.4263],[-106.01304,39.42607],[-106.01244,39.42585],[-106.0117,39.42533],[-106.00993,39.42485],[-106.00953,39.42463],[-106.00745,39.42287],[-106.0042,39.42121],[-106.00304,39.42008],[-106.00285,39.41966],[-106.00283,39.42073],[-106.00324,39.42178],[-106.00249,39.42145],[-106.00148,39.4208],[-106.0013,39.42172],[-106.00118,39.42181],[-106.00062,39.42142],[-105.99962,39.42128],[-105.9989,39.42144],[-105.99838,39.42167],[-105.99712,39.42144],[-105.9969,39.42157],[-105.99782,39.42333],[-105.99918,39.42477],[-105.99968,39.42572],[-105.99985,39.42631],[-106.0001,39.42664],[-106.00017,39.427],[-106.00198,39.42871],[-106.0024,39.42896],[-106.00334,39.43012],[-106.00359,39.43084],[-106.0035,39.43126],[-106.00399,39.43196],[-106.00378,39.43224],[-106.00293,39.43204],[-106.00112,39.4313],[-106.00066,39.43085],[-106.00005,39.43054],[-105.99931,39.42991],[-105.99764,39.42938],[-105.99476,39.42788],[-105.99246,39.42638],[-105.9912,39.42498],[-105.99004,39.42438],[-105.98949,39.42424],[-105.98846,39.42447],[-105.9881,39.42443],[-105.98714,39.42397],[-105.98528,39.42275],[-105.98338,39.42206],[-105.98244,39.42213],[-105.98122,39.42284],[-105.98099,39.42322],[-105.98122,39.42376],[-105.98186,39.42477],[-105.98248,39.42518],[-105.98274,39.42549],[-105.98279,39.42585],[-105.98261,39.42704],[-105.98277,39.4274],[-105.98315,39.42764],[-105.98359,39.42775],[-105.98492,39.42754],[-105.98564,39.42759],[-105.98622,39.42778],[-105.98707,39.42831],[-105.99057,39.43122],[-105.99108,39.43196],[-105.99143,39.43263],[-105.99155,39.43324],[-105.99141,39.43365],[-105.99058,39.43443],[-105.99056,39.43471],[-105.99084,39.43513],[-105.99113,39.4353],[-105.99243,39.43563],[-105.99342,39.43573],[-105.99485,39.43629],[-105.99509,39.43649],[-105.99519,39.43686],[-105.99512,39.43711],[-105.99412,39.43778],[-105.99392,39.43801],[-105.99386,39.43834],[-105.99449,39.43966],[-105.99516,39.44154],[-105.99628,39.44323],[-105.99619,39.44412],[-105.99642,39.4443],[-105.99693,39.4443],[-105.99668,39.44462],[-105.9968,39.4447],[-105.99715,39.44465],[-105.99796,39.44422],[-105.99837,39.44426],[-105.99873,39.44442],[-105.99882,39.44503],[-105.99945,39.4458],[-105.99966,39.44666],[-105.99985,39.44689],[-106.00051,39.44712],[-106.0019,39.44717],[-106.00234,39.44764],[-106.0023,39.44847],[-106.00276,39.44964],[-106.003,39.45079],[-106.00372,39.45293],[-106.00376,39.45444],[-106.00362,39.45523],[-106.00397,39.45613],[-106.00388,39.45691],[-106.00335,39.45724],[-106.00294,39.45722],[-106.00188,39.45676],[-106.00112,39.45623],[-106.00015,39.45574],[-105.99892,39.45588],[-105.99716,39.45635],[-105.99654,39.45641],[-105.99612,39.45626],[-105.99592,39.45642],[-105.99606,39.45747],[-105.99596,39.45781],[-105.99573,39.45815],[-105.99523,39.45854],[-105.99585,39.46025],[-105.99603,39.46213],[-105.99666,39.46294],[-105.99785,39.46413],[-105.99779,39.46443],[-105.99696,39.46581],[-105.99714,39.46657],[-105.99764,39.46739],[-105.99831,39.4677],[-105.99792,39.46823],[-105.9964,39.46906],[-105.99493,39.46964],[-105.99409,39.47038],[-105.9933,39.47194],[-105.99345,39.47279],[-105.99339,39.4738],[-105.994,39.4752],[-105.9941,39.47595],[-105.99435,39.47554],[-105.99414,39.47457],[-105.99484,39.47539],[-105.99514,39.47595],[-105.99533,39.47723],[-105.99548,39.47711],[-105.9956,39.47666],[-105.9956,39.47606],[-105.99576,39.47627],[-105.99594,39.47723],[-105.99576,39.47778],[-105.99635,39.47846],[-105.99609,39.47855],[-105.99522,39.4784],[-105.99468,39.47844],[-105.99346,39.4794],[-105.99271,39.4794],[-105.99226,39.47955],[-105.99204,39.47969],[-105.99184,39.48002],[-105.9902,39.4808],[-105.98923,39.48143],[-105.9873,39.48235],[-105.9863,39.48262],[-105.98451,39.48341],[-105.98177,39.48408],[-105.97899,39.48524],[-105.9783,39.48538],[-105.97742,39.48537],[-105.97737,39.48561],[-105.97762,39.48587],[-105.97948,39.48622],[-105.97907,39.48664],[-105.9783,39.48655],[-105.97773,39.48663],[-105.97721,39.48645],[-105.97681,39.48649],[-105.97639,39.48637],[-105.97559,39.48635],[-105.97495,39.48618],[-105.97368,39.4862],[-105.973,39.48632],[-105.9728,39.48646],[-105.97218,39.48624],[-105.97163,39.48622],[-105.97135,39.48636],[-105.97077,39.48604],[-105.96931,39.48478],[-105.96854,39.48482],[-105.9681,39.48469],[-105.96809,39.48451],[-105.96793,39.48436],[-105.96751,39.48436],[-105.96722,39.4842],[-105.96613,39.48325],[-105.9651,39.48189],[-105.96494,39.48185],[-105.9643,39.48121],[-105.96322,39.48096],[-105.96242,39.48039],[-105.96152,39.48004],[-105.96039,39.47943],[-105.95978,39.4795],[-105.95903,39.47945],[-105.95712,39.47871],[-105.95576,39.47803],[-105.95513,39.47758],[-105.95443,39.47661],[-105.95372,39.4761],[-105.95264,39.47608],[-105.9518,39.47592],[-105.95158,39.4758],[-105.95107,39.47525],[-105.95051,39.47485],[-105.95012,39.47435],[-105.94875,39.47354],[-105.94803,39.47269],[-105.94778,39.47165],[-105.94795,39.47077],[-105.94785,39.47027],[-105.9476,39.46982],[-105.94719,39.46973],[-105.94719,39.47031],[-105.94685,39.47149],[-105.94678,39.4724],[-105.94699,39.47329],[-105.94751,39.47419],[-105.94936,39.47575],[-105.95123,39.47794],[-105.95285,39.47918],[-105.95366,39.48036],[-105.95461,39.48068],[-105.95524,39.48072],[-105.95639,39.48113],[-105.95804,39.48188],[-105.95934,39.48269],[-105.96003,39.48295],[-105.96127,39.48323],[-105.96219,39.48378],[-105.96244,39.48404],[-105.96267,39.48469],[-105.96401,39.48611],[-105.96476,39.48717],[-105.96551,39.48753],[-105.96622,39.48774],[-105.96756,39.48921],[-105.96905,39.49019],[-105.96971,39.49106],[-105.97026,39.49142],[-105.97057,39.49145],[-105.97091,39.49132],[-105.97134,39.49132],[-105.97253,39.49167],[-105.97349,39.49175],[-105.97396,39.49189],[-105.97415,39.49177],[-105.9743,39.49139],[-105.97487,39.49108],[-105.97511,39.49051],[-105.97559,39.48989],[-105.97636,39.49027],[-105.97762,39.49038],[-105.97845,39.49032],[-105.97937,39.49004],[-105.97971,39.49006],[-105.98029,39.49046],[-105.98041,39.49127],[-105.98114,39.49192],[-105.98183,39.49185],[-105.98229,39.49168],[-105.98274,39.49167],[-105.98413,39.49121],[-105.98535,39.49134],[-105.9857,39.49222],[-105.98567,39.49252],[-105.9852,39.49285],[-105.98441,39.49296],[-105.98449,39.49343],[-105.98373,39.49416],[-105.98374,39.49436],[-105.98412,39.49455],[-105.98421,39.49483],[-105.98492,39.49547],[-105.98515,39.49606],[-105.98704,39.49685],[-105.9888,39.49794],[-105.98888,39.49816],[-105.98922,39.49841],[-105.98968,39.49855],[-105.99018,39.49851],[-105.99053,39.49865],[-105.99143,39.49929],[-105.99139,39.49967],[-105.99161,39.49979],[-105.99191,39.50025],[-105.99218,39.50032],[-105.99246,39.50024],[-105.99348,39.50077],[-105.99435,39.50066],[-105.99459,39.50051],[-105.99535,39.50047],[-105.99516,39.49978],[-105.99486,39.49954],[-105.99523,39.49878],[-105.99487,39.49849],[-105.99428,39.49712],[-105.99442,39.4965],[-105.99483,39.49584],[-105.99608,39.49471],[-105.9967,39.49438],[-105.99667,39.49423],[-105.99521,39.49368],[-105.99508,39.49329],[-105.99522,39.49255],[-105.99646,39.49202],[-105.99728,39.49263],[-105.99855,39.49254],[-105.99965,39.49261],[-105.99998,39.49219],[-106.00176,39.49194],[-106.00212,39.49224],[-106.00346,39.4922],[-106.00424,39.49244],[-106.0047,39.49245],[-106.00526,39.49223],[-106.0053,39.49262],[-106.00603,39.49212],[-106.00613,39.49219],[-106.00589,39.49261],[-106.00631,39.49236],[-106.00765,39.49211],[-106.00803,39.49186],[-106.00982,39.49181],[-106.01142,39.49249],[-106.0126,39.49271],[-106.0135,39.49305],[-106.01382,39.49342],[-106.01355,39.49434],[-106.01363,39.49459],[-106.0141,39.49474],[-106.01421,39.49434],[-106.01414,39.49411],[-106.01429,39.49402],[-106.01498,39.49446],[-106.01536,39.49491],[-106.01547,39.49484],[-106.01546,39.49468],[-106.01479,39.4936],[-106.01498,39.49338],[-106.01513,39.49377],[-106.01564,39.49419],[-106.01608,39.49493],[-106.01588,39.49554],[-106.01533,39.49596],[-106.01599,39.49579],[-106.0166,39.4953],[-106.01711,39.49466],[-106.01722,39.49466],[-106.01739,39.49511],[-106.01753,39.49497],[-106.01802,39.4948],[-106.01801,39.4946],[-106.01818,39.49439],[-106.01801,39.49424],[-106.01836,39.49403],[-106.01799,39.4939],[-106.0177,39.49355],[-106.01759,39.4932],[-106.01784,39.49352],[-106.01829,39.49362],[-106.01887,39.49342],[-106.01929,39.49308],[-106.01972,39.49305],[-106.02048,39.49369],[-106.02131,39.4957],[-106.02148,39.49639],[-106.02166,39.49574],[-106.02145,39.49359],[-106.02168,39.49388],[-106.02202,39.49486],[-106.02284,39.49551],[-106.02284,39.49536],[-106.02202,39.49429],[-106.02194,39.49378],[-106.02296,39.49443],[-106.02341,39.4946],[-106.02373,39.49462],[-106.02476,39.49405],[-106.02579,39.49406],[-106.0267,39.49395],[-106.02711,39.49341],[-106.02751,39.49242],[-106.02795,39.49215],[-106.02852,39.4922],[-106.02951,39.4921],[-106.03004,39.49219],[-106.03043,39.49243],[-106.03064,39.49157],[-106.03099,39.49212],[-106.0316,39.49245],[-106.0317,39.49151],[-106.03091,39.49067],[-106.02977,39.48982],[-106.02879,39.48923],[-106.02756,39.48879],[-106.02663,39.48889],[-106.02625,39.48877],[-106.0259,39.48753],[-106.02539,39.48674],[-106.02362,39.48534],[-106.02282,39.48539],[-106.02262,39.4853],[-106.02267,39.48519],[-106.02303,39.4851],[-106.02391,39.48456],[-106.02465,39.48478],[-106.02523,39.48468],[-106.02536,39.48452],[-106.02282,39.48253],[-106.02091,39.48151],[-106.02,39.48121],[-106.01952,39.48122],[-106.01598,39.48243],[-106.01445,39.48267],[-106.01001,39.48399],[-106.00981,39.48389],[-106.00958,39.48321],[-106.01015,39.48264],[-106.01011,39.48244],[-106.008,39.48297],[-106.00714,39.48261],[-106.00729,39.48237],[-106.00803,39.48197],[-106.00886,39.48181],[-106.0094,39.48141],[-106.01008,39.48116],[-106.01045,39.48114],[-106.01098,39.48089],[-106.01109,39.48073],[-106.01057,39.48077],[-106.01107,39.48029],[-106.01074,39.48029],[-106.01177,39.47963],[-106.01122,39.47975],[-106.01085,39.47971],[-106.01114,39.47964],[-106.0119,39.47914],[-106.01219,39.47916],[-106.01265,39.47894],[-106.01383,39.47875],[-106.01595,39.47795],[-106.01685,39.47695],[-106.0177,39.47663],[-106.01792,39.47639],[-106.01872,39.47675],[-106.0194,39.47653],[-106.0233,39.47647],[-106.02582,39.47742],[-106.02634,39.47745],[-106.02718,39.47721],[-106.02756,39.4773],[-106.02766,39.47752],[-106.0279,39.47768],[-106.02882,39.47763],[-106.02923,39.47771],[-106.02962,39.4777],[-106.03033,39.47733],[-106.03144,39.47713],[-106.03261,39.47653],[-106.03303,39.47656],[-106.03302,39.47671],[-106.0332,39.47674],[-106.03317,39.47692],[-106.03356,39.47707],[-106.03365,39.47733],[-106.03419,39.47755],[-106.03489,39.47767],[-106.03479,39.47782],[-106.03522,39.47801],[-106.03518,39.47817],[-106.03549,39.47822],[-106.03552,39.47833],[-106.0359,39.47844],[-106.03597,39.47857],[-106.03637,39.47854],[-106.0366,39.47862],[-106.03715,39.4783],[-106.03753,39.47758],[-106.03778,39.47787],[-106.03786,39.47753],[-106.03812,39.47783],[-106.03831,39.47749],[-106.03854,39.47778],[-106.03876,39.47754],[-106.03898,39.47783],[-106.03921,39.47752],[-106.03988,39.4785],[-106.04075,39.47847],[-106.04115,39.47998],[-106.04161,39.48382],[-106.04176,39.48416],[-106.04115,39.48562],[-106.04018,39.4864],[-106.03942,39.48728],[-106.03892,39.48747],[-106.03713,39.48708],[-106.03593,39.48609],[-106.03509,39.48582],[-106.03333,39.48584],[-106.03191,39.48601],[-106.02995,39.48575],[-106.02808,39.48622],[-106.02735,39.48593],[-106.02556,39.48464],[-106.02466,39.48471],[-106.02401,39.48454],[-106.02309,39.48507],[-106.02258,39.48521],[-106.02277,39.48538],[-106.0236,39.48533],[-106.02555,39.48683],[-106.02599,39.48761],[-106.02622,39.48878],[-106.02654,39.48887],[-106.02741,39.48877],[-106.02892,39.48929],[-106.03021,39.4901],[-106.03041,39.49036],[-106.03086,39.49063],[-106.03116,39.49103],[-106.03167,39.49139],[-106.03173,39.4916],[-106.0316,39.4922],[-106.03174,39.49319],[-106.03262,39.49418],[-106.03289,39.49619],[-106.03288,39.49672],[-106.0325,39.49775],[-106.03215,39.49944],[-106.03206,39.50191],[-106.03169,39.50223],[-106.02776,39.50283],[-106.02654,39.50317],[-106.02611,39.50317],[-106.02558,39.50299],[-106.02463,39.50212],[-106.02419,39.50095],[-106.02425,39.50044],[-106.02365,39.50014],[-106.02331,39.49967],[-106.02243,39.49914],[-106.02065,39.49932],[-106.01831,39.50001],[-106.01715,39.50013],[-106.01674,39.49998],[-106.01552,39.49917],[-106.01397,39.49863],[-106.01135,39.49808],[-106.00984,39.49738],[-106.0087,39.4967],[-106.00794,39.49664],[-106.00768,39.49649],[-106.00671,39.49625],[-106.00629,39.49627],[-106.00557,39.49647],[-106.00462,39.49653],[-106.00355,39.49688],[-106.00333,39.49735],[-106.00351,39.49784],[-106.0035,39.49831],[-106.00327,39.49852],[-106.00222,39.4988],[-106.0014,39.49923],[-106.00045,39.49945],[-105.99966,39.4998],[-105.99899,39.49984],[-105.99836,39.50006],[-105.99786,39.49999],[-105.99686,39.5001],[-105.99592,39.50038],[-105.99558,39.50154],[-105.99498,39.50174],[-105.99463,39.50219],[-105.99464,39.50243],[-105.99509,39.50308],[-105.99508,39.50333],[-105.99469,39.50426],[-105.99403,39.50502],[-105.99399,39.50548],[-105.99358,39.5065],[-105.99279,39.50755],[-105.9923,39.50862],[-105.99141,39.5093],[-105.99132,39.50964],[-105.99228,39.5112],[-105.99288,39.51166],[-105.99314,39.5125],[-105.99411,39.5134],[-105.99551,39.51403],[-105.99584,39.5143],[-105.99583,39.51479],[-105.99631,39.51529],[-105.99667,39.51595],[-105.99661,39.5162],[-105.99622,39.51649],[-105.99559,39.51663],[-105.99588,39.51695],[-105.99648,39.51683],[-105.99684,39.51664],[-105.99699,39.51641],[-105.99701,39.5147],[-105.9971,39.51484],[-105.99719,39.5153],[-105.99775,39.51666],[-105.99766,39.51722],[-105.99791,39.51761],[-105.99835,39.518],[-105.99719,39.51883],[-105.99673,39.51892],[-105.99683,39.51914],[-105.99727,39.51931],[-105.99803,39.51899],[-105.9987,39.51884],[-105.999,39.51869],[-105.99943,39.5182],[-105.99955,39.51785],[-105.99973,39.51547],[-105.99993,39.51471],[-106.00044,39.51754],[-106.00042,39.51828],[-106.00032,39.51859],[-105.99995,39.51899],[-105.99941,39.51934],[-105.99861,39.51968],[-105.99794,39.52046],[-105.99664,39.52055],[-105.99588,39.52027],[-105.99563,39.52043],[-105.99526,39.52047],[-105.99522,39.52058],[-105.99591,39.52105],[-105.99531,39.52093],[-105.99556,39.52127],[-105.99514,39.52122],[-105.99532,39.52139],[-105.99522,39.52145],[-105.99428,39.52098],[-105.99446,39.51996],[-105.99432,39.51927],[-105.99323,39.51797],[-105.99299,39.51791],[-105.9929,39.51817],[-105.99242,39.5185],[-105.9921,39.51924],[-105.99167,39.51973],[-105.99173,39.5198],[-105.9919,39.51974],[-105.99254,39.51892],[-105.99313,39.51902],[-105.99344,39.51946],[-105.99322,39.52035],[-105.99283,39.52111],[-105.99246,39.52155],[-105.99268,39.52262],[-105.99249,39.52254],[-105.99237,39.52221],[-105.99213,39.52212],[-105.99178,39.52275],[-105.9912,39.52326],[-105.99064,39.52358],[-105.98997,39.52372],[-105.98916,39.52358],[-105.98688,39.52365],[-105.98589,39.52351],[-105.98573,39.52336],[-105.98578,39.52255],[-105.98531,39.52128],[-105.98507,39.52111],[-105.98456,39.52105],[-105.98377,39.52149],[-105.98294,39.52226],[-105.98216,39.52254],[-105.98169,39.52249],[-105.9814,39.52209],[-105.98023,39.52156],[-105.9794,39.52239],[-105.97762,39.52283],[-105.97469,39.52296],[-105.9737,39.52287],[-105.97284,39.52249],[-105.97269,39.52208],[-105.97273,39.52185],[-105.9735,39.52065],[-105.97367,39.52009],[-105.97364,39.5196],[-105.97383,39.51908],[-105.97352,39.51885],[-105.97281,39.51935],[-105.97179,39.5203],[-105.96978,39.52157],[-105.96901,39.52174],[-105.96802,39.52171],[-105.96726,39.52148],[-105.967,39.52082],[-105.96628,39.5209],[-105.96591,39.52083],[-105.9637,39.52002],[-105.96296,39.51957],[-105.96145,39.51938],[-105.96048,39.51904],[-105.95998,39.51875],[-105.95865,39.51853],[-105.95692,39.51764],[-105.95673,39.51745],[-105.95661,39.51706],[-105.95639,39.51702],[-105.9561,39.51671],[-105.95568,39.51659],[-105.95548,39.51642],[-105.9547,39.51539],[-105.954,39.51412],[-105.95337,39.51351],[-105.95302,39.51279],[-105.95245,39.51236],[-105.95105,39.51169],[-105.95046,39.51111],[-105.94974,39.50993],[-105.94965,39.50922],[-105.94898,39.50803],[-105.94857,39.50657],[-105.9483,39.50648],[-105.94777,39.50653],[-105.94639,39.50639],[-105.94646,39.50531],[-105.94628,39.5048],[-105.94635,39.50407],[-105.94609,39.50361],[-105.94605,39.50289],[-105.9456,39.50216],[-105.94574,39.50119],[-105.94524,39.4993],[-105.94519,39.49819],[-105.94531,39.49772],[-105.94504,39.49595],[-105.94492,39.49571],[-105.94461,39.49549],[-105.9442,39.49542],[-105.9437,39.49553],[-105.94171,39.49664],[-105.9409,39.49694],[-105.94073,39.49715],[-105.94006,39.49749],[-105.93899,39.49775],[-105.93801,39.49776],[-105.93716,39.4981],[-105.93561,39.4984],[-105.93411,39.49842],[-105.93288,39.4982],[-105.932,39.49827],[-105.93135,39.49804],[-105.93045,39.49801],[-105.92913,39.49778],[-105.92743,39.49791],[-105.92632,39.49772],[-105.92567,39.49784],[-105.92567,39.49801],[-105.9258,39.49805],[-105.9266,39.49804],[-105.92747,39.49833],[-105.92911,39.49829],[-105.9295,39.4984],[-105.93076,39.49847],[-105.93118,39.49868],[-105.93183,39.49855],[-105.93257,39.49865],[-105.93286,39.49883],[-105.93359,39.49905],[-105.93372,39.49928],[-105.93527,39.49979],[-105.93577,39.49978],[-105.93676,39.49954],[-105.93765,39.49952],[-105.93837,39.5001],[-105.93823,39.50014],[-105.93798,39.50002],[-105.93778,39.50015],[-105.93793,39.50048],[-105.93842,39.50065],[-105.93853,39.5008],[-105.93894,39.50086],[-105.94,39.50154],[-105.94019,39.5024],[-105.94046,39.50271],[-105.94042,39.50294],[-105.94099,39.50387],[-105.94116,39.50499],[-105.94149,39.50538],[-105.94228,39.50596],[-105.94306,39.50693],[-105.94321,39.50812],[-105.94299,39.50967],[-105.9423,39.51099],[-105.942,39.51225],[-105.94169,39.51251],[-105.94115,39.51273],[-105.94008,39.51291],[-105.93944,39.51318],[-105.93796,39.51325],[-105.9372,39.51375],[-105.93727,39.5141],[-105.93687,39.51444],[-105.93676,39.51488],[-105.93644,39.51517],[-105.93621,39.51529],[-105.93588,39.51524],[-105.93537,39.51553],[-105.9344,39.51572],[-105.93351,39.51617],[-105.93351,39.51632],[-105.93372,39.51645],[-105.93436,39.51657],[-105.93508,39.51654],[-105.93593,39.51663],[-105.9371,39.51703],[-105.9376,39.51754],[-105.93783,39.5187],[-105.93833,39.51917],[-105.93883,39.51914],[-105.93777,39.52124],[-105.93758,39.52131],[-105.93743,39.52118],[-105.93694,39.52208],[-105.93603,39.5203],[-105.93518,39.51965],[-105.93494,39.51963],[-105.93465,39.51978],[-105.93368,39.52073],[-105.93364,39.52143],[-105.93314,39.52195],[-105.93321,39.52243],[-105.93302,39.5227],[-105.9336,39.5229],[-105.93347,39.52339],[-105.93316,39.52392],[-105.93254,39.52401],[-105.93272,39.52448],[-105.93249,39.52539],[-105.93254,39.52632],[-105.93237,39.52887],[-105.93255,39.52979],[-105.93274,39.53005],[-105.93281,39.53046],[-105.93346,39.53087],[-105.93332,39.53129],[-105.93342,39.53152],[-105.93427,39.53191],[-105.93437,39.53214],[-105.9348,39.53255],[-105.93477,39.53292],[-105.93441,39.53352],[-105.93479,39.53459],[-105.9349,39.53525],[-105.93513,39.5355],[-105.93569,39.53576],[-105.93654,39.53593],[-105.93848,39.53594],[-105.93979,39.53653],[-105.94025,39.53689],[-105.94101,39.53777],[-105.94354,39.53965],[-105.94506,39.54127],[-105.9457,39.54143],[-105.94621,39.5417],[-105.94675,39.54223],[-105.9474,39.54251],[-105.94849,39.54279],[-105.9491,39.54314],[-105.94924,39.54361],[-105.94878,39.54429],[-105.94882,39.5447],[-105.95015,39.54538],[-105.95074,39.5459],[-105.95126,39.54606],[-105.95235,39.54619],[-105.95328,39.54683],[-105.95438,39.54689],[-105.95659,39.5475],[-105.9569,39.5477],[-105.95758,39.54888],[-105.9573,39.54986],[-105.95783,39.5502],[-105.95826,39.5511],[-105.95912,39.55165],[-105.9589,39.55115],[-105.959,39.54989],[-105.95956,39.54808],[-105.95982,39.54773],[-105.96041,39.5474],[-105.96184,39.54712],[-105.96216,39.54676],[-105.96217,39.54651],[-105.96252,39.54686],[-105.96251,39.5471],[-105.96088,39.54805],[-105.96298,39.5477],[-105.96169,39.54848],[-105.96352,39.54812],[-105.96468,39.54766],[-105.96635,39.54737],[-105.96568,39.54791],[-105.96502,39.54806],[-105.96448,39.54836],[-105.96492,39.54824],[-105.9655,39.54832],[-105.96704,39.54758],[-105.96804,39.54651],[-105.96864,39.54541],[-105.9694,39.54458],[-105.96944,39.5443],[-105.9692,39.54374],[-105.96995,39.54396],[-105.97036,39.54418],[-105.97012,39.54351],[-105.96948,39.54286],[-105.96913,39.54273],[-105.96864,39.54272],[-105.96796,39.54225],[-105.96859,39.54234],[-105.96878,39.54223],[-105.96965,39.5421],[-105.96995,39.5419],[-105.96974,39.54174],[-105.96984,39.54165],[-105.9707,39.54176],[-105.97121,39.54196],[-105.9715,39.54221],[-105.97162,39.5432],[-105.97188,39.54373],[-105.97239,39.54426],[-105.97259,39.54514],[-105.97209,39.54648],[-105.9715,39.54672],[-105.97119,39.5467],[-105.97056,39.54713],[-105.9706,39.54734],[-105.97038,39.54814],[-105.97028,39.54825],[-105.97,39.54827],[-105.96954,39.54895],[-105.96924,39.55022],[-105.96898,39.55055],[-105.96846,39.55077],[-105.96871,39.55085],[-105.96949,39.55047],[-105.97014,39.54967],[-105.97121,39.54863],[-105.9715,39.54861],[-105.97195,39.54839],[-105.97266,39.54832],[-105.97272,39.54809],[-105.97298,39.54803],[-105.97337,39.54768],[-105.97424,39.54837],[-105.97437,39.54936],[-105.97379,39.54968],[-105.97437,39.55001],[-105.97498,39.55004],[-105.9757,39.54971],[-105.97656,39.54966],[-105.97762,39.54901],[-105.97835,39.54875],[-105.97965,39.54895],[-105.98074,39.54968],[-105.98216,39.55003],[-105.98264,39.5504],[-105.98292,39.55183],[-105.98274,39.55307],[-105.98294,39.55368],[-105.98334,39.554],[-105.9838,39.5547],[-105.985,39.55555],[-105.98641,39.55681],[-105.98775,39.55749],[-105.98807,39.55828],[-105.98863,39.55908],[-105.98992,39.56034],[-105.99032,39.56102],[-105.99057,39.56187],[-105.991,39.5621],[-105.99141,39.56217],[-105.99197,39.56145],[-105.9928,39.56101],[-105.99317,39.56093],[-105.99457,39.56105],[-105.99501,39.5608],[-105.99554,39.56031],[-105.99575,39.5596],[-105.9963,39.55906],[-105.99676,39.55706],[-105.99777,39.556],[-105.99873,39.55522],[-105.99912,39.5545],[-105.99915,39.55393],[-105.99902,39.55345],[-105.99852,39.55254],[-105.99814,39.55236],[-105.99765,39.55253],[-105.99695,39.55248],[-105.99683,39.55214],[-105.99729,39.5514],[-105.99848,39.55022],[-105.99889,39.54963],[-105.99895,39.54886],[-105.99878,39.54825],[-105.9985,39.54795],[-105.99857,39.54736],[-105.99892,39.54652],[-105.99937,39.54605],[-105.99934,39.54542],[-105.99947,39.54544],[-105.99974,39.54591],[-106.00017,39.54597],[-106.00024,39.54556],[-106.00015,39.54523],[-105.99992,39.54497],[-106.00006,39.54486],[-106.00008,39.54454],[-106.00021,39.54438],[-106.00019,39.54409],[-106.00041,39.54403],[-106.0006,39.54439],[-106.00111,39.54454],[-106.00149,39.54416],[-106.00134,39.545],[-106.00105,39.54505],[-106.00079,39.54523],[-106.00058,39.54563],[-106.00066,39.54586],[-106.00172,39.54586],[-106.00237,39.54617],[-106.00254,39.54599],[-106.00279,39.54598],[-106.00295,39.54614],[-106.00319,39.54617],[-106.00348,39.54657],[-106.00377,39.54647],[-106.00433,39.54649],[-106.00516,39.54603],[-106.00552,39.54611],[-106.00581,39.54635],[-106.00658,39.54577],[-106.00674,39.54542],[-106.00669,39.54516],[-106.0064,39.54503],[-106.00634,39.54471],[-106.00649,39.54446],[-106.00624,39.54418],[-106.00638,39.5439],[-106.00633,39.54359],[-106.00674,39.54332],[-106.00623,39.54307],[-106.00604,39.5427],[-106.00639,39.54246],[-106.00654,39.54203],[-106.00575,39.54088],[-106.00504,39.54059],[-106.00423,39.53965],[-106.00374,39.53955],[-106.00351,39.53977],[-106.00359,39.53995],[-106.00348,39.54005],[-106.00288,39.53998],[-106.00253,39.53976],[-106.00188,39.53987],[-106.0013,39.53954],[-106.00002,39.53976],[-105.99987,39.5397],[-105.99987,39.53883],[-106.00007,39.53851],[-105.99971,39.53776],[-105.99984,39.53722],[-105.99972,39.53648],[-105.9992,39.53605],[-105.99945,39.5348],[-105.99936,39.53424],[-105.99883,39.53377],[-105.99747,39.53346],[-105.9969,39.53313],[-105.99716,39.53253],[-105.99791,39.53231],[-105.99832,39.53193],[-105.99827,39.53154],[-105.99766,39.53061],[-105.99808,39.52988],[-105.99629,39.52923],[-105.99618,39.52898],[-105.99489,39.52806],[-105.99498,39.52794],[-105.99474,39.52769],[-105.9935,39.52708],[-105.99381,39.52704],[-105.99408,39.52718],[-105.99537,39.52749],[-105.99634,39.52737],[-105.99538,39.52663],[-105.9941,39.52624],[-105.99328,39.52578],[-105.99358,39.52578],[-105.99339,39.52564],[-105.9939,39.52553],[-105.99344,39.52532],[-105.99295,39.52461],[-105.99269,39.52235],[-105.99242,39.52164],[-105.9929,39.52102],[-105.99332,39.5202],[-105.99348,39.51973],[-105.9934,39.51913],[-105.99315,39.51891],[-105.99274,39.51881],[-105.99252,39.51896],[-105.99199,39.51971],[-105.99162,39.51987],[-105.99204,39.5194],[-105.99236,39.51852],[-105.99271,39.51813],[-105.99276,39.51777],[-105.9929,39.51772],[-105.99313,39.51783],[-105.99384,39.5186],[-105.99425,39.51929],[-105.99432,39.51969],[-105.99403,39.52086],[-105.9949,39.52135],[-105.99519,39.52142],[-105.99504,39.52119],[-105.99554,39.52127],[-105.99524,39.52089],[-105.99587,39.521],[-105.99506,39.52042],[-105.99515,39.52027],[-105.99538,39.52022],[-105.99545,39.52005],[-105.99625,39.52044],[-105.99727,39.52052],[-105.99772,39.52047],[-105.99839,39.51979],[-105.99976,39.51912],[-106.0001,39.51876],[-106.00038,39.51781],[-106.00002,39.51561],[-105.99999,39.5145],[-106.00034,39.51372],[-106.00091,39.51302],[-106.00109,39.51302],[-106.00127,39.5132],[-106.00143,39.51386],[-106.00188,39.51432],[-106.00272,39.51457],[-106.0033,39.51491],[-106.00539,39.51687],[-106.00581,39.51709],[-106.00633,39.51719],[-106.00784,39.51682],[-106.009,39.51618],[-106.0106,39.51557],[-106.01146,39.51506],[-106.01277,39.51508],[-106.01369,39.51481],[-106.01493,39.51416],[-106.01566,39.51353],[-106.01582,39.5135],[-106.01638,39.5136],[-106.01654,39.51379],[-106.016,39.51419],[-106.01549,39.5143],[-106.01487,39.51459],[-106.01384,39.51535],[-106.01434,39.51528],[-106.01437,39.51544],[-106.01515,39.51519],[-106.01528,39.5154],[-106.01564,39.51551],[-106.01559,39.51572],[-106.01613,39.5162],[-106.0161,39.51651],[-106.01662,39.51654],[-106.01656,39.51678],[-106.01624,39.5171],[-106.01547,39.51737],[-106.01605,39.51772],[-106.01668,39.51767],[-106.01708,39.51785],[-106.01726,39.51805],[-106.0173,39.51867],[-106.01743,39.51884],[-106.01861,39.51938],[-106.01963,39.51971],[-106.02106,39.52008],[-106.02175,39.52007],[-106.02228,39.51947],[-106.02316,39.51898],[-106.02402,39.51863],[-106.02469,39.51796],[-106.025,39.51682],[-106.02461,39.5163],[-106.02428,39.51556],[-106.02433,39.51546],[-106.02531,39.51677],[-106.02544,39.51738],[-106.02515,39.51918],[-106.02552,39.52019],[-106.02581,39.51884],[-106.02632,39.51781],[-106.0266,39.5168],[-106.02622,39.5164],[-106.02568,39.51607],[-106.02555,39.51553],[-106.02438,39.51387],[-106.0232,39.513],[-106.02219,39.51255],[-106.0219,39.51232],[-106.02161,39.51149],[-106.02103,39.51106],[-106.02065,39.51038],[-106.01979,39.50972],[-106.01957,39.50928],[-106.01955,39.50874],[-106.01918,39.50838],[-106.01896,39.50798],[-106.0192,39.50735],[-106.01915,39.50714],[-106.01837,39.50621],[-106.01831,39.50539],[-106.01778,39.50446],[-106.01802,39.50425],[-106.01884,39.50425],[-106.02096,39.50514],[-106.02166,39.5053],[-106.02268,39.50529],[-106.02316,39.50548],[-106.02402,39.50563],[-106.02515,39.50492],[-106.02622,39.50495],[-106.02715,39.50483],[-106.03007,39.50341],[-106.03072,39.50339],[-106.03054,39.50319],[-106.03087,39.50323],[-106.03067,39.50301],[-106.03107,39.50309],[-106.03136,39.50276],[-106.03116,39.50266],[-106.03147,39.50261],[-106.03132,39.50234],[-106.03089,39.50234],[-106.03044,39.50218],[-106.03052,39.50207],[-106.03084,39.5021],[-106.03104,39.50194],[-106.03061,39.50169],[-106.03094,39.50166],[-106.03173,39.50072],[-106.03187,39.49981],[-106.0322,39.4991],[-106.03217,39.49869],[-106.03239,39.49784],[-106.03284,39.497],[-106.03251,39.49547],[-106.03201,39.4944],[-106.03121,39.49374],[-106.02982,39.49224],[-106.02942,39.49207],[-106.02856,39.4922],[-106.02786,39.49218],[-106.02756,39.49231],[-106.0274,39.49248],[-106.02701,39.49353],[-106.02659,39.494],[-106.02465,39.49409],[-106.02374,39.49462],[-106.02296,39.49441],[-106.02139,39.49334],[-106.02128,39.49276],[-106.02132,39.49192],[-106.02112,39.49154],[-106.02055,39.49136],[-106.01956,39.49083],[-106.01894,39.48982],[-106.01815,39.48921],[-106.01685,39.48796],[-106.01656,39.4871],[-106.01688,39.48591],[-106.01681,39.48572],[-106.01594,39.48557],[-106.01523,39.48563],[-106.01431,39.48524],[-106.01341,39.48517],[-106.01207,39.48556],[-106.01077,39.4866],[-106.00977,39.48712],[-106.00944,39.48718],[-106.00835,39.48689],[-106.00772,39.48701],[-106.00747,39.48676],[-106.007,39.48679],[-106.00606,39.48665],[-106.00525,39.4864],[-106.00521,39.48628],[-106.00536,39.48613],[-106.00621,39.48587],[-106.00706,39.48531],[-106.00736,39.48461],[-106.00552,39.4851],[-106.00239,39.48558],[-105.99662,39.48519],[-105.99535,39.4852],[-105.99241,39.48571],[-105.98995,39.48648],[-105.98815,39.48688],[-105.98578,39.4872],[-105.98445,39.4872],[-105.98347,39.48708],[-105.97967,39.48622],[-105.97913,39.48656],[-105.9791,39.4867],[-105.97927,39.48691],[-105.98177,39.48772],[-105.98357,39.48922],[-105.98454,39.4897],[-105.98529,39.49081],[-105.9854,39.49133],[-105.98579,39.49215],[-105.9858,39.49263],[-105.98533,39.49289],[-105.98389,39.49308],[-105.9829,39.49339],[-105.98185,39.49501],[-105.98127,39.49569],[-105.98096,39.49571],[-105.98021,39.49546],[-105.97971,39.4954],[-105.97786,39.49643],[-105.97735,39.49654],[-105.97623,39.49658],[-105.97555,39.49683],[-105.97462,39.49695],[-105.97424,39.4975],[-105.97397,39.49757],[-105.97356,39.49694],[-105.97237,39.496],[-105.97222,39.49539],[-105.97231,39.49477],[-105.97214,39.49406],[-105.97107,39.4932],[-105.97083,39.49268],[-105.96928,39.49044],[-105.96719,39.48895],[-105.96625,39.48779],[-105.96559,39.48761],[-105.9653,39.48739],[-105.96485,39.48725],[-105.96479,39.48703],[-105.96413,39.48621],[-105.96275,39.48476],[-105.96255,39.48416],[-105.96233,39.48391],[-105.9612,39.48324],[-105.95958,39.48279],[-105.95847,39.48209],[-105.9564,39.48111],[-105.9553,39.48073],[-105.95468,39.48067],[-105.95414,39.48043],[-105.95377,39.48042],[-105.95298,39.4793],[-105.95135,39.47802],[-105.94955,39.47594],[-105.94765,39.47436],[-105.94696,39.47328],[-105.94681,39.47238],[-105.94685,39.47168],[-105.94717,39.47034],[-105.94707,39.4698],[-105.94737,39.46977],[-105.94762,39.47001],[-105.94779,39.47062],[-105.94765,39.47159],[-105.94781,39.47207],[-105.9478,39.47263],[-105.94853,39.47349],[-105.95003,39.47442],[-105.95144,39.47574],[-105.95164,39.47586],[-105.95258,39.47606],[-105.95343,39.47604],[-105.95379,39.47616],[-105.95435,39.47651],[-105.95499,39.47747],[-105.95564,39.47798],[-105.95798,39.4791],[-105.95864,39.47933],[-105.95928,39.47939],[-105.96014,39.47926],[-105.95925,39.47837],[-105.95715,39.47713],[-105.95692,39.47648],[-105.95623,39.47578],[-105.95596,39.47517],[-105.95582,39.47375],[-105.95558,39.47307],[-105.95519,39.47246],[-105.95451,39.47217],[-105.95431,39.47185],[-105.95431,39.47154],[-105.95473,39.47069],[-105.95481,39.4702],[-105.95521,39.46948],[-105.95534,39.46839],[-105.95526,39.46768],[-105.95538,39.46735],[-105.95521,39.4671],[-105.95521,39.46672],[-105.95491,39.46621],[-105.95499,39.46554],[-105.95466,39.46518],[-105.95519,39.46379],[-105.95496,39.46232],[-105.95558,39.46119],[-105.95569,39.46061],[-105.95534,39.46],[-105.95548,39.45935],[-105.95524,39.45869],[-105.95528,39.45809],[-105.95514,39.45738],[-105.95521,39.45637],[-105.95435,39.4558],[-105.95412,39.45552],[-105.95408,39.45491],[-105.95431,39.454],[-105.95506,39.4526],[-105.95491,39.45232],[-105.95484,39.45167],[-105.95499,39.45026],[-105.95521,39.44961],[-105.95512,39.4494],[-105.95537,39.44861],[-105.95519,39.44788],[-105.95435,39.44768],[-105.95396,39.44713],[-105.95386,39.44563],[-105.95398,39.44465],[-105.95335,39.44395],[-105.95215,39.44202],[-105.95168,39.44082],[-105.95145,39.43955],[-105.951,39.43901],[-105.95085,39.43838],[-105.95064,39.43804],[-105.95054,39.43737],[-105.94933,39.43615],[-105.94852,39.43515],[-105.94807,39.43435],[-105.94766,39.43398],[-105.94759,39.43356],[-105.94676,39.43243],[-105.94587,39.4318],[-105.94548,39.43138],[-105.94544,39.43105],[-105.94479,39.43049],[-105.94437,39.43022],[-105.9432,39.42973],[-105.94254,39.42922],[-105.942,39.42906],[-105.94183,39.42851],[-105.94106,39.42801],[-105.93978,39.4275],[-105.93956,39.42663],[-105.9384,39.42614],[-105.93825,39.42588],[-105.93819,39.42513],[-105.93835,39.42452],[-105.93806,39.42401],[-105.9377,39.42375],[-105.9377,39.42353],[-105.93838,39.42278],[-105.93879,39.42262],[-105.93893,39.42247],[-105.93882,39.42226],[-105.93749,39.42185],[-105.93703,39.42158],[-105.93642,39.42147],[-105.93569,39.42163],[-105.93497,39.42164],[-105.93369,39.42193],[-105.93219,39.42188],[-105.93178,39.42172],[-105.93018,39.42166],[-105.92967,39.42153],[-105.92731,39.42167],[-105.92676,39.42207],[-105.92632,39.42192],[-105.92514,39.42184],[-105.92355,39.42204],[-105.92298,39.42198],[-105.92181,39.42211],[-105.92082,39.42173],[-105.91882,39.42188],[-105.91798,39.42166],[-105.9173,39.42136],[-105.91666,39.42129],[-105.91564,39.42063],[-105.9151,39.4204],[-105.91425,39.42008],[-105.91371,39.42006],[-105.9129,39.4202],[-105.91255,39.42053],[-105.91246,39.42094],[-105.91165,39.42135],[-105.91144,39.42178],[-105.91117,39.42166],[-105.91093,39.4211],[-105.9107,39.42106],[-105.91026,39.42198],[-105.90973,39.42194],[-105.90945,39.42211],[-105.90926,39.42285],[-105.90884,39.42347],[-105.90788,39.4241],[-105.90698,39.42448],[-105.9058,39.42567],[-105.90561,39.42627],[-105.90594,39.42656],[-105.90675,39.42688],[-105.90695,39.42734],[-105.90698,39.42803],[-105.90803,39.42965],[-105.90861,39.43162],[-105.91006,39.43424],[-105.91052,39.43534],[-105.91142,39.43605],[-105.91206,39.43681],[-105.9128,39.43727],[-105.91421,39.43791],[-105.91452,39.4383],[-105.91425,39.43876],[-105.91318,39.43914],[-105.91248,39.43986],[-105.91148,39.44012],[-105.91078,39.44056],[-105.91053,39.441],[-105.91061,39.4424],[-105.91098,39.44344],[-105.91163,39.44433],[-105.91203,39.44532],[-105.91261,39.44592],[-105.9137,39.44655],[-105.91421,39.44766],[-105.91355,39.44952],[-105.91324,39.44975],[-105.91283,39.44988],[-105.91097,39.44901],[-105.90991,39.44796],[-105.90972,39.44792],[-105.91013,39.44865],[-105.91057,39.44988],[-105.91151,39.4511],[-105.91202,39.45232],[-105.91286,39.45296],[-105.91353,39.45325],[-105.91493,39.45457],[-105.91567,39.4551],[-105.91634,39.45555],[-105.91716,39.45587],[-105.92028,39.45696],[-105.92104,39.45709],[-105.92106,39.45719],[-105.92091,39.45738],[-105.91894,39.4575],[-105.91625,39.45802],[-105.91593,39.45826],[-105.91428,39.45898],[-105.91375,39.45933],[-105.91248,39.45979],[-105.91176,39.46043],[-105.91052,39.46111],[-105.91,39.46135],[-105.90885,39.46167],[-105.90846,39.46193],[-105.907,39.46252],[-105.90636,39.46305],[-105.90604,39.46392],[-105.90558,39.46448],[-105.90554,39.46518],[-105.90562,39.46589],[-105.90672,39.46836],[-105.9068,39.46895],[-105.9067,39.47043],[-105.90625,39.47202],[-105.90593,39.47274],[-105.90569,39.47311],[-105.90436,39.4744],[-105.90328,39.47593],[-105.90327,39.47792],[-105.90417,39.48048],[-105.90427,39.4812],[-105.90482,39.48189],[-105.90606,39.48216],[-105.9081,39.48218],[-105.90863,39.48211],[-105.90923,39.48232],[-105.9111,39.48259],[-105.91166,39.48259],[-105.91215,39.4821],[-105.91259,39.48272],[-105.91293,39.4828],[-105.91308,39.48298],[-105.91352,39.48289],[-105.91397,39.48312],[-105.9144,39.4831],[-105.91484,39.48329],[-105.91502,39.4839],[-105.91486,39.48427],[-105.9156,39.48459],[-105.91627,39.48454],[-105.91691,39.48417],[-105.91709,39.48375],[-105.91711,39.48323],[-105.9175,39.48341],[-105.91782,39.48371],[-105.91788,39.48423],[-105.91839,39.4836],[-105.91875,39.48376],[-105.91899,39.48424],[-105.91946,39.48397],[-105.91969,39.48367],[-105.92007,39.48396],[-105.9203,39.48396],[-105.92045,39.48383],[-105.9208,39.48401],[-105.92198,39.48579],[-105.92223,39.48646],[-105.92212,39.4866],[-105.92235,39.48712],[-105.92213,39.48787],[-105.9222,39.48888],[-105.92319,39.48974],[-105.92336,39.49019],[-105.924,39.49104],[-105.9243,39.49165],[-105.92372,39.49152],[-105.92394,39.49186],[-105.9236,39.49194],[-105.92355,39.4921],[-105.92309,39.49225],[-105.92157,39.49205],[-105.92123,39.49228],[-105.92128,39.49245],[-105.92112,39.4926],[-105.92185,39.49291],[-105.92297,39.49312],[-105.92328,39.4934],[-105.92372,39.49353],[-105.92531,39.49349],[-105.92638,39.49356],[-105.9249,39.49451],[-105.92402,39.49487],[-105.92368,39.49525],[-105.92419,39.49546],[-105.92499,39.49553],[-105.92484,39.49609],[-105.92548,39.49622],[-105.92545,39.49657],[-105.92569,39.49675],[-105.92558,39.49711],[-105.92575,39.49775],[-105.92628,39.49775],[-105.92717,39.49794],[-105.9298,39.49793],[-105.93036,39.4981],[-105.93108,39.49809],[-105.9316,39.49828],[-105.93262,39.49826],[-105.93385,39.4985],[-105.93522,39.49851],[-105.93694,39.49824],[-105.93797,39.49786],[-105.93863,39.49789],[-105.94033,39.49741],[-105.94067,39.49706],[-105.94255,39.49621],[-105.9439,39.49538],[-105.94418,39.49534],[-105.94453,39.49544],[-105.94504,39.49588],[-105.94556,39.49592],[-105.9461,39.49579],[-105.94638,39.49558],[-105.94688,39.49485],[-105.94655,39.49441],[-105.94679,39.49368],[-105.94672,39.49348],[-105.94619,39.49294],[-105.94482,39.49239],[-105.9444,39.49163],[-105.9443,39.49124],[-105.94306,39.49039],[-105.9428,39.49007],[-105.94262,39.48959],[-105.94184,39.48904],[-105.94112,39.48872],[-105.94047,39.48859],[-105.93968,39.48811],[-105.93835,39.48806],[-105.93737,39.48779],[-105.93684,39.48743],[-105.93617,39.48719],[-105.93471,39.48698],[-105.93402,39.48659],[-105.93353,39.48644],[-105.93256,39.48624],[-105.93172,39.48623],[-105.92977,39.48518],[-105.92844,39.48362],[-105.92693,39.48251],[-105.92613,39.48175],[-105.92498,39.48009],[-105.92379,39.47894],[-105.92297,39.47789],[-105.92223,39.47662],[-105.92184,39.47561],[-105.92194,39.475],[-105.92132,39.47438],[-105.92072,39.47278],[-105.91989,39.47265],[-105.91924,39.47187],[-105.91876,39.47148],[-105.91833,39.47082],[-105.9184,39.47002],[-105.91876,39.46986],[-105.91888,39.47014],[-105.91983,39.47073],[-105.92013,39.47064],[-105.92076,39.47068],[-105.9212,39.47052],[-105.92142,39.47055],[-105.92175,39.47078],[-105.92205,39.47078],[-105.92256,39.4706],[-105.92275,39.47065],[-105.92306,39.47105],[-105.9234,39.471],[-105.92439,39.47221],[-105.92478,39.47251],[-105.92509,39.4726],[-105.92532,39.47285],[-105.92525,39.47339],[-105.92542,39.47385],[-105.92537,39.47426],[-105.92561,39.47541],[-105.92629,39.47584],[-105.92793,39.4765],[-105.92861,39.47695],[-105.92976,39.47737],[-105.93041,39.47739],[-105.93076,39.47728],[-105.93132,39.47672],[-105.93197,39.47641],[-105.93247,39.47638],[-105.93273,39.47646],[-105.93309,39.47805],[-105.93263,39.47896],[-105.93256,39.47939],[-105.93308,39.47989],[-105.9351,39.48102],[-105.93565,39.48154],[-105.93587,39.48192],[-105.93641,39.48182],[-105.93696,39.48135],[-105.93737,39.48134],[-105.93944,39.48228],[-105.94016,39.48233],[-105.94032,39.48223],[-105.94035,39.48203],[-105.94017,39.4806],[-105.93983,39.47991],[-105.93993,39.47961],[-105.94213,39.48013],[-105.94289,39.48019],[-105.94362,39.48014],[-105.94477,39.47962],[-105.94533,39.47944],[-105.94561,39.47944],[-105.94662,39.47975],[-105.94746,39.48025],[-105.94797,39.481],[-105.94801,39.48249],[-105.94771,39.48366],[-105.94704,39.48495],[-105.94647,39.48568],[-105.9466,39.48596],[-105.94753,39.48638],[-105.94778,39.48644],[-105.94798,39.48637],[-105.949,39.48544],[-105.95071,39.48321],[-105.95144,39.48269],[-105.95187,39.4826],[-105.95223,39.48288],[-105.95287,39.48386],[-105.95319,39.48403],[-105.95362,39.48477],[-105.95437,39.48537],[-105.95483,39.48548],[-105.95599,39.48542],[-105.95734,39.48579],[-105.95746,39.48592],[-105.95721,39.4865],[-105.95728,39.48674],[-105.95791,39.48711],[-105.95908,39.48747],[-105.96036,39.48748],[-105.96055,39.48775],[-105.96049,39.48829],[-105.96105,39.48879],[-105.96177,39.48884],[-105.96446,39.48834],[-105.9659,39.48797],[-105.96632,39.48808],[-105.9671,39.48895],[-105.96915,39.49036],[-105.96982,39.49145],[-105.97081,39.49274],[-105.97096,39.49314],[-105.97199,39.49398],[-105.97225,39.49485],[-105.97212,39.49538],[-105.97231,39.49606],[-105.97354,39.49702],[-105.97395,39.49758],[-105.97419,39.49747],[-105.97452,39.49694],[-105.97603,39.49659],[-105.97771,39.49645],[-105.97952,39.49548],[-105.97987,39.49545],[-105.98101,39.49574],[-105.98122,39.49572],[-105.98288,39.49332],[-105.98383,39.49308],[-105.98537,39.49292],[-105.98608,39.49264],[-105.98681,39.49258],[-105.98735,39.49203],[-105.98791,39.49202],[-105.98857,39.49155],[-105.98962,39.49134],[-105.99084,39.4906],[-105.99149,39.49052],[-105.99214,39.49069],[-105.99277,39.49108],[-105.99378,39.4912],[-105.9947,39.49226],[-105.99492,39.49242],[-105.99519,39.49246],[-105.99619,39.49217],[-105.99709,39.49137],[-105.99818,39.49112],[-105.99847,39.49072],[-105.99833,39.48993],[-105.99847,39.48991],[-105.99868,39.49008],[-105.99876,39.4898],[-105.99847,39.4892],[-105.99815,39.48891],[-105.99878,39.48912],[-105.99963,39.48969],[-105.99961,39.48943],[-106.0007,39.48994],[-105.99994,39.48883],[-106.00002,39.48879],[-106.00079,39.48932],[-106.00029,39.48865],[-106.00138,39.48931],[-106.00144,39.4891],[-106.00171,39.4892],[-106.00224,39.48915],[-106.00301,39.48858],[-106.00345,39.48839],[-106.00481,39.48819],[-106.00604,39.48843],[-106.00629,39.48862],[-106.00751,39.48899],[-106.00775,39.48888],[-106.00874,39.48794],[-106.00961,39.48753],[-106.00995,39.48701],[-106.00839,39.48753],[-106.0079,39.48798],[-106.0075,39.48781],[-106.00734,39.48762],[-106.00646,39.48748],[-106.00363,39.48737],[-106.00269,39.48745],[-106.00072,39.48696],[-105.9991,39.48648],[-105.99844,39.48586],[-105.99679,39.48548],[-105.99622,39.48496],[-105.99557,39.4848],[-105.99545,39.48438],[-105.99565,39.48381],[-105.99583,39.48353],[-105.99638,39.48327],[-105.99572,39.48314],[-105.99433,39.48313],[-105.99264,39.48357],[-105.99159,39.48418],[-105.99102,39.48479],[-105.99081,39.48488],[-105.99042,39.4848],[-105.98994,39.48502],[-105.98962,39.48498],[-105.98888,39.48454],[-105.99072,39.4841],[-105.99092,39.48384],[-105.99182,39.48318],[-105.99262,39.48308],[-105.99307,39.48282],[-105.99365,39.48282],[-105.99433,39.4825],[-105.99483,39.48243],[-105.99548,39.48255],[-105.99631,39.48248],[-105.99672,39.48255],[-105.99794,39.48239],[-105.99799,39.48252],[-106.00009,39.48248],[-106.00059,39.48255],[-106.00098,39.48243],[-106.00195,39.48238],[-106.00294,39.48268],[-106.00324,39.48265],[-106.00356,39.48246],[-106.00408,39.48275],[-106.00547,39.48256],[-106.00603,39.48273],[-106.00654,39.48241],[-106.00799,39.48298],[-106.01016,39.48242],[-106.01022,39.48257],[-106.00961,39.48316],[-106.00988,39.48406],[-106.0147,39.48263],[-106.01598,39.48245],[-106.01971,39.4812],[-106.02106,39.48161],[-106.02273,39.48249],[-106.02548,39.48457],[-106.02473,39.48472],[-106.02399,39.48454],[-106.02306,39.48512],[-106.02266,39.4852],[-106.02274,39.48539],[-106.02348,39.48531],[-106.02376,39.48546],[-106.02396,39.48568],[-106.0239,39.48577],[-106.02362,39.48573],[-106.02378,39.48594],[-106.02338,39.48584],[-106.02329,39.48591],[-106.02364,39.48622],[-106.02329,39.48613],[-106.02266,39.48619],[-106.02069,39.48738],[-106.01975,39.4878],[-106.01869,39.48733],[-106.01832,39.48629],[-106.01947,39.48498],[-106.01946,39.48452],[-106.01934,39.48438],[-106.01904,39.48429],[-106.01833,39.48431],[-106.01766,39.48513],[-106.01725,39.48534],[-106.01687,39.48596],[-106.01657,39.48676],[-106.01659,39.48734],[-106.01689,39.48799],[-106.01905,39.48994],[-106.0191,39.49018],[-106.01956,39.49082],[-106.02054,39.49134],[-106.02104,39.49147],[-106.02123,39.49168],[-106.02135,39.49197],[-106.02129,39.49263],[-106.0214,39.49337],[-106.02183,39.4937],[-106.02204,39.49439],[-106.0228,39.49533],[-106.02313,39.49614],[-106.02369,39.49659],[-106.02358,39.49767],[-106.02375,39.4985],[-106.02368,39.49904],[-106.02319,39.49957],[-106.02374,39.50017],[-106.02423,39.50044],[-106.02421,39.50092],[-106.02453,39.50199],[-106.02483,39.50245],[-106.02528,39.5027],[-106.02555,39.50302],[-106.02627,39.50322],[-106.0276,39.50288],[-106.03106,39.50235],[-106.0313,39.50237],[-106.03161,39.50264],[-106.03142,39.50375],[-106.03149,39.50422],[-106.03133,39.50399],[-106.0312,39.50328],[-106.03095,39.50412],[-106.03113,39.50471],[-106.03093,39.50481],[-106.03114,39.5055],[-106.03065,39.50529],[-106.03113,39.50667],[-106.03055,39.50646],[-106.03085,39.507],[-106.03123,39.50736],[-106.03116,39.50741],[-106.03069,39.5072],[-106.03058,39.50725],[-106.03108,39.50787],[-106.03128,39.50847],[-106.03096,39.50823],[-106.03065,39.50819],[-106.02986,39.50832],[-106.02945,39.50825],[-106.02921,39.50835],[-106.02736,39.50838],[-106.02734,39.50848],[-106.02753,39.50864],[-106.02747,39.50877],[-106.0267,39.50885],[-106.0248,39.5082],[-106.02284,39.50707],[-106.0225,39.50703],[-106.02081,39.50576],[-106.01994,39.50484],[-106.0192,39.5044],[-106.01861,39.50427],[-106.01804,39.50427],[-106.01784,39.50452],[-106.01836,39.50543],[-106.01839,39.50618],[-106.01916,39.5071],[-106.01905,39.50812],[-106.01959,39.50885],[-106.01955,39.50923],[-106.01925,39.50915],[-106.01917,39.50986],[-106.01844,39.51146],[-106.01849,39.51175],[-106.01897,39.51201],[-106.019,39.51215],[-106.01713,39.51212],[-106.0166,39.51191],[-106.01641,39.51251],[-106.01608,39.51282],[-106.01604,39.51312],[-106.01563,39.51356],[-106.01489,39.51419],[-106.01394,39.5147],[-106.01283,39.51507],[-106.01158,39.51503],[-106.0101,39.5158],[-106.00948,39.51598],[-106.00837,39.51649],[-106.00799,39.51676],[-106.00657,39.51717],[-106.00599,39.51711],[-106.00563,39.51695],[-106.00478,39.51631],[-106.0036,39.51515],[-106.00285,39.51467],[-106.00202,39.51439],[-106.00156,39.5139],[-106.00142,39.51326],[-106.00101,39.51308],[-106.00047,39.51362],[-106.0001,39.51442],[-106.00019,39.5165],[-106.00049,39.51767],[-106.00036,39.51856],[-106.00002,39.51897],[-105.99853,39.51972],[-105.99807,39.52037],[-105.99757,39.52052],[-105.9966,39.52052],[-105.99585,39.52022],[-105.99532,39.52039],[-105.99522,39.52053],[-105.99592,39.52103],[-105.99541,39.52091],[-105.9957,39.52119],[-105.9953,39.52114],[-105.9954,39.52136],[-105.99425,39.52097],[-105.99418,39.52081],[-105.99438,39.51981],[-105.99421,39.51918],[-105.99302,39.51785],[-105.99253,39.51844],[-105.99228,39.51914],[-105.99185,39.51959],[-105.99269,39.51888],[-105.99319,39.51905],[-105.99348,39.51953],[-105.99325,39.52043],[-105.99255,39.52147],[-105.99294,39.52448],[-105.99343,39.52529],[-105.99395,39.52549],[-105.99355,39.52557],[-105.99377,39.52566],[-105.99342,39.52573],[-105.99528,39.52645],[-105.99622,39.52716],[-105.9956,39.52736],[-105.99462,39.52721],[-105.9941,39.52699],[-105.99376,39.527],[-105.9937,39.52707],[-105.99432,39.52722],[-105.99491,39.52776],[-105.99484,39.52791],[-105.99612,39.52882],[-105.99637,39.52921],[-105.99806,39.52992],[-105.99766,39.53061],[-105.99825,39.53153],[-105.99834,39.53191],[-105.99797,39.53227],[-105.9972,39.53251],[-105.99696,39.53311],[-105.99751,39.53347],[-105.99885,39.53377],[-105.9994,39.53427],[-105.99947,39.53487],[-105.99923,39.53608],[-105.99975,39.53654],[-105.99985,39.53729],[-105.9997,39.53778],[-106.00007,39.53854],[-105.99989,39.53878],[-105.99989,39.53971],[-106.00132,39.53954],[-106.00176,39.53984],[-106.00251,39.53976],[-106.00281,39.53998],[-106.00346,39.54005],[-106.00368,39.53959],[-106.00417,39.53962],[-106.00495,39.54052],[-106.00572,39.54085],[-106.00637,39.54185],[-106.00685,39.54234],[-106.0074,39.54248],[-106.00813,39.54251],[-106.01003,39.54318],[-106.011,39.54291],[-106.01186,39.54287],[-106.01248,39.54256],[-106.01337,39.54182],[-106.0135,39.54161],[-106.01381,39.54154],[-106.01402,39.5413],[-106.01405,39.54106],[-106.01387,39.54069],[-106.01422,39.54049],[-106.01439,39.54021],[-106.01439,39.53984],[-106.01479,39.53999],[-106.01535,39.53995],[-106.01643,39.53935],[-106.01711,39.53915],[-106.01833,39.53924],[-106.01925,39.53981],[-106.01968,39.54032],[-106.02042,39.54058],[-106.02094,39.5409],[-106.02128,39.54148],[-106.02171,39.54188],[-106.02252,39.54201],[-106.02319,39.54244],[-106.02378,39.54255],[-106.02429,39.54279],[-106.0245,39.54278],[-106.02525,39.54242],[-106.02653,39.54221],[-106.02709,39.54217],[-106.0282,39.54254],[-106.02863,39.54255],[-106.02932,39.54237],[-106.02956,39.54196],[-106.0296,39.54123],[-106.02999,39.54092],[-106.03046,39.54078],[-106.03099,39.54097],[-106.03154,39.541],[-106.03199,39.54117],[-106.03285,39.54129],[-106.03361,39.54175],[-106.0341,39.54245],[-106.03391,39.54139],[-106.03463,39.54244],[-106.03441,39.54134],[-106.03542,39.54281],[-106.03542,39.54294],[-106.03416,39.54393],[-106.03306,39.5444],[-106.03289,39.54472],[-106.03238,39.54507],[-106.03065,39.54577],[-106.02969,39.54599],[-106.02802,39.54717],[-106.0271,39.54735],[-106.027,39.54751],[-106.0271,39.54787],[-106.027,39.54825],[-106.02718,39.5486],[-106.02615,39.54962],[-106.0248,39.54991],[-106.02389,39.55033],[-106.02304,39.55025],[-106.02268,39.55039],[-106.02218,39.55083],[-106.02193,39.55152],[-106.02164,39.55184],[-106.02139,39.55257],[-106.02068,39.5533],[-106.0204,39.55383],[-106.01945,39.55419],[-106.01933,39.55455],[-106.01897,39.55481],[-106.01855,39.55484],[-106.0181,39.55469],[-106.01716,39.55403],[-106.0161,39.55382],[-106.01518,39.55338],[-106.01417,39.55342],[-106.01373,39.55365],[-106.01351,39.55394],[-106.01309,39.55358],[-106.01305,39.55286],[-106.01293,39.55269],[-106.01263,39.5528],[-106.01239,39.55272],[-106.01228,39.55277],[-106.01197,39.55337],[-106.01195,39.55401],[-106.01151,39.55386],[-106.01119,39.5535],[-106.00977,39.55304],[-106.00908,39.55328],[-106.00899,39.55341],[-106.00922,39.55358],[-106.00983,39.55377],[-106.01021,39.55451],[-106.01025,39.55483],[-106.0098,39.55551],[-106.00951,39.55553],[-106.00874,39.55528],[-106.00764,39.55559],[-106.00662,39.55514],[-106.00474,39.5552],[-106.00404,39.55508],[-106.00355,39.55489],[-106.00338,39.55492],[-106.00289,39.55555],[-106.0021,39.55582],[-106.00123,39.55584],[-106.0007,39.5555],[-106.00039,39.55545],[-105.99903,39.55624],[-105.99822,39.55727],[-105.99769,39.55858],[-105.99698,39.55914],[-105.99608,39.56007],[-105.9956,39.56028],[-105.99451,39.56105],[-105.99283,39.56094],[-105.99221,39.56122],[-105.99181,39.56154],[-105.99147,39.5619],[-105.99144,39.56208],[-105.9912,39.56222],[-105.99152,39.56287],[-105.99187,39.56318],[-105.99217,39.56369],[-105.99235,39.56424],[-105.99236,39.56496],[-105.99212,39.56606],[-105.99216,39.56691],[-105.99199,39.56785],[-105.99171,39.5684],[-105.99209,39.5689],[-105.99218,39.56921],[-105.99194,39.57012],[-105.99136,39.57062],[-105.99134,39.57102],[-105.99056,39.57183],[-105.99014,39.57257],[-105.98976,39.57301],[-105.98968,39.57346],[-105.98995,39.5742],[-105.98972,39.57545],[-105.99017,39.57601],[-105.98989,39.57663],[-105.98904,39.57761],[-105.98888,39.57823],[-105.98904,39.57863],[-105.989,39.57929],[-105.98835,39.58085],[-105.98772,39.58144],[-105.9875,39.58178],[-105.98734,39.58252],[-105.98767,39.5832],[-105.98774,39.58378],[-105.98762,39.58411],[-105.98801,39.58428],[-105.98837,39.58541],[-105.98832,39.5868],[-105.98857,39.5874],[-105.98853,39.58796],[-105.98903,39.58884],[-105.98923,39.58952],[-105.98955,39.58982],[-105.98959,39.59015],[-105.98973,39.59029],[-105.98988,39.59028],[-105.99002,39.59085],[-105.9903,39.59132],[-105.99061,39.59064],[-105.99078,39.5906],[-105.99102,39.59078],[-105.99121,39.59136],[-105.99107,39.59176],[-105.99109,39.5922],[-105.99209,39.59261],[-105.99232,39.59284],[-105.9921,39.59394],[-105.9917,39.59472],[-105.9918,39.59494],[-105.99242,39.59547],[-105.99248,39.59607],[-105.99219,39.59632],[-105.99169,39.59649],[-105.9909,39.59626],[-105.98965,39.59624],[-105.98835,39.59663],[-105.9872,39.59658],[-105.98553,39.59726],[-105.98447,39.59729],[-105.98252,39.59813],[-105.97987,39.59947],[-105.97895,39.59961],[-105.97778,39.59951],[-105.97729,39.5993],[-105.97475,39.59708],[-105.97401,39.59677],[-105.97389,39.59656],[-105.97391,39.59625],[-105.97381,39.59624],[-105.97375,39.59656],[-105.97389,39.59688],[-105.97483,39.59761],[-105.97562,39.59873],[-105.97561,39.59886],[-105.97546,39.59891],[-105.97556,39.59916],[-105.9755,39.5994],[-105.97528,39.59968],[-105.97507,39.59968],[-105.97439,39.59864],[-105.97439,39.5978],[-105.9736,39.59732],[-105.97285,39.59604],[-105.97264,39.5953],[-105.97223,39.59467],[-105.9721,39.59421],[-105.97208,39.59307],[-105.97188,39.59237],[-105.97103,39.59157],[-105.97134,39.58992],[-105.97179,39.58915],[-105.97156,39.58875],[-105.97083,39.58809],[-105.97041,39.58651],[-105.97008,39.58591],[-105.96975,39.58414],[-105.96983,39.58359],[-105.97012,39.58308],[-105.97004,39.58274],[-105.96936,39.58209],[-105.96904,39.58148],[-105.96779,39.58136],[-105.96699,39.5806],[-105.96639,39.57969],[-105.96571,39.57925],[-105.96552,39.57861],[-105.96506,39.57814],[-105.96465,39.57737],[-105.964,39.57681],[-105.9636,39.57563],[-105.96326,39.57532],[-105.96121,39.57408],[-105.95873,39.57187],[-105.95803,39.5705],[-105.9574,39.56988],[-105.95718,39.56939],[-105.95666,39.56915],[-105.95473,39.56873],[-105.95433,39.56852],[-105.95324,39.56679],[-105.9532,39.56618],[-105.95252,39.56565],[-105.95167,39.56451],[-105.95096,39.5641],[-105.95032,39.56392],[-105.9495,39.56312],[-105.94877,39.56266],[-105.94846,39.56218],[-105.94835,39.56173],[-105.94852,39.56108],[-105.9488,39.5609],[-105.94895,39.56058],[-105.94917,39.56054],[-105.9497,39.56181],[-105.95071,39.56308],[-105.95086,39.56319],[-105.95104,39.56316],[-105.95104,39.56298],[-105.95031,39.56189],[-105.95007,39.56061],[-105.95105,39.55864],[-105.95114,39.55781],[-105.95082,39.55706],[-105.95081,39.55642],[-105.95088,39.55618],[-105.95122,39.55592],[-105.95139,39.55595],[-105.95131,39.55627],[-105.95146,39.55681],[-105.95229,39.55745],[-105.95256,39.55795],[-105.95244,39.55869],[-105.95175,39.55924],[-105.95171,39.55959],[-105.95201,39.56051],[-105.95215,39.56139],[-105.95262,39.56194],[-105.9529,39.56184],[-105.95258,39.56124],[-105.95297,39.56067],[-105.95279,39.55988],[-105.95373,39.55921],[-105.95398,39.55875],[-105.95359,39.55718],[-105.9532,39.55672],[-105.9534,39.55529],[-105.95364,39.55521],[-105.95399,39.5558],[-105.95384,39.55642],[-105.95416,39.55683],[-105.95425,39.55742],[-105.95493,39.55822],[-105.95548,39.55866],[-105.95577,39.55876],[-105.95673,39.55869],[-105.9559,39.55814],[-105.95564,39.55781],[-105.9556,39.5575],[-105.95608,39.55706],[-105.95635,39.55705],[-105.95773,39.55772],[-105.95806,39.5577],[-105.9577,39.55713],[-105.9576,39.55664],[-105.95798,39.55535],[-105.95796,39.55374],[-105.95806,39.5536],[-105.95841,39.55352],[-105.95858,39.55321],[-105.95801,39.55255],[-105.95807,39.55183],[-105.95797,39.55139],[-105.95814,39.55091],[-105.95783,39.55027],[-105.95734,39.55001],[-105.95723,39.5498],[-105.95751,39.54904],[-105.95738,39.54842],[-105.95699,39.54779],[-105.95662,39.54752],[-105.95576,39.54732],[-105.95453,39.54687],[-105.95376,39.54691],[-105.95337,39.54683],[-105.95259,39.5463],[-105.95094,39.54596],[-105.95036,39.54544],[-105.94898,39.54484],[-105.94878,39.54447],[-105.9493,39.54363],[-105.94915,39.54318],[-105.94872,39.54289],[-105.94689,39.54225],[-105.94636,39.54175],[-105.94587,39.54147],[-105.94514,39.5413],[-105.94358,39.53969],[-105.9411,39.5378],[-105.93977,39.53648],[-105.93867,39.53598],[-105.93662,39.53593],[-105.93573,39.53575],[-105.93512,39.53547],[-105.93495,39.53527],[-105.93439,39.53358],[-105.93476,39.5329],[-105.93474,39.53257],[-105.93433,39.53216],[-105.93419,39.53185],[-105.93347,39.5316],[-105.9333,39.53144],[-105.93338,39.53088],[-105.93275,39.53042],[-105.9324,39.52913],[-105.93237,39.52745],[-105.93248,39.52648],[-105.9324,39.52546],[-105.93263,39.52449],[-105.93246,39.52403],[-105.93301,39.52391],[-105.93335,39.52341],[-105.93353,39.52295],[-105.93344,39.5228],[-105.93298,39.52272],[-105.9331,39.52245],[-105.93308,39.52191],[-105.93357,39.52137],[-105.93365,39.52065],[-105.9347,39.51966],[-105.93493,39.51956],[-105.93516,39.51962],[-105.93591,39.52019],[-105.93677,39.522],[-105.93728,39.5211],[-105.93747,39.52123],[-105.93771,39.52101],[-105.93799,39.52039],[-105.93892,39.51909],[-105.93845,39.5192],[-105.93799,39.51891],[-105.93772,39.51817],[-105.93766,39.51761],[-105.93721,39.51709],[-105.9361,39.5166],[-105.93485,39.51656],[-105.93581,39.51631],[-105.93696,39.51636],[-105.93745,39.51645],[-105.93778,39.51669],[-105.93858,39.51695],[-105.93911,39.51701],[-105.93999,39.51618],[-105.94173,39.51521],[-105.94341,39.51466],[-105.94461,39.51414],[-105.94557,39.51359],[-105.94688,39.51323],[-105.94692,39.51311],[-105.94663,39.51277],[-105.94679,39.51154],[-105.94619,39.51],[-105.94658,39.50897],[-105.94639,39.50668],[-105.94656,39.5065],[-105.94787,39.50645],[-105.94841,39.50631],[-105.94854,39.50653],[-105.94866,39.5074],[-105.94955,39.50902],[-105.94955,39.50944],[-105.95028,39.51083],[-105.95115,39.51165],[-105.95204,39.51201],[-105.95259,39.51238],[-105.95306,39.51323],[-105.95378,39.51388],[-105.9546,39.51526],[-105.9555,39.51634],[-105.95592,39.51641],[-105.95668,39.51619],[-105.95724,39.51614],[-105.96015,39.51653],[-105.96093,39.51646],[-105.96154,39.51624],[-105.96191,39.51624],[-105.96316,39.51537],[-105.96359,39.51479],[-105.96373,39.5143],[-105.96387,39.51419],[-105.96411,39.51444],[-105.96401,39.51568],[-105.96415,39.51583],[-105.96516,39.51579],[-105.96587,39.51594],[-105.96651,39.51574],[-105.96764,39.51508],[-105.96871,39.51477],[-105.97038,39.51493],[-105.97051,39.51476],[-105.97043,39.51418],[-105.9707,39.51363],[-105.97172,39.51289],[-105.97192,39.51258],[-105.97222,39.50908],[-105.9729,39.5074],[-105.97378,39.50629],[-105.975,39.50429],[-105.9761,39.50304],[-105.97623,39.50274],[-105.97623,39.50229],[-105.97656,39.50174],[-105.97664,39.50109],[-105.97716,39.50048],[-105.97731,39.50013],[-105.97759,39.4998],[-105.97844,39.49922],[-105.97864,39.49892],[-105.9798,39.49815],[-105.98024,39.49757],[-105.98084,39.49729],[-105.98104,39.49678],[-105.9819,39.49575],[-105.98193,39.49498],[-105.98287,39.49348],[-105.98369,39.49317],[-105.98446,39.493],[-105.98535,39.49294],[-105.98605,39.49265],[-105.98696,39.49253],[-105.98748,39.49199],[-105.98794,39.49202],[-105.98824,39.49184],[-105.98814,39.49152],[-105.98823,39.49142],[-105.98923,39.49104],[-105.9902,39.49034],[-105.99036,39.4903],[-105.99075,39.49042],[-105.9912,39.49015],[-105.99135,39.49028],[-105.99154,39.4902],[-105.99191,39.48953],[-105.99222,39.49006],[-105.99248,39.49002],[-105.99287,39.49034],[-105.99342,39.49056],[-105.99349,39.49052],[-105.99331,39.49014],[-105.99395,39.49027],[-105.994,39.49016],[-105.99483,39.4902],[-105.99492,39.49001],[-105.99552,39.4901],[-105.99561,39.48992],[-105.99624,39.48989],[-105.9962,39.4896],[-105.99638,39.48946],[-105.99709,39.48953],[-105.99753,39.48985],[-105.99771,39.48987],[-105.99799,39.49014],[-105.99792,39.49056],[-105.99803,39.49094],[-105.99819,39.49102],[-105.99918,39.49095],[-105.99931,39.49058],[-105.99923,39.49039],[-105.99973,39.49062],[-105.9996,39.49013],[-106.00008,39.49036],[-106.00026,39.4902],[-106.00082,39.49039],[-106.00169,39.49048],[-106.00221,39.49035],[-106.00281,39.49003],[-106.00346,39.48934],[-106.0037,39.48923],[-106.00442,39.48924],[-106.00533,39.48951],[-106.00466,39.48891],[-106.00365,39.48866],[-106.00397,39.48853],[-106.00567,39.48877],[-106.00683,39.48914],[-106.00751,39.48949],[-106.0088,39.48849],[-106.0098,39.48796],[-106.0102,39.48739],[-106.01165,39.48628],[-106.01187,39.48597],[-106.0118,39.48586],[-106.01161,39.48591],[-106.01073,39.48663],[-106.01019,39.48682],[-106.00974,39.48712],[-106.00841,39.48753],[-106.0079,39.488],[-106.00732,39.48765],[-106.00645,39.48753],[-106.00372,39.48739],[-106.00275,39.48749],[-105.99905,39.48653],[-105.99839,39.48587],[-105.99682,39.48551],[-105.99627,39.48502],[-105.99554,39.48485],[-105.99549,39.48436],[-105.99579,39.48363],[-105.9966,39.48319],[-105.99748,39.48315],[-105.99794,39.48324],[-105.99822,39.48379],[-105.99896,39.48421],[-106,39.48399],[-106.00151,39.48422],[-106.00268,39.48425],[-106.00311,39.48415],[-106.00359,39.48381],[-106.0041,39.48389],[-106.00521,39.48358],[-106.00534,39.48345],[-106.00531,39.48309],[-106.00558,39.48262],[-106.00604,39.48276],[-106.00646,39.48247],[-106.00667,39.48245],[-106.00797,39.483],[-106.01008,39.4824],[-106.01019,39.48244],[-106.01016,39.48256],[-106.00959,39.48318],[-106.00988,39.48406],[-106.0147,39.48263],[-106.01598,39.48245],[-106.01971,39.4812],[-106.02106,39.48161],[-106.02273,39.48249],[-106.02715,39.4858],[-106.02786,39.48616],[-106.0284,39.48622],[-106.02994,39.48577],[-106.03211,39.48603],[-106.03356,39.48586],[-106.03524,39.48589],[-106.03607,39.48622],[-106.03712,39.48708],[-106.03892,39.48748],[-106.03948,39.48725],[-106.04021,39.48638],[-106.04116,39.48564],[-106.04169,39.48429],[-106.04227,39.48379],[-106.04422,39.48345],[-106.04617,39.48344],[-106.04615,39.4822],[-106.04823,39.48222],[-106.04866,39.48215],[-106.04821,39.48156],[-106.0482,39.48065],[-106.04831,39.48036],[-106.04814,39.47996],[-106.04815,39.47828],[-106.04801,39.47755],[-106.04807,39.47743],[-106.04908,39.47733],[-106.04929,39.47721],[-106.04979,39.47605],[-106.0499,39.47568],[-106.04985,39.47528],[-106.05007,39.4747],[-106.05031,39.47446],[-106.04992,39.47413],[-106.04965,39.47443],[-106.04938,39.47428],[-106.05055,39.47305],[-106.05039,39.47278],[-106.05041,39.47257],[-106.05011,39.47222],[-106.05042,39.47123],[-106.05052,39.47007],[-106.05108,39.46886],[-106.05111,39.46818],[-106.05094,39.46775],[-106.05147,39.46652],[-106.05246,39.46525],[-106.05277,39.46468],[-106.05269,39.46408],[-106.05312,39.46256],[-106.05294,39.46205],[-106.05214,39.46093],[-106.05157,39.46067],[-106.05137,39.4604],[-106.05151,39.45994],[-106.05119,39.45893],[-106.05123,39.45831],[-106.05154,39.45786],[-106.05151,39.45741],[-106.05175,39.45709],[-106.05228,39.45708],[-106.05258,39.45623],[-106.05173,39.455],[-106.05135,39.45422],[-106.0508,39.45383],[-106.05049,39.45334],[-106.05048,39.45212],[-106.05024,39.45068],[-106.05057,39.44946],[-106.05024,39.44806],[-106.05038,39.44723],[-106.05018,39.44689],[-106.04981,39.44671],[-106.04916,39.44616],[-106.04975,39.44494],[-106.05,39.44394],[-106.05063,39.44272],[-106.05106,39.44107],[-106.05228,39.4384],[-106.05414,39.43705],[-106.05577,39.43608],[-106.05875,39.43463],[-106.0597,39.43389],[-106.06077,39.43334],[-106.0622,39.43207],[-106.06346,39.43131],[-106.06491,39.43066],[-106.06668,39.43007],[-106.06827,39.4294],[-106.06937,39.42881],[-106.06942,39.42894],[-106.0689,39.42974],[-106.06821,39.43133],[-106.06785,39.43278],[-106.06805,39.4348],[-106.06828,39.43577],[-106.0698,39.43676],[-106.07095,39.43705],[-106.07137,39.43701],[-106.07152,39.4374],[-106.07175,39.43755],[-106.07231,39.43722],[-106.07354,39.43726],[-106.0744,39.43766],[-106.07475,39.4383],[-106.07612,39.43937],[-106.07826,39.43966],[-106.07825,39.43987],[-106.0777,39.44038],[-106.07776,39.44053],[-106.07749,39.44077],[-106.07789,39.44116],[-106.07792,39.44141],[-106.07746,39.44203],[-106.07699,39.44231],[-106.07805,39.44288],[-106.07851,39.44301],[-106.07978,39.44321],[-106.08383,39.44416],[-106.08524,39.4444],[-106.08504,39.44462],[-106.08538,39.44488],[-106.08621,39.44609],[-106.08614,39.44702],[-106.08638,39.44729],[-106.08677,39.44819],[-106.08709,39.44861],[-106.08753,39.44886],[-106.088,39.44898],[-106.08998,39.44877],[-106.09088,39.44921],[-106.09128,39.45004],[-106.09108,39.45079],[-106.09119,39.45114],[-106.09161,39.45154],[-106.09325,39.45266],[-106.09615,39.45328],[-106.09726,39.45322],[-106.09772,39.4533],[-106.09836,39.45353],[-106.09938,39.45419],[-106.10051,39.45592],[-106.10107,39.45649],[-106.10143,39.45667],[-106.10184,39.45707],[-106.1025,39.45725],[-106.10279,39.45754],[-106.10326,39.45778],[-106.10398,39.45846],[-106.10454,39.45934],[-106.10493,39.45962],[-106.10481,39.46048],[-106.10509,39.46065],[-106.10516,39.46103],[-106.10592,39.46079],[-106.10695,39.46175],[-106.10714,39.46219],[-106.10765,39.46262],[-106.10782,39.46295],[-106.10919,39.4644],[-106.11052,39.46553],[-106.11103,39.46612],[-106.11281,39.46772],[-106.11367,39.4683],[-106.11552,39.46902],[-106.11639,39.46954],[-106.11673,39.47087],[-106.11738,39.47218],[-106.11731,39.47278],[-106.11683,39.47382],[-106.11516,39.47505],[-106.11539,39.47551],[-106.11551,39.47659],[-106.11536,39.47673],[-106.11511,39.47668],[-106.11537,39.47735],[-106.11475,39.47775],[-106.11522,39.4783],[-106.11527,39.47913],[-106.11548,39.47935],[-106.11563,39.4798],[-106.11586,39.47996],[-106.11615,39.48042],[-106.11592,39.48201],[-106.11535,39.48215],[-106.11504,39.48207],[-106.11412,39.4822],[-106.11346,39.48217],[-106.11277,39.48238],[-106.1121,39.48244],[-106.11194,39.48323],[-106.11245,39.48467],[-106.11318,39.48545],[-106.11358,39.48642],[-106.11362,39.48681],[-106.11332,39.48754],[-106.11278,39.48818],[-106.11271,39.48906],[-106.11347,39.49028],[-106.11374,39.49102],[-106.11367,39.49146],[-106.114,39.4927],[-106.11501,39.49481],[-106.1148,39.49619],[-106.114,39.4973],[-106.11396,39.49778],[-106.11397,39.49865],[-106.11418,39.499],[-106.11423,39.49945],[-106.11414,39.50012],[-106.11476,39.50357],[-106.1147,39.50382],[-106.11418,39.50452],[-106.11322,39.50502],[-106.11331,39.50567],[-106.11302,39.50556],[-106.11261,39.5052],[-106.1125,39.50533],[-106.11253,39.50578],[-106.11294,39.50648],[-106.11233,39.5065],[-106.11191,39.50668],[-106.11209,39.50726],[-106.11176,39.50839],[-106.11183,39.50883],[-106.11171,39.50985],[-106.11092,39.51095],[-106.11031,39.51251],[-106.10988,39.51317],[-106.10942,39.51434],[-106.10961,39.51566],[-106.10927,39.51661],[-106.10926,39.51758],[-106.11005,39.5194],[-106.11004,39.52135],[-106.11022,39.52159],[-106.11038,39.52163],[-106.11128,39.52132],[-106.11087,39.5217],[-106.1107,39.52216],[-106.11107,39.52196],[-106.11126,39.52198],[-106.11142,39.52274],[-106.11169,39.52292],[-106.11178,39.52314],[-106.11146,39.52407],[-106.1109,39.5244],[-106.11048,39.52481],[-106.10965,39.52689],[-106.10893,39.52763],[-106.10844,39.52794],[-106.10762,39.52919],[-106.10742,39.53032],[-106.10726,39.53066],[-106.10765,39.53154],[-106.10855,39.53292],[-106.10862,39.53348],[-106.10836,39.53383],[-106.10675,39.53454],[-106.10663,39.5345],[-106.10676,39.53426],[-106.10666,39.53422],[-106.10506,39.53469],[-106.10319,39.53495],[-106.10281,39.53481],[-106.10218,39.53491],[-106.10127,39.5347],[-106.10077,39.53471],[-106.10001,39.53509],[-106.09983,39.5351],[-106.09969,39.5349],[-106.09933,39.53491],[-106.09822,39.53536],[-106.098,39.5353],[-106.09817,39.53518],[-106.09858,39.53442],[-106.09827,39.53427],[-106.09795,39.53435],[-106.09788,39.53427],[-106.09818,39.53406],[-106.09857,39.53396],[-106.09878,39.53333],[-106.09873,39.53303],[-106.0983,39.53297],[-106.09748,39.53313],[-106.09688,39.5339],[-106.09654,39.53412],[-106.09558,39.53405],[-106.09378,39.53429],[-106.09232,39.534],[-106.0915,39.53423],[-106.09033,39.53436],[-106.08987,39.53456],[-106.08924,39.53502],[-106.08904,39.53558],[-106.08859,39.53575],[-106.08813,39.53653],[-106.0877,39.5368],[-106.08743,39.53735],[-106.08789,39.53852],[-106.08854,39.5391],[-106.08912,39.53936],[-106.08917,39.53953],[-106.08888,39.53978],[-106.08742,39.54003],[-106.08693,39.54027],[-106.08691,39.54036],[-106.08777,39.54116],[-106.08778,39.54212],[-106.08679,39.543],[-106.08661,39.54362],[-106.08624,39.54408],[-106.08578,39.54509],[-106.08506,39.54547],[-106.0843,39.54625],[-106.0835,39.54773],[-106.0832,39.54939],[-106.08325,39.55315],[-106.0828,39.55394],[-106.08274,39.55425],[-106.08325,39.55523],[-106.08304,39.55614],[-106.08322,39.55663],[-106.0832,39.55724],[-106.08365,39.55818],[-106.08451,39.55945],[-106.08477,39.5602],[-106.08542,39.56106],[-106.08539,39.56173],[-106.08525,39.56186],[-106.08485,39.56105],[-106.08307,39.55894],[-106.08302,39.55848],[-106.08259,39.55816],[-106.08268,39.55725],[-106.0825,39.55698],[-106.08244,39.55643],[-106.08192,39.55573],[-106.0814,39.55416],[-106.08158,39.55376],[-106.08182,39.55227],[-106.0817,39.55187],[-106.08182,39.5514],[-106.08178,39.55096],[-106.08236,39.54768],[-106.08273,39.54716],[-106.08379,39.54648],[-106.08452,39.54551],[-106.08457,39.54489],[-106.08503,39.54416],[-106.08508,39.54177],[-106.08472,39.54121],[-106.08385,39.54067],[-106.0833,39.54001],[-106.08315,39.53962],[-106.08317,39.53887],[-106.08287,39.53811],[-106.08208,39.53775],[-106.08166,39.53767],[-106.08136,39.53708],[-106.08085,39.53649],[-106.0802,39.53523],[-106.08001,39.53426],[-106.08144,39.53269],[-106.08137,39.53231],[-106.07831,39.52955],[-106.07693,39.52848],[-106.07702,39.52787],[-106.07769,39.52706],[-106.07812,39.52679],[-106.07813,39.52655],[-106.0777,39.52572],[-106.07758,39.52512],[-106.07706,39.52437],[-106.077,39.52355],[-106.0768,39.52305],[-106.07655,39.52154],[-106.0764,39.52124],[-106.07594,39.52082],[-106.07609,39.52047],[-106.07676,39.51968],[-106.07635,39.51917],[-106.07594,39.51896],[-106.07492,39.51765],[-106.07501,39.5175],[-106.07547,39.51732],[-106.07619,39.51729],[-106.07658,39.51714],[-106.07775,39.51702],[-106.07811,39.51643],[-106.07825,39.51588],[-106.0791,39.5151],[-106.07952,39.51489],[-106.08096,39.51449],[-106.08151,39.51413],[-106.08143,39.51397],[-106.0809,39.51394],[-106.07994,39.51336],[-106.07941,39.51299],[-106.07913,39.51256],[-106.07906,39.5118],[-106.07928,39.5111],[-106.07891,39.50972],[-106.07909,39.5092],[-106.07952,39.50887],[-106.07976,39.50852],[-106.0803,39.50817],[-106.08099,39.50663],[-106.08101,39.50651],[-106.08037,39.50559],[-106.08046,39.50505],[-106.08191,39.5038],[-106.08176,39.5035],[-106.07996,39.50327],[-106.07941,39.50311],[-106.07901,39.50214],[-106.07897,39.50114],[-106.07924,39.50067],[-106.07967,39.50044],[-106.08006,39.50001],[-106.08109,39.49925],[-106.0812,39.49899],[-106.08087,39.49898],[-106.08065,39.49887],[-106.0798,39.49836],[-106.07904,39.49772],[-106.07777,39.49709],[-106.07654,39.49695],[-106.07561,39.4972],[-106.07521,39.49721],[-106.07489,39.49699],[-106.07462,39.49696],[-106.07428,39.49665],[-106.07385,39.4966],[-106.07322,39.4962],[-106.07252,39.49613],[-106.07203,39.49566],[-106.07183,39.49494],[-106.07143,39.49476],[-106.07135,39.4945],[-106.07155,39.49385],[-106.07123,39.49331],[-106.07109,39.49197],[-106.07099,39.49185],[-106.07072,39.4918],[-106.07062,39.49145],[-106.07018,39.49147],[-106.07027,39.49086],[-106.06915,39.49022],[-106.06905,39.48965],[-106.06938,39.489],[-106.06929,39.48878],[-106.06879,39.4884],[-106.06829,39.48822],[-106.06803,39.48791],[-106.06718,39.48756],[-106.06705,39.48724],[-106.06651,39.48681],[-106.06636,39.48653],[-106.06636,39.48552],[-106.06667,39.48475],[-106.06659,39.48366],[-106.06715,39.48288],[-106.06653,39.48107],[-106.06639,39.48094],[-106.06586,39.48077],[-106.06535,39.48075],[-106.06485,39.48085],[-106.06329,39.48151],[-106.0617,39.48149],[-106.05951,39.48184],[-106.05905,39.48221],[-106.05863,39.48313],[-106.05805,39.48348],[-106.05541,39.4838],[-106.05314,39.48438],[-106.05259,39.48478],[-106.05229,39.48534],[-106.05227,39.48579],[-106.05253,39.48671],[-106.05241,39.48696],[-106.05221,39.48701],[-106.052,39.48682],[-106.05189,39.4853],[-106.05227,39.48375],[-106.05218,39.48317],[-106.05159,39.48251],[-106.05092,39.48211],[-106.04981,39.4819],[-106.04866,39.48215],[-106.0483,39.48175],[-106.0482,39.48065],[-106.04831,39.48036],[-106.04812,39.4797],[-106.04815,39.47828],[-106.04794,39.47776],[-106.0475,39.47753],[-106.04514,39.47717],[-106.04444,39.47618],[-106.04297,39.47517],[-106.0422,39.47433],[-106.04159,39.47449],[-106.04108,39.47448],[-106.03766,39.47291],[-106.03804,39.47231],[-106.0378,39.47183],[-106.03808,39.47178],[-106.03884,39.47185],[-106.03889,39.47179],[-106.03757,39.47155],[-106.03664,39.47112],[-106.0363,39.47041],[-106.0364,39.4696],[-106.03623,39.46925],[-106.03517,39.4684],[-106.0341,39.46784],[-106.03297,39.46669],[-106.03227,39.46641],[-106.03175,39.46578],[-106.03149,39.46575],[-106.03147,39.46555],[-106.03174,39.46555],[-106.03144,39.46533],[-106.03164,39.46522],[-106.03165,39.46506],[-106.03131,39.46525],[-106.03087,39.46582],[-106.02998,39.46623],[-106.02983,39.46659],[-106.02935,39.46673],[-106.02904,39.46717],[-106.02897,39.46683],[-106.02881,39.4669],[-106.02814,39.46663],[-106.02812,39.46705],[-106.02837,39.46728],[-106.02815,39.46755],[-106.02766,39.46711],[-106.02758,39.46714],[-106.0276,39.46754],[-106.02688,39.46708],[-106.02705,39.46666],[-106.02705,39.46609],[-106.02683,39.46649],[-106.0266,39.46661],[-106.02657,39.46603],[-106.02635,39.46595],[-106.02635,39.46622],[-106.02594,39.46673],[-106.02589,39.46624],[-106.02546,39.46591],[-106.02552,39.46616],[-106.02533,39.4665],[-106.02503,39.46669],[-106.02472,39.46665],[-106.02456,39.4665],[-106.02463,39.46634],[-106.02387,39.46569],[-106.02377,39.46513],[-106.0236,39.46487],[-106.0235,39.46486],[-106.02347,39.46501],[-106.02303,39.46508],[-106.02303,39.46489],[-106.0228,39.46464],[-106.02208,39.46426],[-106.02231,39.46398],[-106.02276,39.46375],[-106.02235,39.46275],[-106.02271,39.46182],[-106.0222,39.46189],[-106.02183,39.4622],[-106.02163,39.46256],[-106.02129,39.46273],[-106.02123,39.46265],[-106.02161,39.46238],[-106.02154,39.46178],[-106.02173,39.46109],[-106.02031,39.46196],[-106.01989,39.46194],[-106.01935,39.46174],[-106.01804,39.4606],[-106.0185,39.46076],[-106.01892,39.46078],[-106.0191,39.46044],[-106.01859,39.46028],[-106.01785,39.45959],[-106.0177,39.45933],[-106.01769,39.45899],[-106.01711,39.45795],[-106.01678,39.45775],[-106.01585,39.45748],[-106.0145,39.45693],[-106.01282,39.45605],[-106.01242,39.45601],[-106.01185,39.4562],[-106.01073,39.45617],[-106.00996,39.45684],[-106.00965,39.45805],[-106.01035,39.45944],[-106.01028,39.45978],[-106.01006,39.45995],[-106.00671,39.46056],[-106.0051,39.46109],[-106.00372,39.46182],[-106.00238,39.46202],[-106.0023,39.4622],[-106.00266,39.46274],[-106.00197,39.46238],[-106.00105,39.46241],[-106.00001,39.46222],[-105.99967,39.46223],[-105.9983,39.46273],[-105.99761,39.46261],[-105.99756,39.46277],[-105.99794,39.46392],[-105.99791,39.46421],[-105.99657,39.46303],[-105.99605,39.46232],[-105.996,39.46115],[-105.99582,39.46025],[-105.99521,39.45867],[-105.99605,39.4579],[-105.99583,39.45655],[-105.99593,39.45631],[-105.99639,39.45641],[-105.997,39.45635],[-105.99963,39.4556],[-106.00047,39.45584],[-106.00153,39.45653],[-106.00293,39.45714],[-106.00362,39.45724],[-106.00383,39.45708],[-106.0039,39.45665],[-106.00366,39.45619],[-106.00383,39.45546],[-106.00378,39.45375],[-106.00343,39.45287],[-106.00337,39.452],[-106.00292,39.45031],[-106.0024,39.44893],[-106.00243,39.44764],[-106.00204,39.44737],[-106.00095,39.44739],[-106.00039,39.4473],[-105.99999,39.44709],[-105.99965,39.44616],[-105.99902,39.44549],[-105.99895,39.44471],[-105.99873,39.44448],[-105.99815,39.44428],[-105.99751,39.44465],[-105.99686,39.44476],[-105.99698,39.44441],[-105.99655,39.44441],[-105.99627,39.44426],[-105.99617,39.44407],[-105.99626,39.44324],[-105.99525,39.44173],[-105.99438,39.43958],[-105.99387,39.43862],[-105.99397,39.43811],[-105.99505,39.43728],[-105.99519,39.43692],[-105.99511,39.43653],[-105.99482,39.43628],[-105.99393,39.4359],[-105.99133,39.4353],[-105.99083,39.43507],[-105.99061,39.43481],[-105.99056,39.4345],[-105.99149,39.43359],[-105.99156,39.43314],[-105.99146,39.43265],[-105.99068,39.4313],[-105.98831,39.42926],[-105.98697,39.4282],[-105.98606,39.42766],[-105.98509,39.42748],[-105.98377,39.42771],[-105.98329,39.42768],[-105.98298,39.42755],[-105.98266,39.42713],[-105.98282,39.42579],[-105.98272,39.42538],[-105.98247,39.42512],[-105.97804,39.42388],[-105.97339,39.42183],[-105.97134,39.42038],[-105.97071,39.41969],[-105.96962,39.41925],[-105.96764,39.41824],[-105.96741,39.41766],[-105.96765,39.41659],[-105.96801,39.41559],[-105.96873,39.41463],[-105.9695,39.41304],[-105.96957,39.41213],[-105.96805,39.40979],[-105.9677,39.40943],[-105.96641,39.40855],[-105.96506,39.40781],[-105.96409,39.40732],[-105.96326,39.40712],[-105.96303,39.40693],[-105.96343,39.40556],[-105.96359,39.40339],[-105.96333,39.4025],[-105.96281,39.4018],[-105.96223,39.40132],[-105.96262,39.4003],[-105.96233,39.3997],[-105.96183,39.39908],[-105.96139,39.39743],[-105.96137,39.39659],[-105.96151,39.39585],[-105.96175,39.3954],[-105.96394,39.39368],[-105.96399,39.39268],[-105.9651,39.39115],[-105.96516,39.39092],[-105.96451,39.38873],[-105.96447,39.38763],[-105.96332,39.38595],[-105.96361,39.38569],[-105.96347,39.38488],[-105.9642,39.38454],[-105.96433,39.38423],[-105.96358,39.38364],[-105.96333,39.3833],[-105.9636,39.38292],[-105.96348,39.38262],[-105.96366,39.38245],[-105.96375,39.38168],[-105.96342,39.37862],[-105.96362,39.37789],[-105.96422,39.37695],[-105.96455,39.37555],[-105.9646,39.37414],[-105.96482,39.37254],[-105.96499,39.37218],[-105.96562,39.37177],[-105.96455,39.37151],[-105.96411,39.37114],[-105.96402,39.37077],[-105.9637,39.37054],[-105.96281,39.37011],[-105.96182,39.36984],[-105.96172,39.36969],[-105.96063,39.36921],[-105.9598,39.36825],[-105.95875,39.36808],[-105.95866,39.36749],[-105.95829,39.36729],[-105.95819,39.36713],[-105.95733,39.3671],[-105.95719,39.36686],[-105.95681,39.36676],[-105.95686,39.36651],[-105.95709,39.36634],[-105.95808,39.36642],[-105.95825,39.36632],[-105.958,39.36586],[-105.95747,39.3657],[-105.95656,39.36495],[-105.95676,39.36471],[-105.95724,39.36445],[-105.95718,39.36432],[-105.9566,39.36386],[-105.95557,39.36367],[-105.95517,39.36337],[-105.95479,39.36337],[-105.95446,39.36324],[-105.95416,39.36278],[-105.95351,39.36231],[-105.95287,39.36151],[-105.95237,39.36016],[-105.95041,39.35945],[-105.94952,39.35888],[-105.94926,39.35863],[-105.94894,39.35761],[-105.94861,39.35726],[-105.94623,39.35622],[-105.94518,39.35616],[-105.94408,39.35635],[-105.94312,39.35615],[-105.94239,39.35589],[-105.94111,39.35517],[-105.9408,39.35476],[-105.94022,39.35334],[-105.93852,39.35079],[-105.93815,39.35038],[-105.93707,39.34979],[-105.93668,39.34936],[-105.93656,39.34899],[-105.93659,39.34788],[-105.93632,39.34696],[-105.93604,39.34658],[-105.93559,39.34639],[-105.93477,39.3463],[-105.93115,39.34644],[-105.93009,39.34662],[-105.92819,39.34723],[-105.92771,39.34723],[-105.92731,39.34705],[-105.92717,39.34676],[-105.92742,39.34543],[-105.92732,39.34492],[-105.92683,39.34436],[-105.92611,39.34385],[-105.9257,39.3437],[-105.92469,39.34371],[-105.92258,39.34331],[-105.922,39.34336],[-105.9213,39.34365],[-105.92074,39.34411],[-105.9202,39.34502],[-105.92007,39.34571],[-105.92013,39.34704],[-105.91991,39.34743],[-105.91941,39.34788],[-105.91821,39.34819],[-105.91755,39.34853],[-105.91699,39.34904],[-105.91643,39.34989],[-105.91602,39.35066],[-105.91575,39.35152],[-105.91585,39.35209],[-105.9158,39.35315],[-105.91791,39.3547],[-105.91837,39.3548],[-105.91985,39.35482],[-105.92396,39.3561],[-105.92571,39.35722],[-105.92752,39.35777],[-105.92842,39.35843],[-105.93092,39.35984],[-105.93149,39.35989],[-105.93262,39.35955],[-105.93375,39.35942],[-105.93502,39.35976],[-105.93581,39.36019],[-105.93734,39.36272],[-105.93803,39.36574],[-105.93944,39.36775],[-105.93979,39.36843],[-105.93989,39.36912],[-105.93977,39.37006],[-105.94089,39.37112],[-105.94138,39.37192],[-105.94176,39.3734],[-105.9419,39.37455],[-105.9427,39.37643],[-105.94273,39.37731],[-105.9425,39.37863],[-105.94234,39.37891],[-105.94176,39.37941],[-105.94164,39.37976],[-105.94172,39.38012],[-105.94243,39.38063],[-105.94278,39.38117],[-105.94277,39.3816],[-105.9422,39.38324],[-105.94224,39.38362],[-105.9425,39.38414],[-105.9428,39.38455],[-105.94315,39.38478],[-105.94474,39.38488],[-105.94637,39.3856],[-105.94783,39.38676],[-105.95023,39.38811],[-105.95058,39.3884],[-105.95141,39.38954],[-105.95304,39.39066],[-105.95423,39.39187],[-105.95457,39.39209],[-105.95553,39.3922],[-105.95667,39.39178],[-105.95876,39.39148],[-105.95901,39.39154],[-105.9594,39.39183],[-105.9595,39.39216],[-105.95939,39.39244],[-105.95854,39.39317],[-105.9583,39.39358],[-105.95796,39.39449],[-105.95798,39.39502],[-105.95874,39.39643],[-105.96082,39.40117],[-105.96101,39.40206],[-105.96178,39.40305],[-105.96226,39.40408],[-105.96271,39.40554],[-105.96278,39.4067],[-105.9632,39.40712],[-105.96448,39.40752],[-105.96631,39.40854],[-105.96769,39.40946],[-105.96808,39.40986],[-105.9695,39.41206],[-105.9696,39.41247],[-105.9695,39.41299],[-105.96873,39.41456],[-105.96797,39.41559],[-105.9677,39.41631],[-105.96742,39.41762],[-105.96744,39.41801],[-105.9676,39.41826],[-105.96953,39.41924],[-105.97072,39.41973],[-105.97131,39.42038],[-105.97347,39.4219],[-105.97801,39.42391],[-105.98171,39.42489],[-105.98244,39.42516],[-105.98268,39.42539],[-105.98279,39.42569],[-105.98261,39.42709],[-105.98273,39.42736],[-105.98299,39.42759],[-105.98357,39.42773],[-105.9849,39.42751],[-105.98559,39.42755],[-105.98622,39.42774],[-105.98697,39.42818],[-105.99058,39.43122],[-105.99109,39.43196],[-105.99145,39.43263],[-105.99156,39.43317],[-105.99139,39.4337],[-105.99075,39.43426],[-105.99057,39.43454],[-105.99065,39.43493],[-105.99101,39.43523],[-105.99372,39.43582],[-105.99445,39.43608],[-105.99462,39.43585],[-105.99469,39.43545],[-105.99493,39.43519],[-105.99494,39.43492],[-105.99538,39.43475],[-105.99599,39.43477],[-105.99676,39.43436],[-105.99727,39.43441],[-105.99817,39.43421],[-105.99888,39.4342],[-105.99936,39.43397],[-106.00022,39.43399],[-106.00132,39.43383],[-106.00202,39.43383],[-106.00246,39.43407],[-106.00301,39.43393],[-106.00345,39.43424],[-106.00383,39.4346],[-106.00424,39.43585],[-106.00415,39.43735],[-106.00428,39.43776],[-106.00505,39.43963],[-106.00616,39.441],[-106.00764,39.44178],[-106.00931,39.44217],[-106.01045,39.44267],[-106.01191,39.44429],[-106.0134,39.44545],[-106.0139,39.44614],[-106.01462,39.4465],[-106.01524,39.44727],[-106.01662,39.44768],[-106.01992,39.44945],[-106.0211,39.44974],[-106.02277,39.44993],[-106.02344,39.4502],[-106.02383,39.45049],[-106.02394,39.45068],[-106.02369,39.45129],[-106.02378,39.45168],[-106.02439,39.4524],[-106.025,39.45279],[-106.02615,39.454],[-106.02615,39.4548],[-106.0275,39.45607],[-106.02781,39.4567],[-106.02859,39.4575],[-106.02893,39.45859],[-106.02867,39.45945],[-106.02877,39.4601],[-106.02961,39.46065],[-106.03009,39.46131],[-106.03136,39.46249],[-106.03188,39.46269],[-106.03246,39.46394],[-106.03323,39.46433],[-106.03246,39.46479],[-106.03174,39.46501],[-106.03166,39.46519],[-106.03145,39.46529],[-106.03171,39.46551],[-106.0314,39.46549],[-106.03133,39.46565],[-106.03159,39.46567],[-106.0321,39.4663],[-106.03284,39.46663],[-106.03391,39.46771],[-106.03498,39.46825],[-106.03655,39.46952],[-106.03693,39.46948],[-106.03747,39.46977],[-106.03796,39.46971],[-106.03883,39.46991],[-106.03928,39.46981],[-106.03973,39.46994],[-106.04002,39.47015],[-106.04075,39.47041],[-106.04121,39.47092],[-106.04105,39.47112],[-106.04153,39.47152],[-106.04131,39.47207],[-106.04077,39.47216],[-106.03925,39.47184],[-106.03815,39.47173],[-106.03801,39.47198],[-106.0381,39.4723],[-106.03796,39.47255]]}}
