{"type":"Feature","properties":{"stage":1,"name":"Pennsylvania Creek","miles":34.92,"hasElevation":true},"geometry":{"type":"LineString","coordinates":[[-106.0378,39.47275,2972],[-106.03754,39.47283,2972],[-106.032,39.47013,2994],[-106.03097,39.46924,3000],[-106.03061,39.46794,3006],[-106.03033,39.46764,3009],[-106.03,39.46746,3011],[-106.02946,39.46743,3014],[-106.02886,39.46764,3018],[-106.02846,39.4682,3022],[-106.02801,39.4695,3030],[-106.02767,39.47002,3032],[-106.0269,39.47075,3035],[-106.02615,39.47069,3037],[-106.02537,39.47048,3040],[-106.02396,39.46967,3051],[-106.02359,39.46907,3057],[-106.02306,39.46753,3073],[-106.02202,39.46655,3084],[-106.02165,39.4665,3087],[-106.02124,39.4668,3090],[-106.02119,39.4671,3092],[-106.02145,39.46748,3094],[-106.02138,39.46761,3095],[-106.01985,39.46658,3108],[-106.0189,39.46635,3114],[-106.01874,39.46648,3116],[-106.01908,39.46684,3120],[-106.0191,39.46707,3122],[-106.01898,39.46711,3124],[-106.01717,39.46578,3132],[-106.01667,39.46554,3134],[-106.01541,39.46522,3138],[-106.01512,39.46482,3141],[-106.01518,39.46444,3142],[-106.01547,39.46417,3143],[-106.01594,39.46406,3143],[-106.01756,39.4641,3147],[-106.01817,39.46402,3149],[-106.01991,39.46292,3155],[-106.02144,39.46265,3159],[-106.02212,39.46191,3159],[-106.02254,39.4618,3156],[-106.02233,39.46258,3146],[-106.0228,39.46362,3139],[-106.02243,39.46381,3138],[-106.02213,39.46412,3134],[-106.02283,39.46464,3139],[-106.0229,39.46498,3137],[-106.02332,39.46497,3133],[-106.02335,39.46481,3131],[-106.02345,39.46484,3129],[-106.02364,39.46505,3127],[-106.02375,39.46561,3123],[-106.02457,39.46628,3119],[-106.02453,39.46646,3117],[-106.02465,39.4666,3115],[-106.02496,39.46663,3114],[-106.02522,39.46648,3112],[-106.0254,39.46616,3108],[-106.02535,39.46592,3104],[-106.0258,39.46619,3099],[-106.02588,39.46667,3096],[-106.02618,39.4664,3091],[-106.02629,39.46594,3087],[-106.0265,39.46617,3083],[-106.02649,39.46653,3079],[-106.02666,39.46646,3077],[-106.02692,39.46607,3071],[-106.02699,39.46647,3067],[-106.02683,39.46668,3065],[-106.02685,39.46691,3064],[-106.02754,39.46746,3054],[-106.02755,39.46708,3048],[-106.02812,39.46753,3040],[-106.02834,39.46727,3037],[-106.02813,39.46708,3034],[-106.02808,39.46667,3032],[-106.02873,39.46691,3026],[-106.02888,39.46681,3022],[-106.02896,39.46713,3019],[-106.02929,39.46674,3015],[-106.02978,39.46659,3009],[-106.02998,39.4662,3009],[-106.03081,39.46579,3010],[-106.0314,39.46516,3009],[-106.03241,39.46487,3006],[-106.03288,39.46453,3011],[-106.03329,39.46446,3016],[-106.03317,39.46428,3019],[-106.03251,39.4639,3020],[-106.03193,39.4627,3029],[-106.03151,39.46255,3035],[-106.03037,39.46155,3037],[-106.02972,39.46068,3037],[-106.02878,39.46014,3036],[-106.02865,39.45957,3036],[-106.02895,39.45856,3037],[-106.02856,39.45747,3041],[-106.02786,39.45672,3048],[-106.02742,39.456,3058],[-106.02634,39.4551,3062],[-106.0261,39.45468,3066],[-106.0262,39.45406,3065],[-106.02516,39.45292,3072],[-106.02419,39.45218,3081],[-106.02379,39.45167,3085],[-106.02369,39.4513,3086],[-106.024,39.4507,3079],[-106.02434,39.45089,3076],[-106.02454,39.45087,3075],[-106.02426,39.45001,3059],[-106.0253,39.45051,3050],[-106.0258,39.45065,3047],[-106.02599,39.4506,3046],[-106.02686,39.44968,3052],[-106.02696,39.44889,3059],[-106.02811,39.44765,3060],[-106.03015,39.44639,3053],[-106.03059,39.446,3048],[-106.03194,39.44547,3047],[-106.03355,39.4445,3047],[-106.03429,39.44391,3047],[-106.0366,39.4415,3048],[-106.03678,39.44079,3048],[-106.03701,39.44059,3048],[-106.03737,39.43985,3048],[-106.03788,39.43815,3048],[-106.03803,39.43652,3048],[-106.03788,39.43636,3051],[-106.03768,39.43526,3071],[-106.03704,39.435,3084],[-106.03692,39.43451,3092],[-106.03648,39.43382,3105],[-106.03638,39.43319,3112],[-106.03645,39.43286,3113],[-106.03559,39.43189,3124],[-106.03503,39.43146,3129],[-106.03464,39.43066,3127],[-106.03341,39.42961,3133],[-106.03223,39.42895,3141],[-106.03207,39.42906,3144],[-106.03294,39.4304,3158],[-106.03099,39.4297,3179],[-106.0297,39.42956,3193],[-106.02801,39.42956,3208],[-106.02718,39.42922,3207],[-106.0254,39.42886,3208],[-106.02321,39.42805,3214],[-106.02221,39.42797,3218],[-106.02058,39.42744,3227],[-106.01893,39.42753,3236],[-106.01839,39.42742,3241],[-106.01774,39.42706,3246],[-106.01583,39.42669,3252],[-106.01493,39.42644,3255],[-106.01455,39.42621,3257],[-106.01392,39.4263,3259],[-106.01254,39.4259,3265],[-106.0117,39.42533,3269],[-106.00981,39.4248,3274],[-106.00897,39.42423,3278],[-106.0083,39.42354,3284],[-106.00745,39.42287,3290],[-106.00424,39.42124,3318],[-106.00318,39.42024,3325],[-106.00285,39.41966,3328],[-106.00283,39.42073,3343],[-106.00324,39.42178,3363],[-106.00249,39.42145,3373],[-106.00148,39.4208,3388],[-106.0013,39.42172,3404],[-106.00118,39.42181,3405],[-106.00062,39.42142,3410],[-105.99962,39.42128,3407],[-105.9989,39.42144,3402],[-105.99838,39.42167,3396],[-105.99712,39.42144,3383],[-105.9969,39.42157,3378],[-105.99782,39.42333,3349],[-105.99918,39.42477,3326],[-105.99968,39.42572,3313],[-105.99985,39.42631,3304],[-106.0001,39.42664,3297],[-106.00017,39.427,3290],[-106.00198,39.42871,3256],[-106.0024,39.42896,3248],[-106.00334,39.43012,3232],[-106.00359,39.43084,3221],[-106.0035,39.43126,3213],[-106.00399,39.43196,3207],[-106.00378,39.43224,3207],[-106.00293,39.43204,3209],[-106.00112,39.4313,3212],[-106.00066,39.43085,3219],[-106.00005,39.43054,3222],[-105.99931,39.42991,3225],[-105.99764,39.42938,3229],[-105.99476,39.42788,3246],[-105.99246,39.42638,3270],[-105.9912,39.42498,3287],[-105.99004,39.42438,3303],[-105.98949,39.42424,3309],[-105.98846,39.42447,3323],[-105.9881,39.42443,3325],[-105.98714,39.42397,3334],[-105.98528,39.42275,3350],[-105.98336,39.42206,3369],[-105.98238,39.42216,3380],[-105.98122,39.42284,3398],[-105.98099,39.42318,3405],[-105.9817,39.42456,3424],[-105.98274,39.42549,3427],[-105.98279,39.42585,3426],[-105.98261,39.42704,3422],[-105.98285,39.42748,3421],[-105.98359,39.42775,3419],[-105.98515,39.42753,3414],[-105.98622,39.42778,3412],[-105.98772,39.42882,3405],[-105.99073,39.4314,3391],[-105.99143,39.43263,3385],[-105.99155,39.43324,3383],[-105.99141,39.43365,3381],[-105.99058,39.43443,3377],[-105.99056,39.43471,3376],[-105.99084,39.43513,3375],[-105.99113,39.4353,3374],[-105.99243,39.43563,3370],[-105.99342,39.43573,3368],[-105.99485,39.43629,3363],[-105.99509,39.43649,3362],[-105.99519,39.43686,3361],[-105.99512,39.43711,3360],[-105.99412,39.43778,3356],[-105.99392,39.43801,3355],[-105.99386,39.43834,3353],[-105.99449,39.43966,3348],[-105.99516,39.44154,3342],[-105.99628,39.44323,3333],[-105.99615,39.44389,3334],[-105.99625,39.44418,3336],[-105.99647,39.44431,3336],[-105.99693,39.4443,3336],[-105.99668,39.44462,3342],[-105.9968,39.4447,3344],[-105.99715,39.44465,3346],[-105.99796,39.44422,3347],[-105.99837,39.44426,3348],[-105.99873,39.44442,3351],[-105.99882,39.44503,3354],[-105.99945,39.4458,3359],[-105.99966,39.44666,3361],[-105.99985,39.44689,3361],[-106.00051,39.44712,3362],[-106.0019,39.44717,3362],[-106.00234,39.44764,3365],[-106.0023,39.44847,3372],[-106.00276,39.44964,3375],[-106.003,39.45079,3379],[-106.00372,39.45293,3383],[-106.00376,39.45444,3385],[-106.00362,39.45523,3386],[-106.00397,39.45613,3385],[-106.00388,39.45691,3385],[-106.00335,39.45724,3385],[-106.00294,39.45722,3385],[-106.00188,39.45676,3385],[-106.00112,39.45623,3384],[-106.00015,39.45574,3386],[-105.99892,39.45588,3387],[-105.99716,39.45635,3385],[-105.99654,39.45641,3386],[-105.99612,39.45626,3386],[-105.99592,39.45642,3388],[-105.99606,39.45747,3390],[-105.99596,39.45781,3394],[-105.99573,39.45815,3397],[-105.99523,39.45854,3402],[-105.99585,39.46025,3386],[-105.99603,39.46213,3367],[-105.99666,39.46294,3362],[-105.99785,39.46413,3360],[-105.99779,39.46443,3359],[-105.99696,39.46581,3354],[-105.99714,39.46657,3349],[-105.99764,39.46739,3342],[-105.99831,39.4677,3337],[-105.99792,39.46823,3345],[-105.9964,39.46906,3359],[-105.99493,39.46964,3363],[-105.99409,39.47038,3364],[-105.9933,39.47194,3362],[-105.99345,39.47279,3353],[-105.99339,39.4738,3344],[-105.994,39.4752,3335],[-105.9941,39.47595,3331],[-105.99435,39.47554,3328],[-105.99414,39.47457,3325],[-105.99484,39.47539,3318],[-105.99514,39.47595,3313],[-105.99533,39.47723,3304],[-105.99548,39.47711,3302],[-105.9956,39.47666,3300],[-105.9956,39.47606,3299],[-105.99576,39.47627,3297],[-105.99594,39.47723,3291],[-105.99576,39.47778,3287],[-105.99631,39.47833,3277],[-105.99631,39.4785,3274],[-105.99609,39.47855,3272],[-105.9951,39.47839,3269],[-105.99468,39.47844,3267],[-105.99355,39.47936,3258],[-105.99271,39.4794,3254],[-105.99226,39.47955,3252],[-105.99176,39.48007,3246],[-105.99087,39.48045,3241],[-105.98936,39.48136,3231],[-105.98718,39.4824,3215],[-105.9863,39.48262,3209],[-105.98429,39.48349,3194],[-105.98177,39.48408,3185],[-105.97899,39.48524,3170],[-105.9783,39.48538,3167],[-105.97742,39.48537,3161],[-105.97737,39.48561,3159],[-105.97762,39.48587,3159],[-105.97948,39.48622,3165],[-105.97907,39.48664,3171],[-105.9783,39.48655,3175],[-105.97773,39.48663,3178],[-105.97721,39.48645,3178],[-105.97681,39.48649,3179],[-105.97639,39.48637,3180],[-105.97559,39.48635,3182],[-105.97495,39.48618,3182],[-105.97368,39.4862,3188],[-105.973,39.48632,3192],[-105.9728,39.48646,3194],[-105.97218,39.48624,3197],[-105.97163,39.48622,3199],[-105.97135,39.48636,3203],[-105.97077,39.48604,3205],[-105.96931,39.48478,3198],[-105.96854,39.48482,3204],[-105.9681,39.48469,3205],[-105.96809,39.48451,3205],[-105.96793,39.48436,3205],[-105.96751,39.48436,3205],[-105.96722,39.4842,3207],[-105.96613,39.48325,3210],[-105.9651,39.48189,3216],[-105.96494,39.48185,3218],[-105.9643,39.48121,3221],[-105.96322,39.48096,3226],[-105.96242,39.48039,3223],[-105.96152,39.48004,3225],[-105.96039,39.47943,3225],[-105.95978,39.4795,3228],[-105.95903,39.47945,3234],[-105.95712,39.47871,3251],[-105.95576,39.47803,3267],[-105.95513,39.47758,3277],[-105.95443,39.47661,3290],[-105.95372,39.4761,3298],[-105.95264,39.47608,3304],[-105.9518,39.47592,3313],[-105.95158,39.4758,3317],[-105.95107,39.47525,3327],[-105.95051,39.47485,3334],[-105.95012,39.47435,3340],[-105.94875,39.47354,3352],[-105.94796,39.47259,3365],[-105.94778,39.47165,3378],[-105.94795,39.47071,3396],[-105.94775,39.47007,3407],[-105.9476,39.46982,3411],[-105.94739,39.46975,3412],[-105.94719,39.46973,3411],[-105.94714,39.46983,3410],[-105.94719,39.47031,3407],[-105.94701,39.47074,3405],[-105.94678,39.47216,3401],[-105.94692,39.47311,3400],[-105.94751,39.47419,3400],[-105.94936,39.47575,3399],[-105.95123,39.47794,3397],[-105.95285,39.47918,3394],[-105.95366,39.48036,3396],[-105.95461,39.48068,3395],[-105.95524,39.48072,3396],[-105.95632,39.48111,3395],[-105.95804,39.48188,3395],[-105.95934,39.48269,3395],[-105.96003,39.48295,3395],[-105.96127,39.48323,3395],[-105.96207,39.4837,3395],[-105.96241,39.48399,3395],[-105.96267,39.48469,3394],[-105.96401,39.48611,3394],[-105.96476,39.48717,3393],[-105.96551,39.48753,3387],[-105.96622,39.48774,3379],[-105.96756,39.48921,3380],[-105.96912,39.49025,3375],[-105.96971,39.49106,3375],[-105.97015,39.49136,3377],[-105.97051,39.49146,3379],[-105.97091,39.49132,3378],[-105.97145,39.49133,3377],[-105.97253,39.49167,3375],[-105.97349,39.49175,3371],[-105.97396,39.49189,3368],[-105.97415,39.49177,3367],[-105.9743,39.49139,3365],[-105.97487,39.49108,3363],[-105.97511,39.49051,3361],[-105.97559,39.48989,3359],[-105.97636,39.49027,3357],[-105.97762,39.49038,3349],[-105.97845,39.49032,3340],[-105.97937,39.49004,3332],[-105.97971,39.49006,3327],[-105.98029,39.49046,3315],[-105.98041,39.49127,3298],[-105.98114,39.49192,3280],[-105.98183,39.49185,3270],[-105.98229,39.49168,3265],[-105.98274,39.49167,3260],[-105.98413,39.49121,3252],[-105.98529,39.49131,3245],[-105.98565,39.49206,3240],[-105.98567,39.49252,3237],[-105.9852,39.49285,3237],[-105.98441,39.49296,3241],[-105.98449,39.49343,3241],[-105.98373,39.49416,3243],[-105.98374,39.49436,3247],[-105.98412,39.49455,3251],[-105.98421,39.49483,3253],[-105.98492,39.49547,3258],[-105.98515,39.49606,3262],[-105.98704,39.49685,3273],[-105.9888,39.49794,3268],[-105.98888,39.49816,3267],[-105.98922,39.49841,3266],[-105.98968,39.49855,3266],[-105.99018,39.49851,3266],[-105.99053,39.49865,3266],[-105.99143,39.49929,3274],[-105.99139,39.49967,3279],[-105.99161,39.49979,3281],[-105.99191,39.50025,3289],[-105.99218,39.50032,3290],[-105.99246,39.50024,3290],[-105.99348,39.50077,3304],[-105.99435,39.50066,3309],[-105.99459,39.50051,3308],[-105.99535,39.50047,3307],[-105.99516,39.49978,3305],[-105.99486,39.49954,3305],[-105.99523,39.49878,3305],[-105.99487,39.49849,3304],[-105.99428,39.49712,3300],[-105.99442,39.4965,3298],[-105.99483,39.49584,3296],[-105.99608,39.49471,3288],[-105.9967,39.49438,3282],[-105.99667,39.49423,3280],[-105.99521,39.49368,3285],[-105.99508,39.49329,3285],[-105.99522,39.49255,3287],[-105.99646,39.49202,3298],[-105.99728,39.49263,3298],[-105.99855,39.49254,3292],[-105.99965,39.49261,3285],[-105.99998,39.49219,3290],[-106.00176,39.49194,3276],[-106.00212,39.49224,3269],[-106.00346,39.4922,3257],[-106.00424,39.49244,3251],[-106.0047,39.49245,3247],[-106.00526,39.49223,3243],[-106.0053,39.49262,3237],[-106.00603,39.49212,3233],[-106.00613,39.49219,3232],[-106.00589,39.49261,3228],[-106.00631,39.49236,3227],[-106.00765,39.49211,3224],[-106.00803,39.49186,3225],[-106.00982,39.49181,3231],[-106.01142,39.49249,3237],[-106.0126,39.49271,3244],[-106.0135,39.49305,3248],[-106.01382,39.49342,3251],[-106.01355,39.49434,3256],[-106.01363,39.49459,3258],[-106.0141,39.49474,3261],[-106.01421,39.49434,3265],[-106.01414,39.49411,3265],[-106.01429,39.49402,3264],[-106.01498,39.49446,3267],[-106.01536,39.49491,3266],[-106.01547,39.49484,3264],[-106.01546,39.49468,3263],[-106.01479,39.4936,3256],[-106.01498,39.49338,3254],[-106.01513,39.49377,3253],[-106.01564,39.49419,3252],[-106.01608,39.49493,3250],[-106.01588,39.49554,3242],[-106.01533,39.49596,3229],[-106.01599,39.49579,3227],[-106.0166,39.4953,3233],[-106.01711,39.49466,3231],[-106.01722,39.49466,3231],[-106.01739,39.49511,3229],[-106.01753,39.49497,3227],[-106.01802,39.4948,3227],[-106.01801,39.4946,3226],[-106.01818,39.49439,3225],[-106.01801,39.49424,3224],[-106.01836,39.49403,3221],[-106.01799,39.4939,3220],[-106.0177,39.49355,3217],[-106.01759,39.4932,3216],[-106.01784,39.49352,3215],[-106.01829,39.49362,3213],[-106.01887,39.49342,3210],[-106.01929,39.49308,3206],[-106.01972,39.49305,3203],[-106.02048,39.49369,3195],[-106.02131,39.4957,3183],[-106.02148,39.49639,3178],[-106.02166,39.49574,3174],[-106.02145,39.49359,3164],[-106.02168,39.49388,3161],[-106.02202,39.49486,3160],[-106.02284,39.49551,3156],[-106.02284,39.49536,3155],[-106.02202,39.49429,3156],[-106.02194,39.49378,3155],[-106.02296,39.49443,3149],[-106.02341,39.4946,3148],[-106.02373,39.49462,3150],[-106.02476,39.49405,3149],[-106.02579,39.49406,3151],[-106.0267,39.49395,3155],[-106.02711,39.49341,3155],[-106.02751,39.49242,3151],[-106.02795,39.49215,3147],[-106.02852,39.4922,3145],[-106.02951,39.4921,3141],[-106.03004,39.49219,3135],[-106.03043,39.49243,3127],[-106.03064,39.49157,3117],[-106.03099,39.49212,3111],[-106.0316,39.49245,3106],[-106.0317,39.49151,3098],[-106.03091,39.49067,3088],[-106.02977,39.48982,3072],[-106.02879,39.48923,3070],[-106.02756,39.48879,3069],[-106.02663,39.48889,3067],[-106.02625,39.48877,3066],[-106.0259,39.48753,3060],[-106.02539,39.48674,3054],[-106.02362,39.48534,3042],[-106.02282,39.48539,3035],[-106.02262,39.4853,3033],[-106.02267,39.48519,3030],[-106.02303,39.4851,3027],[-106.02391,39.48456,3015],[-106.02465,39.48478,3006],[-106.02523,39.48468,3001],[-106.02536,39.48452,2998],[-106.02282,39.48253,3006],[-106.02091,39.48151,3013],[-106.02,39.48121,3016],[-106.01952,39.48122,3016],[-106.01598,39.48243,3029],[-106.01445,39.48267,3032],[-106.01001,39.48399,3048],[-106.00981,39.48389,3049],[-106.00958,39.48321,3049],[-106.01015,39.48264,3047],[-106.01011,39.48244,3046],[-106.008,39.48297,3055],[-106.00714,39.48261,3061],[-106.00729,39.48237,3062],[-106.00803,39.48197,3060],[-106.00886,39.48181,3060],[-106.0094,39.48141,3062],[-106.01008,39.48116,3061],[-106.01045,39.48114,3061],[-106.01098,39.48089,3060],[-106.01109,39.48073,3061],[-106.01057,39.48077,3066],[-106.01107,39.48029,3070],[-106.01074,39.48029,3073],[-106.01177,39.47963,3082],[-106.01122,39.47975,3086],[-106.01085,39.47971,3092],[-106.01114,39.47964,3092],[-106.0119,39.47914,3093],[-106.01219,39.47916,3093],[-106.01265,39.47894,3097],[-106.01383,39.47875,3096],[-106.01595,39.47795,3109],[-106.01685,39.47695,3112],[-106.0177,39.47663,3107],[-106.01798,39.47638,3107],[-106.01872,39.47675,3114],[-106.0194,39.47653,3120],[-106.0233,39.47647,3115],[-106.02582,39.47742,3099],[-106.02634,39.47745,3099],[-106.02718,39.47721,3103],[-106.02756,39.4773,3103],[-106.02766,39.47752,3101],[-106.0279,39.47768,3099],[-106.02882,39.47763,3094],[-106.02923,39.47771,3091],[-106.02962,39.4777,3088],[-106.03033,39.47733,3083],[-106.03144,39.47713,3076],[-106.03266,39.47652,3068],[-106.03303,39.47656,3066],[-106.03302,39.47671,3064],[-106.0332,39.47674,3062],[-106.03317,39.47692,3061],[-106.03356,39.47707,3058],[-106.03361,39.47729,3055],[-106.03387,39.47745,3052],[-106.03492,39.47769,3046],[-106.03479,39.47782,3045],[-106.03522,39.47801,3041],[-106.03518,39.47817,3038],[-106.03549,39.47822,3035],[-106.03552,39.47833,3034],[-106.0359,39.47844,3030],[-106.03597,39.47857,3027],[-106.03637,39.47854,3024],[-106.03665,39.47862,3021],[-106.03698,39.47844,3018],[-106.03719,39.47825,3016],[-106.03753,39.47758,3007],[-106.03778,39.47787,3001],[-106.03786,39.47753,2997],[-106.03812,39.47783,2993],[-106.03831,39.47749,2987],[-106.03854,39.47778,2983],[-106.03876,39.47754,2978],[-106.03898,39.47783,2974],[-106.03921,39.47752,2969],[-106.03947,39.47792,2965],[-106.03965,39.47795,2963]]}}
