{"type":"Feature","properties":{"stage":4,"name":"Aqueduct","miles":41.47,"hasElevation":false},"geometry":{"type":"LineString","coordinates":[[-106.04455,39.48091],[-106.04134,39.48126],[-106.04159,39.48366],[-106.04176,39.48417],[-106.04118,39.48558],[-106.0402,39.48636],[-106.03939,39.4873],[-106.03898,39.48746],[-106.0371,39.48708],[-106.0359,39.48608],[-106.03516,39.48586],[-106.03359,39.48584],[-106.03199,39.48602],[-106.0301,39.48575],[-106.02834,39.48621],[-106.02795,39.4862],[-106.02723,39.48586],[-106.02549,39.48461],[-106.02467,39.48472],[-106.02399,39.48454],[-106.02306,39.48512],[-106.02266,39.4852],[-106.02274,39.48539],[-106.02348,39.48531],[-106.02376,39.48546],[-106.02396,39.48568],[-106.0239,39.48577],[-106.02362,39.48573],[-106.02378,39.48594],[-106.02338,39.48584],[-106.02329,39.48591],[-106.02364,39.48622],[-106.02329,39.48613],[-106.02266,39.48619],[-106.01983,39.48779],[-106.01869,39.48733],[-106.01832,39.48629],[-106.01947,39.48498],[-106.01951,39.48467],[-106.01939,39.48441],[-106.01894,39.48427],[-106.01833,39.48431],[-106.01766,39.48513],[-106.01725,39.48534],[-106.01687,39.48596],[-106.01656,39.4869],[-106.01659,39.48734],[-106.01689,39.48799],[-106.01905,39.48994],[-106.0191,39.49018],[-106.01956,39.49082],[-106.02118,39.4916],[-106.02135,39.49197],[-106.02129,39.49263],[-106.0214,39.49337],[-106.02183,39.4937],[-106.02204,39.49439],[-106.0228,39.49533],[-106.02313,39.49614],[-106.02369,39.49659],[-106.02358,39.49767],[-106.02375,39.4985],[-106.02368,39.49904],[-106.02319,39.49957],[-106.02374,39.50017],[-106.02423,39.50044],[-106.02421,39.50092],[-106.02453,39.50199],[-106.02483,39.50245],[-106.02528,39.5027],[-106.02555,39.50302],[-106.02627,39.50322],[-106.0276,39.50288],[-106.03106,39.50235],[-106.0313,39.50237],[-106.03161,39.50264],[-106.03142,39.50375],[-106.03149,39.50422],[-106.03133,39.50399],[-106.0312,39.50328],[-106.03095,39.50412],[-106.03113,39.50471],[-106.03093,39.50481],[-106.03114,39.5055],[-106.03065,39.50529],[-106.03113,39.50667],[-106.03055,39.50646],[-106.03085,39.507],[-106.03123,39.50736],[-106.03116,39.50741],[-106.03069,39.5072],[-106.03058,39.50725],[-106.03108,39.50787],[-106.03128,39.50847],[-106.03096,39.50823],[-106.03065,39.50819],[-106.02986,39.50832],[-106.02945,39.50825],[-106.02921,39.50835],[-106.02736,39.50838],[-106.02734,39.50848],[-106.02753,39.50864],[-106.02747,39.50877],[-106.0267,39.50885],[-106.0248,39.5082],[-106.02284,39.50707],[-106.0225,39.50703],[-106.02081,39.50576],[-106.01994,39.50484],[-106.0192,39.5044],[-106.01861,39.50427],[-106.01804,39.50427],[-106.01784,39.50452],[-106.01836,39.50543],[-106.01839,39.50618],[-106.01916,39.5071],[-106.01905,39.50812],[-106.01959,39.50885],[-106.01955,39.50923],[-106.01925,39.50915],[-106.01917,39.50986],[-106.01844,39.51146],[-106.01849,39.51175],[-106.01897,39.51201],[-106.019,39.51215],[-106.01713,39.51212],[-106.0166,39.51191],[-106.01641,39.51251],[-106.01608,39.51282],[-106.01604,39.51312],[-106.01563,39.51356],[-106.01489,39.51419],[-106.01394,39.5147],[-106.01283,39.51507],[-106.01158,39.51503],[-106.0101,39.5158],[-106.00948,39.51598],[-106.00837,39.51649],[-106.00799,39.51676],[-106.00657,39.51717],[-106.00599,39.51711],[-106.00563,39.51695],[-106.00478,39.51631],[-106.0036,39.51515],[-106.00285,39.51467],[-106.00202,39.51439],[-106.00156,39.5139],[-106.00142,39.51326],[-106.00101,39.51308],[-106.00047,39.51362],[-106.0001,39.51442],[-106.00019,39.5165],[-106.00049,39.51767],[-106.00036,39.51856],[-106.00002,39.51897],[-105.99853,39.51972],[-105.99807,39.52037],[-105.99757,39.52052],[-105.9966,39.52052],[-105.99585,39.52022],[-105.99532,39.52039],[-105.99522,39.52053],[-105.99592,39.52103],[-105.99541,39.52091],[-105.9957,39.52119],[-105.9953,39.52114],[-105.9954,39.52136],[-105.99425,39.52097],[-105.99418,39.52081],[-105.99438,39.51981],[-105.99421,39.51918],[-105.99302,39.51785],[-105.99253,39.51844],[-105.99228,39.51914],[-105.99186,39.51957],[-105.99269,39.51888],[-105.99319,39.51905],[-105.99348,39.51953],[-105.99325,39.52043],[-105.99255,39.52147],[-105.99294,39.52448],[-105.99343,39.52529],[-105.99395,39.52549],[-105.99355,39.52557],[-105.99377,39.52566],[-105.99342,39.52573],[-105.99528,39.52645],[-105.99622,39.52716],[-105.9956,39.52736],[-105.99462,39.52721],[-105.9941,39.52699],[-105.99376,39.527],[-105.9937,39.52707],[-105.99432,39.52722],[-105.99491,39.52776],[-105.99484,39.52791],[-105.99612,39.52882],[-105.99637,39.52921],[-105.99806,39.52992],[-105.99766,39.53061],[-105.99825,39.53153],[-105.99834,39.53191],[-105.99797,39.53227],[-105.9972,39.53251],[-105.99696,39.53311],[-105.99751,39.53347],[-105.99885,39.53377],[-105.9994,39.53427],[-105.99947,39.53487],[-105.99923,39.53608],[-105.99975,39.53654],[-105.99985,39.53729],[-105.9997,39.53778],[-106.00007,39.53854],[-105.99989,39.53878],[-105.99989,39.53971],[-106.00132,39.53954],[-106.00176,39.53984],[-106.00251,39.53976],[-106.00281,39.53998],[-106.00346,39.54005],[-106.00368,39.53959],[-106.00417,39.53962],[-106.00495,39.54052],[-106.00572,39.54085],[-106.00637,39.54185],[-106.00685,39.54234],[-106.0074,39.54248],[-106.00813,39.54251],[-106.01003,39.54318],[-106.011,39.54291],[-106.01186,39.54287],[-106.01248,39.54256],[-106.01337,39.54182],[-106.0135,39.54161],[-106.01381,39.54154],[-106.01402,39.5413],[-106.01405,39.54106],[-106.01387,39.54069],[-106.01422,39.54049],[-106.01439,39.54021],[-106.01439,39.53984],[-106.01479,39.53999],[-106.01535,39.53995],[-106.01643,39.53935],[-106.01711,39.53915],[-106.01833,39.53924],[-106.01925,39.53981],[-106.01968,39.54032],[-106.02042,39.54058],[-106.02094,39.5409],[-106.02128,39.54148],[-106.02171,39.54188],[-106.02252,39.54201],[-106.02319,39.54244],[-106.02378,39.54255],[-106.02429,39.54279],[-106.0245,39.54278],[-106.02525,39.54242],[-106.02653,39.54221],[-106.02709,39.54217],[-106.0282,39.54254],[-106.02863,39.54255],[-106.02932,39.54237],[-106.02956,39.54196],[-106.0296,39.54123],[-106.02999,39.54092],[-106.03046,39.54078],[-106.03099,39.54097],[-106.03154,39.541],[-106.03199,39.54117],[-106.03285,39.54129],[-106.03361,39.54175],[-106.0341,39.54245],[-106.03391,39.54139],[-106.03463,39.54244],[-106.03441,39.54134],[-106.03544,39.54287],[-106.03533,39.54305],[-106.03416,39.54393],[-106.03306,39.5444],[-106.03289,39.54472],[-106.03238,39.54507],[-106.03065,39.54577],[-106.02969,39.54599],[-106.02802,39.54717],[-106.0271,39.54735],[-106.027,39.54751],[-106.0271,39.54787],[-106.027,39.54825],[-106.02718,39.5486],[-106.02615,39.54962],[-106.0248,39.54991],[-106.02389,39.55033],[-106.02304,39.55025],[-106.02268,39.55039],[-106.02218,39.55083],[-106.02193,39.55152],[-106.02164,39.55184],[-106.02139,39.55257],[-106.02068,39.5533],[-106.0204,39.55383],[-106.01945,39.55419],[-106.01933,39.55455],[-106.01897,39.55481],[-106.01855,39.55484],[-106.0181,39.55469],[-106.01716,39.55403],[-106.0161,39.55382],[-106.01518,39.55338],[-106.01417,39.55342],[-106.01373,39.55365],[-106.01351,39.55394],[-106.01309,39.55358],[-106.01305,39.55286],[-106.01293,39.55269],[-106.01263,39.5528],[-106.01239,39.55272],[-106.01228,39.55277],[-106.01197,39.55337],[-106.01195,39.55401],[-106.01151,39.55386],[-106.01119,39.5535],[-106.00977,39.55304],[-106.00908,39.55328],[-106.00899,39.55341],[-106.00922,39.55358],[-106.00983,39.55377],[-106.01021,39.55451],[-106.01025,39.55483],[-106.0098,39.55551],[-106.00951,39.55553],[-106.00874,39.55528],[-106.00764,39.55559],[-106.00662,39.55514],[-106.00474,39.5552],[-106.00404,39.55508],[-106.00355,39.55489],[-106.00338,39.55492],[-106.00289,39.55555],[-106.0021,39.55582],[-106.00123,39.55584],[-106.0007,39.5555],[-106.00039,39.55545],[-105.99903,39.55624],[-105.99822,39.55727],[-105.99769,39.55858],[-105.99698,39.55914],[-105.99608,39.56007],[-105.9956,39.56028],[-105.99451,39.56105],[-105.99283,39.56094],[-105.99221,39.56122],[-105.99181,39.56154],[-105.99147,39.5619],[-105.99144,39.56208],[-105.9912,39.56222],[-105.99152,39.56287],[-105.99187,39.56318],[-105.99217,39.56369],[-105.99235,39.56424],[-105.99236,39.56496],[-105.99212,39.56606],[-105.99216,39.56691],[-105.99199,39.56785],[-105.99171,39.5684],[-105.99209,39.5689],[-105.99218,39.56921],[-105.99194,39.57012],[-105.99136,39.57062],[-105.99134,39.57102],[-105.99056,39.57183],[-105.99014,39.57257],[-105.98976,39.57301],[-105.98968,39.57346],[-105.98995,39.5742],[-105.98972,39.57545],[-105.99017,39.57601],[-105.98989,39.57663],[-105.98904,39.57761],[-105.98888,39.57823],[-105.98904,39.57863],[-105.989,39.57929],[-105.98835,39.58085],[-105.98772,39.58144],[-105.9875,39.58178],[-105.98734,39.58252],[-105.98767,39.5832],[-105.98774,39.58378],[-105.98762,39.58411],[-105.98801,39.58428],[-105.98837,39.58541],[-105.98832,39.5868],[-105.98857,39.5874],[-105.98853,39.58796],[-105.98903,39.58884],[-105.98923,39.58952],[-105.98955,39.58982],[-105.98959,39.59015],[-105.98973,39.59029],[-105.98988,39.59028],[-105.99002,39.59085],[-105.9903,39.59132],[-105.99061,39.59064],[-105.99078,39.5906],[-105.99102,39.59078],[-105.99121,39.59136],[-105.99107,39.59176],[-105.99109,39.5922],[-105.99209,39.59261],[-105.99232,39.59284],[-105.9921,39.59394],[-105.9917,39.59472],[-105.9918,39.59494],[-105.99242,39.59547],[-105.99248,39.59607],[-105.99219,39.59632],[-105.99169,39.59649],[-105.9909,39.59626],[-105.98965,39.59624],[-105.98835,39.59663],[-105.9872,39.59658],[-105.98553,39.59726],[-105.98447,39.59729],[-105.98252,39.59813],[-105.97987,39.59947],[-105.97895,39.59961],[-105.97778,39.59951],[-105.97729,39.5993],[-105.97475,39.59708],[-105.97401,39.59677],[-105.97389,39.59656],[-105.97391,39.59625],[-105.97381,39.59624],[-105.97375,39.59656],[-105.97389,39.59688],[-105.97483,39.59761],[-105.97562,39.59873],[-105.97561,39.59886],[-105.97546,39.59891],[-105.97556,39.59916],[-105.9755,39.5994],[-105.97515,39.59971],[-105.97469,39.59922],[-105.97439,39.59864],[-105.97439,39.5978],[-105.9736,39.59732],[-105.97285,39.59604],[-105.97264,39.5953],[-105.97223,39.59467],[-105.9721,39.59421],[-105.97208,39.59307],[-105.97188,39.59237],[-105.97103,39.59157],[-105.97134,39.58992],[-105.97179,39.58915],[-105.97156,39.58875],[-105.97083,39.58809],[-105.97041,39.58651],[-105.97008,39.58591],[-105.96975,39.58414],[-105.96983,39.58359],[-105.97012,39.58308],[-105.97004,39.58274],[-105.96936,39.58209],[-105.96904,39.58148],[-105.96779,39.58136],[-105.96699,39.5806],[-105.96639,39.57969],[-105.96571,39.57925],[-105.96552,39.57861],[-105.96506,39.57814],[-105.96465,39.57737],[-105.964,39.57681],[-105.9636,39.57563],[-105.96326,39.57532],[-105.96121,39.57408],[-105.95873,39.57187],[-105.95803,39.5705],[-105.9574,39.56988],[-105.95718,39.56939],[-105.95666,39.56915],[-105.95473,39.56873],[-105.95433,39.56852],[-105.95324,39.56679],[-105.9532,39.56618],[-105.95252,39.56565],[-105.95167,39.56451],[-105.95096,39.5641],[-105.95032,39.56392],[-105.9495,39.56312],[-105.94877,39.56266],[-105.94846,39.56218],[-105.94835,39.56173],[-105.94852,39.56108],[-105.9488,39.5609],[-105.94895,39.56058],[-105.94917,39.56054],[-105.9497,39.56181],[-105.95071,39.56308],[-105.95086,39.56319],[-105.95104,39.56316],[-105.95104,39.56298],[-105.95031,39.56189],[-105.95007,39.56061],[-105.95105,39.55864],[-105.95114,39.55781],[-105.95082,39.55706],[-105.95081,39.55642],[-105.95088,39.55618],[-105.95122,39.55592],[-105.95139,39.55595],[-105.95131,39.55627],[-105.95146,39.55681],[-105.95229,39.55745],[-105.95256,39.55795],[-105.95244,39.55869],[-105.95175,39.55924],[-105.95171,39.55959],[-105.95201,39.56051],[-105.95215,39.56139],[-105.95262,39.56194],[-105.9529,39.56184],[-105.95258,39.56124],[-105.95297,39.56067],[-105.95279,39.55988],[-105.95373,39.55921],[-105.95398,39.55875],[-105.95359,39.55718],[-105.9532,39.55672],[-105.9534,39.55529],[-105.95364,39.55521],[-105.95399,39.5558],[-105.95384,39.55642],[-105.95416,39.55683],[-105.95425,39.55742],[-105.95493,39.55822],[-105.95548,39.55866],[-105.95577,39.55876],[-105.95673,39.55869],[-105.9559,39.55814],[-105.95564,39.55781],[-105.9556,39.5575],[-105.95608,39.55706],[-105.95635,39.55705],[-105.95773,39.55772],[-105.95806,39.5577],[-105.9577,39.55713],[-105.9576,39.55664],[-105.95798,39.55535],[-105.95796,39.55374],[-105.95806,39.5536],[-105.95841,39.55352],[-105.95858,39.55321],[-105.95801,39.55255],[-105.95807,39.55183],[-105.95797,39.55139],[-105.95814,39.55091],[-105.95783,39.55027],[-105.95734,39.55001],[-105.95723,39.5498],[-105.95751,39.54904],[-105.9574,39.54845],[-105.95699,39.54779],[-105.95662,39.54752],[-105.95576,39.54732],[-105.95453,39.54687],[-105.95376,39.54691],[-105.95337,39.54683],[-105.95259,39.5463],[-105.95094,39.54596],[-105.95036,39.54544],[-105.94898,39.54484],[-105.94878,39.54447],[-105.9493,39.54363],[-105.94915,39.54318],[-105.94872,39.54289],[-105.94689,39.54225],[-105.94636,39.54175],[-105.94587,39.54147],[-105.94514,39.5413],[-105.94358,39.53969],[-105.9411,39.5378],[-105.93977,39.53648],[-105.93867,39.53598],[-105.93643,39.5359],[-105.93564,39.53572],[-105.93505,39.53542],[-105.93439,39.53358],[-105.93476,39.5329],[-105.93474,39.53257],[-105.93433,39.53216],[-105.93419,39.53185],[-105.93347,39.5316],[-105.9333,39.53144],[-105.93338,39.53088],[-105.93275,39.53042],[-105.93239,39.52904],[-105.93237,39.52745],[-105.93248,39.52661],[-105.9324,39.52546],[-105.93263,39.52449],[-105.93246,39.52403],[-105.93301,39.52391],[-105.93353,39.52295],[-105.93344,39.5228],[-105.93298,39.52272],[-105.9331,39.52245],[-105.93308,39.52191],[-105.93357,39.52137],[-105.93365,39.52065],[-105.93457,39.51976],[-105.93493,39.51956],[-105.93531,39.51969],[-105.93591,39.52019],[-105.93677,39.522],[-105.93728,39.5211],[-105.93747,39.52123],[-105.93771,39.52101],[-105.93799,39.52039],[-105.93892,39.51909],[-105.93845,39.5192],[-105.93799,39.51891],[-105.93772,39.51817],[-105.93766,39.51761],[-105.93721,39.51709],[-105.9361,39.5166],[-105.93485,39.51656],[-105.93581,39.51631],[-105.93696,39.51636],[-105.93745,39.51645],[-105.93778,39.51669],[-105.93858,39.51695],[-105.93911,39.51701],[-105.93999,39.51618],[-105.94173,39.51521],[-105.94341,39.51466],[-105.94461,39.51414],[-105.94557,39.51359],[-105.94688,39.51323],[-105.94692,39.51311],[-105.94663,39.51277],[-105.94679,39.51154],[-105.94619,39.51],[-105.94657,39.50909],[-105.94637,39.50705],[-105.94639,39.50668],[-105.94656,39.5065],[-105.94787,39.50645],[-105.94846,39.50634],[-105.94866,39.5074],[-105.94955,39.50902],[-105.94955,39.50944],[-105.95028,39.51083],[-105.95115,39.51165],[-105.95204,39.51201],[-105.95259,39.51238],[-105.95306,39.51323],[-105.95378,39.51388],[-105.9546,39.51526],[-105.9555,39.51634],[-105.95592,39.51641],[-105.95668,39.51619],[-105.95724,39.51614],[-105.96015,39.51653],[-105.96093,39.51646],[-105.96154,39.51624],[-105.96191,39.51624],[-105.96316,39.51537],[-105.96359,39.51479],[-105.96373,39.5143],[-105.96387,39.51419],[-105.96411,39.51444],[-105.96401,39.51568],[-105.96415,39.51583],[-105.96516,39.51579],[-105.96587,39.51594],[-105.96651,39.51574],[-105.96764,39.51508],[-105.96871,39.51477],[-105.97038,39.51493],[-105.97051,39.51476],[-105.97043,39.51418],[-105.9707,39.51363],[-105.97172,39.51289],[-105.97192,39.51258],[-105.97222,39.50908],[-105.9729,39.5074],[-105.97378,39.50629],[-105.975,39.50429],[-105.9761,39.50304],[-105.97623,39.50274],[-105.97623,39.50229],[-105.97656,39.50174],[-105.97664,39.50109],[-105.97716,39.50048],[-105.97731,39.50013],[-105.97759,39.4998],[-105.97844,39.49922],[-105.97864,39.49892],[-105.9798,39.49815],[-105.98024,39.49757],[-105.98084,39.49729],[-105.98104,39.49678],[-105.9819,39.49575],[-105.98189,39.49506],[-105.98279,39.49354],[-105.98317,39.49331],[-105.98369,39.49317],[-105.98446,39.493],[-105.98535,39.49294],[-105.98605,39.49265],[-105.98696,39.49253],[-105.98748,39.49199],[-105.98794,39.49202],[-105.98824,39.49184],[-105.98814,39.49152],[-105.98823,39.49142],[-105.98923,39.49104],[-105.9902,39.49034],[-105.99036,39.4903],[-105.99075,39.49042],[-105.9912,39.49015],[-105.99135,39.49028],[-105.99154,39.4902],[-105.99191,39.48953],[-105.99222,39.49006],[-105.99248,39.49002],[-105.99287,39.49034],[-105.99342,39.49056],[-105.99349,39.49052],[-105.99331,39.49014],[-105.99395,39.49027],[-105.994,39.49016],[-105.99483,39.4902],[-105.99492,39.49001],[-105.99552,39.4901],[-105.99561,39.48992],[-105.99624,39.48989],[-105.9962,39.4896],[-105.99638,39.48946],[-105.99709,39.48953],[-105.99753,39.48985],[-105.99771,39.48987],[-105.99799,39.49014],[-105.99792,39.49056],[-105.99803,39.49094],[-105.99819,39.49102],[-105.99918,39.49095],[-105.99931,39.49058],[-105.99923,39.49039],[-105.99973,39.49062],[-105.9996,39.49013],[-106.00008,39.49036],[-106.00026,39.4902],[-106.00082,39.49039],[-106.00169,39.49048],[-106.00221,39.49035],[-106.00281,39.49003],[-106.00346,39.48934],[-106.0037,39.48923],[-106.00442,39.48924],[-106.00533,39.48951],[-106.00466,39.48891],[-106.00365,39.48866],[-106.00397,39.48853],[-106.00567,39.48877],[-106.00683,39.48914],[-106.00751,39.48949],[-106.0088,39.48849],[-106.0098,39.48796],[-106.0102,39.48739],[-106.01165,39.48628],[-106.01187,39.48597],[-106.0118,39.48586],[-106.01161,39.48591],[-106.01073,39.48663],[-106.01019,39.48682],[-106.00974,39.48712],[-106.00841,39.48753],[-106.0079,39.488],[-106.00732,39.48765],[-106.00645,39.48753],[-106.00372,39.48739],[-106.00275,39.48749],[-105.99905,39.48653],[-105.99839,39.48587],[-105.99682,39.48551],[-105.99627,39.48502],[-105.99554,39.48485],[-105.99549,39.48436],[-105.99579,39.48363],[-105.9966,39.48319],[-105.99748,39.48315],[-105.99794,39.48324],[-105.99822,39.48379],[-105.99896,39.48421],[-106,39.48399],[-106.00151,39.48422],[-106.00268,39.48425],[-106.00311,39.48415],[-106.00359,39.48381],[-106.0041,39.48389],[-106.00521,39.48358],[-106.00534,39.48345],[-106.00531,39.48309],[-106.00558,39.48262],[-106.00604,39.48276],[-106.00646,39.48247],[-106.00667,39.48245],[-106.00797,39.483],[-106.00852,39.4829],[-106.00983,39.48243],[-106.01015,39.48241],[-106.01019,39.48251],[-106.01001,39.48276],[-106.00961,39.48307],[-106.00971,39.48363]]}}
