{"type":"Feature","properties":{"stage":6,"name":"Gold Dust","miles":31.09,"hasElevation":true},"geometry":{"type":"LineString","coordinates":[[-106.03791,39.47233,2970],[-106.03772,39.47264,2970],[-106.03794,39.47253,2970],[-106.03804,39.47231,2970],[-106.0378,39.47183,2972],[-106.03808,39.47178,2974],[-106.03884,39.47185,2974],[-106.03889,39.47179,2975],[-106.03757,39.47155,2984],[-106.03664,39.47112,2986],[-106.0363,39.47041,2994],[-106.0364,39.4696,3000],[-106.03623,39.46925,2999],[-106.03517,39.4684,2999],[-106.0341,39.46784,3012],[-106.03297,39.46669,3021],[-106.03227,39.46641,3025],[-106.03175,39.46578,3021],[-106.03149,39.46575,3019],[-106.03147,39.46555,3017],[-106.03174,39.46555,3014],[-106.03144,39.46533,3013],[-106.03164,39.46522,3010],[-106.03165,39.46506,3008],[-106.03131,39.46525,3008],[-106.03087,39.46582,3009],[-106.02998,39.46623,3009],[-106.02983,39.46659,3008],[-106.02935,39.46673,3008],[-106.02904,39.46717,3017],[-106.02897,39.46683,3018],[-106.02881,39.4669,3021],[-106.02814,39.46663,3029],[-106.02812,39.46705,3031],[-106.02837,39.46728,3031],[-106.02815,39.46755,3035],[-106.02766,39.46711,3042],[-106.02758,39.46714,3043],[-106.0276,39.46754,3049],[-106.02688,39.46708,3059],[-106.02705,39.46666,3064],[-106.02705,39.46609,3067],[-106.02683,39.46649,3072],[-106.0266,39.46661,3075],[-106.02657,39.46603,3081],[-106.02635,39.46595,3083],[-106.02635,39.46622,3085],[-106.02594,39.46673,3092],[-106.02589,39.46624,3096],[-106.02546,39.46591,3099],[-106.02552,39.46616,3103],[-106.02533,39.4665,3108],[-106.02503,39.46669,3110],[-106.02474,39.46666,3112],[-106.02456,39.4665,3113],[-106.02463,39.46634,3115],[-106.02387,39.46569,3119],[-106.02377,39.46513,3124],[-106.0236,39.46487,3125],[-106.0235,39.46486,3127],[-106.02347,39.46501,3129],[-106.02303,39.46508,3133],[-106.02303,39.46489,3136],[-106.0228,39.46464,3138],[-106.02208,39.46426,3133],[-106.02231,39.46398,3133],[-106.02276,39.46375,3137],[-106.02235,39.46275,3142],[-106.02271,39.46182,3151],[-106.0222,39.46189,3155],[-106.02183,39.4622,3158],[-106.02163,39.46256,3158],[-106.02129,39.46273,3157],[-106.02123,39.46265,3157],[-106.02161,39.46238,3161],[-106.02154,39.46178,3167],[-106.02173,39.46109,3173],[-106.02031,39.46196,3191],[-106.01989,39.46194,3195],[-106.01935,39.46174,3203],[-106.01804,39.4606,3223],[-106.0185,39.46076,3226],[-106.01892,39.46078,3229],[-106.0191,39.46044,3233],[-106.01859,39.46028,3240],[-106.01785,39.45959,3249],[-106.0177,39.45933,3251],[-106.01769,39.45899,3254],[-106.01711,39.45795,3260],[-106.01678,39.45775,3262],[-106.01585,39.45748,3263],[-106.0145,39.45693,3259],[-106.01276,39.45603,3256],[-106.01242,39.45601,3256],[-106.01185,39.4562,3259],[-106.01073,39.45617,3259],[-106.00996,39.45684,3258],[-106.00965,39.45805,3267],[-106.01035,39.45944,3264],[-106.01028,39.45978,3261],[-106.01006,39.45995,3258],[-106.00671,39.46056,3259],[-106.0051,39.46109,3261],[-106.00372,39.46182,3258],[-106.00238,39.46202,3260],[-106.0023,39.4622,3261],[-106.00266,39.46274,3268],[-106.00197,39.46238,3274],[-106.00105,39.46241,3285],[-106.00001,39.46222,3293],[-105.99967,39.46223,3296],[-105.9983,39.46273,3314],[-105.99761,39.46261,3322],[-105.99756,39.46277,3325],[-105.99794,39.46392,3343],[-105.99791,39.46421,3345],[-105.99631,39.46278,3348],[-105.99605,39.46232,3353],[-105.996,39.46115,3366],[-105.99582,39.46025,3375],[-105.99521,39.45867,3392],[-105.99605,39.4579,3388],[-105.99583,39.45655,3380],[-105.99593,39.45631,3379],[-105.99639,39.45641,3378],[-105.997,39.45635,3377],[-105.99963,39.4556,3377],[-106.00047,39.45584,3376],[-106.00153,39.45653,3376],[-106.00293,39.45714,3377],[-106.00362,39.45724,3376],[-106.00383,39.45708,3375],[-106.0039,39.45665,3376],[-106.00366,39.45619,3377],[-106.00383,39.45546,3377],[-106.00378,39.45375,3374],[-106.00343,39.45287,3372],[-106.00337,39.452,3370],[-106.00292,39.45031,3367],[-106.0024,39.44893,3364],[-106.00243,39.44764,3357],[-106.00204,39.44737,3354],[-106.00095,39.44739,3353],[-106.00039,39.4473,3353],[-105.99999,39.44709,3353],[-105.99965,39.44616,3351],[-105.99902,39.44549,3349],[-105.99895,39.44471,3344],[-105.99873,39.44448,3343],[-105.99815,39.44428,3340],[-105.99751,39.44465,3338],[-105.99686,39.44476,3337],[-105.99698,39.44441,3331],[-105.99655,39.44441,3329],[-105.99627,39.44426,3329],[-105.99617,39.44407,3329],[-105.99626,39.44324,3324],[-105.99525,39.44173,3329],[-105.99438,39.43958,3338],[-105.99387,39.43862,3343],[-105.99397,39.43811,3345],[-105.99505,39.43728,3350],[-105.99519,39.43692,3351],[-105.99511,39.43653,3352],[-105.99482,39.43628,3353],[-105.99393,39.4359,3356],[-105.99133,39.4353,3364],[-105.99083,39.43507,3367],[-105.99061,39.43481,3368],[-105.99056,39.4345,3368],[-105.99149,39.43359,3372],[-105.99156,39.43314,3374],[-105.99146,39.43265,3376],[-105.99068,39.4313,3382],[-105.98831,39.42926,3394],[-105.98697,39.4282,3399],[-105.98606,39.42766,3403],[-105.98509,39.42748,3406],[-105.98377,39.42771,3410],[-105.98329,39.42768,3412],[-105.98298,39.42755,3413],[-105.98266,39.42713,3414],[-105.98282,39.42579,3420],[-105.98272,39.42538,3421],[-105.98247,39.42512,3422],[-105.97804,39.42388,3437],[-105.97339,39.42183,3454],[-105.97134,39.42038,3462],[-105.97071,39.41969,3466],[-105.96962,39.41925,3468],[-105.96764,39.41824,3475],[-105.96741,39.41766,3477],[-105.96765,39.41659,3481],[-105.96801,39.41559,3487],[-105.96873,39.41463,3492],[-105.9695,39.41304,3499],[-105.96957,39.41213,3502],[-105.96805,39.40979,3506],[-105.9677,39.40943,3505],[-105.96641,39.40855,3501],[-105.96506,39.40781,3495],[-105.96409,39.40732,3492],[-105.96326,39.40712,3489],[-105.96303,39.40693,3487],[-105.96343,39.40556,3472],[-105.96359,39.40339,3453],[-105.96333,39.4025,3446],[-105.96281,39.4018,3443],[-105.96223,39.40132,3437],[-105.96262,39.4003,3430],[-105.96233,39.3997,3420],[-105.96183,39.39908,3412],[-105.96139,39.39743,3398],[-105.96137,39.39659,3391],[-105.96151,39.39585,3382],[-105.96175,39.3954,3378],[-105.96394,39.39368,3359],[-105.96399,39.39268,3353],[-105.9651,39.39115,3334],[-105.96516,39.39092,3332],[-105.96451,39.38873,3320],[-105.96447,39.38763,3304],[-105.96332,39.38595,3278],[-105.96361,39.38569,3273],[-105.96347,39.38488,3268],[-105.9642,39.38454,3266],[-105.96433,39.38423,3264],[-105.96358,39.38364,3266],[-105.96333,39.3833,3264],[-105.9636,39.38292,3264],[-105.96348,39.38262,3264],[-105.96366,39.38245,3264],[-105.96375,39.38168,3263],[-105.96342,39.37862,3262],[-105.96362,39.37789,3261],[-105.96422,39.37695,3260],[-105.96455,39.37555,3259],[-105.9646,39.37414,3258],[-105.96482,39.37254,3259],[-105.96499,39.37218,3259],[-105.96562,39.37177,3258],[-105.96455,39.37151,3258],[-105.96411,39.37114,3258],[-105.96402,39.37077,3258],[-105.9637,39.37054,3258],[-105.96281,39.37011,3255],[-105.96182,39.36984,3255],[-105.96172,39.36969,3255],[-105.96063,39.36921,3254],[-105.9598,39.36825,3253],[-105.95875,39.36808,3253],[-105.95866,39.36749,3252],[-105.95829,39.36729,3252],[-105.95819,39.36713,3252],[-105.95733,39.3671,3252],[-105.95719,39.36686,3252],[-105.95681,39.36676,3251],[-105.95686,39.36651,3251],[-105.95709,39.36634,3251],[-105.95808,39.36642,3251],[-105.95825,39.36632,3250],[-105.958,39.36586,3250],[-105.95747,39.3657,3250],[-105.95656,39.36495,3248],[-105.95676,39.36471,3245],[-105.95724,39.36445,3238],[-105.95718,39.36432,3235],[-105.9566,39.36386,3226],[-105.95557,39.36367,3213],[-105.95517,39.36337,3207],[-105.95479,39.36337,3204],[-105.95446,39.36324,3201],[-105.95416,39.36278,3194],[-105.95351,39.36231,3186],[-105.95287,39.36151,3178],[-105.95237,39.36016,3162],[-105.95041,39.35945,3158],[-105.94952,39.35888,3158],[-105.94926,39.35863,3159],[-105.94894,39.35761,3160],[-105.94861,39.35726,3158],[-105.94623,39.35622,3148],[-105.94518,39.35616,3145],[-105.94408,39.35635,3143],[-105.94312,39.35615,3142],[-105.94239,39.35589,3141],[-105.94111,39.35517,3140],[-105.9408,39.35476,3139],[-105.94022,39.35334,3134],[-105.93852,39.35079,3119],[-105.93815,39.35038,3116],[-105.93707,39.34979,3112],[-105.93668,39.34936,3111],[-105.93656,39.34899,3111],[-105.93659,39.34788,3111],[-105.93632,39.34696,3110],[-105.93604,39.34658,3109],[-105.93559,39.34639,3108],[-105.93477,39.3463,3105],[-105.93115,39.34644,3100],[-105.93009,39.34662,3099],[-105.92819,39.34723,3105],[-105.92771,39.34723,3106],[-105.92731,39.34705,3106],[-105.92717,39.34676,3107],[-105.92742,39.34543,3111],[-105.92732,39.34492,3114],[-105.92683,39.34436,3115],[-105.92611,39.34385,3118],[-105.9257,39.3437,3120],[-105.92469,39.34371,3122],[-105.92258,39.34331,3128],[-105.922,39.34336,3129],[-105.9213,39.34365,3132],[-105.92074,39.34411,3134],[-105.9202,39.34502,3138],[-105.92007,39.34571,3140],[-105.92013,39.34704,3145],[-105.91991,39.34743,3147],[-105.91941,39.34788,3149],[-105.91821,39.34819,3152],[-105.91755,39.34853,3155],[-105.91699,39.34904,3156],[-105.91643,39.34989,3159],[-105.91602,39.35066,3162],[-105.91575,39.35152,3166],[-105.91585,39.35209,3168],[-105.9158,39.35315,3170],[-105.91791,39.3547,3177],[-105.91837,39.3548,3179],[-105.91985,39.35482,3183],[-105.92396,39.3561,3196],[-105.92571,39.35722,3203],[-105.92752,39.35777,3210],[-105.92842,39.35843,3213],[-105.93092,39.35984,3224],[-105.93149,39.35989,3226],[-105.93262,39.35955,3230],[-105.93375,39.35942,3234],[-105.93502,39.35976,3238],[-105.93581,39.36019,3248],[-105.93734,39.36272,3255],[-105.93803,39.36574,3267],[-105.93944,39.36775,3278],[-105.93979,39.36843,3281],[-105.93989,39.36912,3283],[-105.93977,39.37006,3287],[-105.94089,39.37112,3293],[-105.94138,39.37192,3296],[-105.94176,39.3734,3302],[-105.9419,39.37455,3307],[-105.9427,39.37643,3316],[-105.94273,39.37731,3319],[-105.9425,39.37863,3324],[-105.94234,39.37891,3325],[-105.94176,39.37941,3327],[-105.94164,39.37976,3327],[-105.94172,39.38012,3328],[-105.94243,39.38063,3334],[-105.94278,39.38117,3336],[-105.94277,39.3816,3337],[-105.9422,39.38324,3344],[-105.94224,39.38362,3346],[-105.9425,39.38414,3348],[-105.9428,39.38455,3350],[-105.94315,39.38478,3352],[-105.94474,39.38488,3357],[-105.94637,39.3856,3362],[-105.94783,39.38676,3370],[-105.95023,39.38811,3380],[-105.95058,39.3884,3382],[-105.95141,39.38954,3388],[-105.95304,39.39066,3395],[-105.95423,39.39187,3402],[-105.95457,39.39209,3403],[-105.95553,39.3922,3406],[-105.95667,39.39178,3410],[-105.95876,39.39148,3418],[-105.95901,39.39154,3419],[-105.9594,39.39183,3420],[-105.9595,39.39216,3422],[-105.95939,39.39244,3422],[-105.95854,39.39317,3426],[-105.9583,39.39358,3427],[-105.95796,39.39449,3431],[-105.95798,39.39502,3433],[-105.95874,39.39643,3440],[-105.96082,39.40117,3463],[-105.96101,39.40206,3466],[-105.96178,39.40305,3471],[-105.96226,39.40408,3476],[-105.96271,39.40554,3482],[-105.96278,39.4067,3486],[-105.9632,39.40712,3488],[-105.96448,39.40752,3493],[-105.96631,39.40854,3500],[-105.96769,39.40946,3507],[-105.96808,39.40986,3509],[-105.9695,39.41206,3510],[-105.9696,39.41247,3508],[-105.9695,39.41299,3508],[-105.96873,39.41456,3501],[-105.96797,39.41559,3496],[-105.9677,39.41631,3493],[-105.96742,39.41762,3487],[-105.96744,39.41801,3486],[-105.9676,39.41826,3485],[-105.96953,39.41924,3479],[-105.97072,39.41973,3475],[-105.97131,39.42038,3472],[-105.97347,39.4219,3464],[-105.97801,39.42391,3448],[-105.98171,39.42489,3436],[-105.98244,39.42516,3433],[-105.98268,39.42539,3432],[-105.98279,39.42569,3431],[-105.98261,39.42709,3427],[-105.98273,39.42736,3425],[-105.98299,39.42759,3424],[-105.98357,39.42773,3423],[-105.9849,39.42751,3419],[-105.98559,39.42755,3416],[-105.98622,39.42774,3415],[-105.98697,39.42818,3412],[-105.99058,39.43122,3397],[-105.99109,39.43196,3393],[-105.99145,39.43263,3389],[-105.99156,39.43317,3387],[-105.99139,39.4337,3386],[-105.99075,39.43426,3383],[-105.99057,39.43454,3381],[-105.99065,39.43493,3380],[-105.99101,39.43523,3379],[-105.99372,39.43582,3372],[-105.99445,39.43608,3367],[-105.99467,39.4358,3351],[-105.99476,39.43535,3343],[-105.99509,39.43508,3328],[-105.99503,39.43487,3323],[-105.99512,39.43478,3321],[-105.99553,39.43465,3313],[-105.99625,39.43479,3304],[-105.9969,39.43427,3296],[-105.99728,39.43417,3289],[-105.99761,39.43431,3284],[-105.99855,39.43403,3276],[-105.99987,39.43406,3264],[-106.0009,39.43439,3257],[-106.00148,39.43493,3246],[-106.00137,39.43437,3239],[-106.00233,39.43482,3232],[-106.00268,39.43517,3224],[-106.0034,39.43492,3215],[-106.00362,39.43456,3209],[-106.00408,39.43532,3212],[-106.00424,39.43585,3206],[-106.00415,39.43735,3193],[-106.00428,39.43776,3190],[-106.00505,39.43963,3179],[-106.00616,39.441,3168],[-106.00764,39.44178,3163],[-106.00931,39.44217,3158],[-106.01045,39.44267,3153],[-106.01191,39.44429,3145],[-106.0134,39.44545,3139],[-106.0139,39.44614,3137],[-106.01462,39.4465,3137],[-106.01524,39.44727,3138],[-106.01662,39.44768,3132],[-106.01992,39.44945,3122],[-106.0211,39.44974,3121],[-106.02277,39.44993,3120],[-106.02344,39.4502,3118],[-106.02383,39.45049,3116],[-106.02394,39.45068,3114],[-106.02369,39.45129,3118],[-106.02378,39.45168,3120],[-106.02439,39.4524,3116],[-106.025,39.45279,3111],[-106.02615,39.454,3100],[-106.02615,39.4548,3100],[-106.0275,39.45607,3093],[-106.02781,39.4567,3088],[-106.02859,39.4575,3079],[-106.02893,39.45859,3072],[-106.02867,39.45945,3071],[-106.02877,39.4601,3070],[-106.02961,39.46065,3068],[-106.03009,39.46131,3069],[-106.03136,39.46249,3069],[-106.03188,39.46269,3064],[-106.03246,39.46394,3052],[-106.03323,39.46433,3049],[-106.03246,39.46479,3038],[-106.03174,39.46501,3036],[-106.03166,39.46519,3036],[-106.03145,39.46529,3039],[-106.03171,39.46551,3041],[-106.0314,39.46549,3043],[-106.03133,39.46565,3045],[-106.03159,39.46567,3045],[-106.0321,39.4663,3052],[-106.03284,39.46663,3049],[-106.03391,39.46771,3040],[-106.03498,39.46825,3028],[-106.03655,39.46952,3024],[-106.03693,39.46948,3021],[-106.03747,39.46977,3019],[-106.03796,39.46971,3017],[-106.03883,39.46991,3016],[-106.03928,39.46981,3018],[-106.03973,39.46994,3017],[-106.04002,39.47015,3016],[-106.04075,39.47041,3010],[-106.04121,39.47092,3006],[-106.04105,39.47112,3002],[-106.04153,39.47152,3004],[-106.04131,39.47207,2998],[-106.04077,39.47216,2999],[-106.03925,39.47184,2999],[-106.03815,39.47173,2996],[-106.03801,39.47198,2993],[-106.0381,39.4723,2992],[-106.03796,39.47255,2992]]}}
