{"type":"Feature","properties":{"stage":3,"name":"Mount Guyot","miles":38.91,"hasElevation":false},"geometry":{"type":"LineString","coordinates":[[-106.04465,39.48087],[-106.04135,39.48125],[-106.04153,39.48318],[-106.04176,39.48415],[-106.0413,39.48541],[-106.04112,39.48567],[-106.04009,39.4865],[-106.03941,39.48732],[-106.03895,39.48747],[-106.03718,39.4871],[-106.03583,39.48605],[-106.03509,39.48584],[-106.03336,39.48586],[-106.03191,39.48602],[-106.03008,39.48575],[-106.02829,39.48622],[-106.02789,39.48618],[-106.02711,39.48576],[-106.0226,39.48239],[-106.02164,39.48197],[-106.02094,39.48154],[-106.01978,39.4812],[-106.01599,39.48244],[-106.01447,39.48269],[-106.01015,39.48399],[-106.00558,39.48509],[-106.0026,39.48556],[-106.00182,39.48557],[-105.99617,39.48517],[-105.99535,39.4852],[-105.99241,39.48571],[-105.98995,39.48648],[-105.98815,39.48688],[-105.98562,39.48721],[-105.98445,39.4872],[-105.98347,39.48708],[-105.9797,39.48621],[-105.97913,39.48656],[-105.9791,39.4867],[-105.97927,39.48691],[-105.98177,39.48772],[-105.98357,39.48922],[-105.98454,39.4897],[-105.98529,39.49081],[-105.9854,39.49133],[-105.98579,39.49215],[-105.9858,39.49263],[-105.98533,39.49289],[-105.98389,39.49308],[-105.9829,39.49339],[-105.98185,39.49501],[-105.98127,39.49569],[-105.98096,39.49571],[-105.98021,39.49546],[-105.97971,39.4954],[-105.97786,39.49643],[-105.97735,39.49654],[-105.97623,39.49658],[-105.97555,39.49683],[-105.97462,39.49695],[-105.97424,39.4975],[-105.97399,39.49758],[-105.97356,39.49694],[-105.97237,39.496],[-105.97222,39.49539],[-105.97231,39.49477],[-105.97214,39.49406],[-105.97107,39.4932],[-105.97083,39.49268],[-105.96928,39.49044],[-105.96719,39.48895],[-105.96625,39.48779],[-105.96559,39.48761],[-105.9653,39.48739],[-105.96485,39.48725],[-105.96479,39.48703],[-105.96413,39.48621],[-105.96275,39.48476],[-105.96255,39.48416],[-105.96233,39.48391],[-105.9612,39.48324],[-105.95958,39.48279],[-105.95847,39.48209],[-105.9564,39.48111],[-105.9553,39.48073],[-105.95468,39.48067],[-105.95414,39.48043],[-105.95377,39.48042],[-105.95298,39.4793],[-105.95135,39.47802],[-105.94955,39.47594],[-105.94765,39.47436],[-105.94696,39.47328],[-105.94681,39.47238],[-105.94685,39.47168],[-105.94717,39.47034],[-105.94707,39.4698],[-105.94737,39.46977],[-105.94762,39.47001],[-105.94779,39.47062],[-105.94765,39.47159],[-105.94781,39.47207],[-105.9478,39.47263],[-105.94853,39.47349],[-105.95003,39.47442],[-105.95144,39.47574],[-105.95164,39.47586],[-105.95258,39.47606],[-105.95343,39.47604],[-105.95379,39.47616],[-105.95435,39.47651],[-105.95499,39.47747],[-105.95564,39.47798],[-105.95798,39.4791],[-105.95864,39.47933],[-105.95928,39.47939],[-105.96014,39.47926],[-105.95925,39.47837],[-105.95715,39.47713],[-105.95692,39.47648],[-105.95623,39.47578],[-105.95596,39.47517],[-105.95582,39.47375],[-105.95558,39.47307],[-105.95519,39.47246],[-105.95451,39.47217],[-105.95431,39.47185],[-105.95431,39.47154],[-105.95473,39.47069],[-105.95481,39.4702],[-105.95521,39.46948],[-105.95534,39.46839],[-105.95526,39.46768],[-105.95538,39.46735],[-105.95521,39.4671],[-105.95521,39.46672],[-105.95491,39.46621],[-105.95499,39.46554],[-105.95466,39.46518],[-105.95519,39.46379],[-105.95496,39.46232],[-105.95558,39.46119],[-105.95569,39.46061],[-105.95534,39.46],[-105.95548,39.45935],[-105.95524,39.45869],[-105.95528,39.45809],[-105.95514,39.45738],[-105.95521,39.45637],[-105.95435,39.4558],[-105.95412,39.45552],[-105.95408,39.45491],[-105.95431,39.454],[-105.95506,39.4526],[-105.95491,39.45232],[-105.95484,39.45167],[-105.95499,39.45026],[-105.95521,39.44961],[-105.95512,39.4494],[-105.95537,39.44861],[-105.95519,39.44788],[-105.95435,39.44768],[-105.95396,39.44713],[-105.95386,39.44563],[-105.95398,39.44465],[-105.95335,39.44395],[-105.95215,39.44202],[-105.95168,39.44082],[-105.95145,39.43955],[-105.951,39.43901],[-105.95085,39.43838],[-105.95064,39.43804],[-105.95054,39.43737],[-105.94933,39.43615],[-105.94852,39.43515],[-105.94807,39.43435],[-105.94766,39.43398],[-105.94759,39.43356],[-105.94676,39.43243],[-105.94587,39.4318],[-105.94548,39.43138],[-105.94544,39.43105],[-105.94479,39.43049],[-105.94437,39.43022],[-105.9432,39.42973],[-105.94254,39.42922],[-105.942,39.42906],[-105.94183,39.42851],[-105.94106,39.42801],[-105.93978,39.4275],[-105.93956,39.42663],[-105.9384,39.42614],[-105.93825,39.42588],[-105.93819,39.42513],[-105.93835,39.42452],[-105.93806,39.42401],[-105.9377,39.42375],[-105.9377,39.42353],[-105.93838,39.42278],[-105.93879,39.42262],[-105.93893,39.42247],[-105.93882,39.42226],[-105.93749,39.42185],[-105.93703,39.42158],[-105.93642,39.42147],[-105.93569,39.42163],[-105.93497,39.42164],[-105.93369,39.42193],[-105.93219,39.42188],[-105.93178,39.42172],[-105.93018,39.42166],[-105.92967,39.42153],[-105.92731,39.42167],[-105.92676,39.42207],[-105.92632,39.42192],[-105.92514,39.42184],[-105.92355,39.42204],[-105.92298,39.42198],[-105.92181,39.42211],[-105.92082,39.42173],[-105.91882,39.42188],[-105.91798,39.42166],[-105.9173,39.42136],[-105.91666,39.42129],[-105.91564,39.42063],[-105.9151,39.4204],[-105.91425,39.42008],[-105.91371,39.42006],[-105.9129,39.4202],[-105.91255,39.42053],[-105.91246,39.42094],[-105.91165,39.42135],[-105.91144,39.42178],[-105.91117,39.42166],[-105.91093,39.4211],[-105.9107,39.42106],[-105.91026,39.42198],[-105.90973,39.42194],[-105.90945,39.42211],[-105.90926,39.42285],[-105.90884,39.42347],[-105.90788,39.4241],[-105.90698,39.42448],[-105.90595,39.42548],[-105.90559,39.42623],[-105.90594,39.42656],[-105.90675,39.42688],[-105.90695,39.42734],[-105.90698,39.42803],[-105.90803,39.42965],[-105.90861,39.43162],[-105.91006,39.43424],[-105.91047,39.43527],[-105.91142,39.43605],[-105.91206,39.43681],[-105.9128,39.43727],[-105.91421,39.43791],[-105.91452,39.4383],[-105.91425,39.43876],[-105.91318,39.43914],[-105.91248,39.43986],[-105.91148,39.44012],[-105.91078,39.44056],[-105.91053,39.441],[-105.91061,39.4424],[-105.91098,39.44344],[-105.91163,39.44433],[-105.91203,39.44532],[-105.91261,39.44592],[-105.9137,39.44655],[-105.91421,39.44766],[-105.91355,39.44952],[-105.91324,39.44975],[-105.91283,39.44988],[-105.91097,39.44901],[-105.90991,39.44796],[-105.90972,39.44792],[-105.91013,39.44865],[-105.91057,39.44988],[-105.91151,39.4511],[-105.91202,39.45232],[-105.91286,39.45296],[-105.91353,39.45325],[-105.91493,39.45457],[-105.91567,39.4551],[-105.91634,39.45555],[-105.91716,39.45587],[-105.92028,39.45696],[-105.92104,39.45709],[-105.92106,39.45719],[-105.92091,39.45738],[-105.91894,39.4575],[-105.91625,39.45802],[-105.91593,39.45826],[-105.91428,39.45898],[-105.91375,39.45933],[-105.91248,39.45979],[-105.91176,39.46043],[-105.91052,39.46111],[-105.91,39.46135],[-105.90885,39.46167],[-105.90846,39.46193],[-105.907,39.46252],[-105.90636,39.46305],[-105.90604,39.46392],[-105.90558,39.46448],[-105.90554,39.46518],[-105.90562,39.46589],[-105.90672,39.46836],[-105.9068,39.46895],[-105.9067,39.47043],[-105.90625,39.47202],[-105.90593,39.47274],[-105.90569,39.47311],[-105.90436,39.4744],[-105.90328,39.47593],[-105.90327,39.47792],[-105.90417,39.48048],[-105.90427,39.4812],[-105.90482,39.48189],[-105.90606,39.48216],[-105.9081,39.48218],[-105.90863,39.48211],[-105.90923,39.48232],[-105.9111,39.48259],[-105.91166,39.48259],[-105.91215,39.4821],[-105.91259,39.48272],[-105.91293,39.4828],[-105.91308,39.48298],[-105.91352,39.48289],[-105.91397,39.48312],[-105.9144,39.4831],[-105.91484,39.48329],[-105.91502,39.4839],[-105.91486,39.48427],[-105.9156,39.48459],[-105.91627,39.48454],[-105.91691,39.48417],[-105.91709,39.48375],[-105.91711,39.48323],[-105.9175,39.48341],[-105.91782,39.48371],[-105.91788,39.48423],[-105.91839,39.4836],[-105.91875,39.48376],[-105.91899,39.48424],[-105.91946,39.48397],[-105.91969,39.48367],[-105.92007,39.48396],[-105.9203,39.48396],[-105.92045,39.48383],[-105.9208,39.48401],[-105.92198,39.48579],[-105.92223,39.48646],[-105.92212,39.4866],[-105.92235,39.48712],[-105.92213,39.48787],[-105.9222,39.48888],[-105.92319,39.48974],[-105.92336,39.49019],[-105.924,39.49104],[-105.9243,39.49165],[-105.92372,39.49152],[-105.92394,39.49186],[-105.9236,39.49194],[-105.92355,39.4921],[-105.92309,39.49225],[-105.92157,39.49205],[-105.92123,39.49228],[-105.92128,39.49245],[-105.92112,39.4926],[-105.92185,39.49291],[-105.92297,39.49312],[-105.92328,39.4934],[-105.92372,39.49353],[-105.92531,39.49349],[-105.92638,39.49356],[-105.9249,39.49451],[-105.92402,39.49487],[-105.92368,39.49525],[-105.92419,39.49546],[-105.92499,39.49553],[-105.92484,39.49609],[-105.92548,39.49622],[-105.92545,39.49657],[-105.92569,39.49675],[-105.92558,39.49711],[-105.9257,39.49772],[-105.92717,39.49794],[-105.9298,39.49793],[-105.93036,39.4981],[-105.93108,39.49809],[-105.9316,39.49828],[-105.93262,39.49826],[-105.93385,39.4985],[-105.93522,39.49851],[-105.93694,39.49824],[-105.93797,39.49786],[-105.93863,39.49789],[-105.94033,39.49741],[-105.94067,39.49706],[-105.94255,39.49621],[-105.9439,39.49538],[-105.94418,39.49534],[-105.94453,39.49544],[-105.94504,39.49588],[-105.94556,39.49592],[-105.9461,39.49579],[-105.94638,39.49558],[-105.94688,39.49485],[-105.94655,39.49441],[-105.94679,39.49368],[-105.94672,39.49348],[-105.94619,39.49294],[-105.94482,39.49239],[-105.9444,39.49163],[-105.9443,39.49124],[-105.94306,39.49039],[-105.9428,39.49007],[-105.94262,39.48959],[-105.94184,39.48904],[-105.94112,39.48872],[-105.94047,39.48859],[-105.93968,39.48811],[-105.93835,39.48806],[-105.93737,39.48779],[-105.93684,39.48743],[-105.93617,39.48719],[-105.93471,39.48698],[-105.93402,39.48659],[-105.93353,39.48644],[-105.93256,39.48624],[-105.93172,39.48623],[-105.92977,39.48518],[-105.92844,39.48362],[-105.92693,39.48251],[-105.92613,39.48175],[-105.92498,39.48009],[-105.92379,39.47894],[-105.92297,39.47789],[-105.92223,39.47662],[-105.92184,39.47561],[-105.92194,39.475],[-105.92132,39.47438],[-105.92072,39.47278],[-105.91989,39.47265],[-105.91924,39.47187],[-105.91876,39.47148],[-105.91833,39.47082],[-105.9184,39.47002],[-105.91876,39.46986],[-105.91888,39.47014],[-105.91983,39.47073],[-105.92013,39.47064],[-105.92076,39.47068],[-105.9212,39.47052],[-105.92142,39.47055],[-105.92175,39.47078],[-105.92205,39.47078],[-105.92256,39.4706],[-105.92275,39.47065],[-105.92306,39.47105],[-105.9234,39.471],[-105.92439,39.47221],[-105.92478,39.47251],[-105.92509,39.4726],[-105.92532,39.47285],[-105.92525,39.47339],[-105.92542,39.47385],[-105.92537,39.47426],[-105.92561,39.47541],[-105.92629,39.47584],[-105.92793,39.4765],[-105.92861,39.47695],[-105.92976,39.47737],[-105.93041,39.47739],[-105.93076,39.47728],[-105.93132,39.47672],[-105.93197,39.47641],[-105.93247,39.47638],[-105.93273,39.47646],[-105.93309,39.47805],[-105.93263,39.47896],[-105.93256,39.47939],[-105.93308,39.47989],[-105.9351,39.48102],[-105.93565,39.48154],[-105.93587,39.48192],[-105.93641,39.48182],[-105.93696,39.48135],[-105.93737,39.48134],[-105.93944,39.48228],[-105.94016,39.48233],[-105.94032,39.48223],[-105.94035,39.48203],[-105.94017,39.4806],[-105.93983,39.47991],[-105.93993,39.47961],[-105.94213,39.48013],[-105.94289,39.48019],[-105.94362,39.48014],[-105.94477,39.47962],[-105.94533,39.47944],[-105.94561,39.47944],[-105.94662,39.47975],[-105.94746,39.48025],[-105.94797,39.481],[-105.94801,39.48249],[-105.94771,39.48366],[-105.94704,39.48495],[-105.94647,39.48568],[-105.9466,39.48596],[-105.94753,39.48638],[-105.94778,39.48644],[-105.94798,39.48637],[-105.949,39.48544],[-105.95071,39.48321],[-105.95144,39.48269],[-105.95187,39.4826],[-105.95223,39.48288],[-105.95287,39.48386],[-105.95319,39.48403],[-105.95362,39.48477],[-105.95437,39.48537],[-105.95483,39.48548],[-105.95599,39.48542],[-105.95734,39.48579],[-105.95746,39.48592],[-105.95721,39.4865],[-105.95728,39.48674],[-105.95791,39.48711],[-105.95908,39.48747],[-105.96036,39.48748],[-105.96055,39.48775],[-105.96049,39.48829],[-105.96105,39.48879],[-105.96177,39.48884],[-105.96446,39.48834],[-105.9659,39.48797],[-105.96632,39.48808],[-105.9671,39.48895],[-105.96915,39.49036],[-105.96982,39.49145],[-105.97081,39.49274],[-105.97096,39.49314],[-105.97199,39.49398],[-105.97225,39.49485],[-105.97212,39.49538],[-105.97231,39.49606],[-105.97354,39.49702],[-105.97395,39.49758],[-105.97419,39.49747],[-105.97452,39.49694],[-105.97603,39.49659],[-105.97771,39.49645],[-105.97952,39.49548],[-105.97987,39.49545],[-105.98101,39.49574],[-105.98122,39.49572],[-105.98288,39.49332],[-105.98383,39.49308],[-105.98537,39.49292],[-105.98608,39.49264],[-105.98681,39.49258],[-105.98735,39.49203],[-105.98791,39.49202],[-105.98857,39.49155],[-105.98962,39.49134],[-105.99084,39.4906],[-105.99149,39.49052],[-105.99214,39.49069],[-105.99277,39.49108],[-105.99378,39.4912],[-105.9947,39.49226],[-105.99492,39.49242],[-105.99519,39.49246],[-105.99619,39.49217],[-105.99709,39.49137],[-105.99818,39.49112],[-105.99847,39.49072],[-105.99833,39.48993],[-105.99847,39.48991],[-105.99868,39.49008],[-105.99876,39.4898],[-105.99847,39.4892],[-105.99815,39.48891],[-105.99878,39.48912],[-105.99963,39.48969],[-105.99961,39.48943],[-106.0007,39.48994],[-105.99994,39.48883],[-106.00002,39.48879],[-106.00079,39.48932],[-106.00029,39.48865],[-106.00138,39.48931],[-106.00144,39.4891],[-106.00171,39.4892],[-106.00224,39.48915],[-106.00301,39.48858],[-106.00345,39.48839],[-106.00481,39.48819],[-106.00604,39.48843],[-106.00629,39.48862],[-106.00751,39.48899],[-106.00775,39.48888],[-106.00874,39.48794],[-106.00961,39.48753],[-106.00995,39.48701],[-106.00839,39.48753],[-106.0079,39.48798],[-106.0075,39.48781],[-106.00734,39.48762],[-106.00646,39.48748],[-106.00363,39.48737],[-106.00269,39.48745],[-106.00072,39.48696],[-105.9991,39.48648],[-105.99844,39.48586],[-105.99679,39.48548],[-105.99622,39.48496],[-105.99557,39.4848],[-105.99545,39.48438],[-105.99565,39.48381],[-105.99583,39.48353],[-105.99638,39.48327],[-105.99572,39.48314],[-105.99433,39.48313],[-105.99264,39.48357],[-105.99159,39.48418],[-105.99102,39.48479],[-105.99081,39.48488],[-105.99042,39.4848],[-105.98994,39.48502],[-105.98962,39.48498],[-105.98888,39.48454],[-105.99072,39.4841],[-105.99092,39.48384],[-105.99182,39.48318],[-105.99262,39.48308],[-105.99304,39.48283],[-105.99365,39.48282],[-105.99433,39.4825],[-105.99483,39.48243],[-105.99548,39.48255],[-105.99631,39.48248],[-105.99672,39.48255],[-105.99794,39.48239],[-105.99799,39.48252],[-106.00009,39.48248],[-106.00059,39.48255],[-106.00098,39.48243],[-106.00195,39.48238],[-106.00294,39.48268],[-106.00324,39.48265],[-106.00356,39.48246],[-106.00408,39.48275],[-106.00547,39.48256],[-106.00603,39.48273],[-106.00654,39.48241],[-106.00799,39.48298],[-106.00995,39.48243]]}}
