{"type":"Feature","properties":{"stage":5,"name":"Wheeler","miles":24.13,"hasElevation":true},"geometry":{"type":"LineString","coordinates":[[-106.04951,39.47413,2967],[-106.05055,39.47305,2973],[-106.05039,39.47278,2974],[-106.05041,39.47257,2975],[-106.05011,39.47222,2976],[-106.05042,39.47123,2986],[-106.05052,39.47007,2995],[-106.05108,39.46886,3006],[-106.05111,39.46818,3012],[-106.05094,39.46775,3015],[-106.05147,39.46652,3026],[-106.05246,39.46525,3039],[-106.05277,39.46468,3047],[-106.05269,39.46408,3056],[-106.05312,39.46256,3073],[-106.05294,39.46205,3081],[-106.05214,39.46093,3096],[-106.05157,39.46067,3095],[-106.05137,39.4604,3096],[-106.05151,39.45994,3101],[-106.05119,39.45893,3106],[-106.05123,39.45831,3111],[-106.05154,39.45786,3115],[-106.05151,39.45741,3117],[-106.05175,39.45709,3121],[-106.05228,39.45708,3127],[-106.05258,39.45623,3129],[-106.05173,39.455,3136],[-106.05135,39.45422,3142],[-106.0508,39.45383,3143],[-106.05049,39.45334,3143],[-106.05048,39.45212,3144],[-106.05024,39.45068,3145],[-106.05057,39.44946,3145],[-106.05024,39.44806,3155],[-106.05038,39.44723,3155],[-106.05018,39.44689,3155],[-106.04981,39.44671,3155],[-106.04916,39.44616,3156],[-106.04975,39.44494,3170],[-106.05,39.44394,3183],[-106.05047,39.44315,3192],[-106.05082,39.44175,3197],[-106.05145,39.44015,3203],[-106.05186,39.4395,3210],[-106.05228,39.4384,3216],[-106.05419,39.43702,3223],[-106.05577,39.43608,3227],[-106.05875,39.43463,3240],[-106.0597,39.43389,3245],[-106.06077,39.43334,3254],[-106.0622,39.43207,3261],[-106.06346,39.43131,3271],[-106.06491,39.43066,3288],[-106.06668,39.43007,3308],[-106.06831,39.42939,3319],[-106.06939,39.42881,3333],[-106.06942,39.42896,3335],[-106.0689,39.42974,3345],[-106.06821,39.43133,3357],[-106.06785,39.43278,3366],[-106.06805,39.4348,3388],[-106.06828,39.43577,3399],[-106.0698,39.43676,3412],[-106.07095,39.43705,3419],[-106.07137,39.43701,3423],[-106.07152,39.4374,3431],[-106.07175,39.43755,3435],[-106.07231,39.43722,3448],[-106.07354,39.43726,3469],[-106.0744,39.43766,3485],[-106.07475,39.4383,3491],[-106.07612,39.43937,3510],[-106.07826,39.43966,3542],[-106.07825,39.43987,3546],[-106.0777,39.44038,3558],[-106.07776,39.44053,3560],[-106.07749,39.44077,3570],[-106.07789,39.44116,3581],[-106.07792,39.44141,3584],[-106.07746,39.44203,3596],[-106.07699,39.44231,3604],[-106.07805,39.44288,3631],[-106.07851,39.44301,3643],[-106.07978,39.44321,3668],[-106.08383,39.44416,3733],[-106.08524,39.4444,3764],[-106.08504,39.44462,3770],[-106.08538,39.44488,3778],[-106.08621,39.44609,3790],[-106.08614,39.44702,3791],[-106.08638,39.44729,3792],[-106.08677,39.44819,3804],[-106.08709,39.44861,3805],[-106.08753,39.44886,3800],[-106.088,39.44898,3794],[-106.08998,39.44877,3778],[-106.09088,39.44921,3770],[-106.09128,39.45004,3765],[-106.09108,39.45079,3764],[-106.09119,39.45114,3764],[-106.09161,39.45154,3765],[-106.09325,39.45266,3763],[-106.09615,39.45328,3770],[-106.09726,39.45322,3771],[-106.09772,39.4533,3771],[-106.09836,39.45353,3769],[-106.09938,39.45419,3763],[-106.10051,39.45592,3752],[-106.10107,39.45649,3750],[-106.10143,39.45667,3750],[-106.10184,39.45707,3747],[-106.1025,39.45725,3744],[-106.10279,39.45754,3741],[-106.10326,39.45778,3739],[-106.10398,39.45846,3734],[-106.10454,39.45934,3725],[-106.10493,39.45962,3727],[-106.10481,39.46048,3739],[-106.10509,39.46065,3741],[-106.10516,39.46103,3748],[-106.10592,39.46079,3766],[-106.10695,39.46175,3762],[-106.10714,39.46219,3754],[-106.10765,39.46262,3744],[-106.10782,39.46295,3737],[-106.10919,39.4644,3693],[-106.11052,39.46553,3658],[-106.11103,39.46612,3643],[-106.11274,39.46766,3612],[-106.11371,39.46832,3600],[-106.11572,39.46913,3580],[-106.11631,39.46948,3570],[-106.11647,39.46969,3566],[-106.11673,39.47087,3542],[-106.11736,39.47209,3521],[-106.11737,39.47257,3511],[-106.11683,39.47382,3489],[-106.11516,39.47505,3457],[-106.11539,39.47551,3447],[-106.11551,39.47659,3460],[-106.11536,39.47673,3463],[-106.11511,39.47668,3466],[-106.11537,39.47735,3475],[-106.11475,39.47775,3480],[-106.11522,39.4783,3487],[-106.11527,39.47913,3498],[-106.11548,39.47935,3501],[-106.11563,39.4798,3506],[-106.11586,39.47996,3507],[-106.11615,39.48042,3520],[-106.11592,39.48201,3544],[-106.11535,39.48215,3551],[-106.11504,39.48207,3556],[-106.11412,39.4822,3567],[-106.11346,39.48217,3578],[-106.11277,39.48238,3588],[-106.1121,39.48244,3593],[-106.11194,39.48323,3599],[-106.11245,39.48467,3615],[-106.11318,39.48545,3622],[-106.11358,39.48642,3637],[-106.11362,39.48681,3641],[-106.11332,39.48754,3648],[-106.11278,39.48818,3648],[-106.11271,39.48906,3653],[-106.11347,39.49028,3662],[-106.11374,39.49102,3662],[-106.11367,39.49146,3672],[-106.114,39.4927,3687],[-106.11501,39.49481,3702],[-106.1148,39.49619,3709],[-106.114,39.4973,3728],[-106.11396,39.49778,3728],[-106.11397,39.49865,3736],[-106.11418,39.499,3738],[-106.11423,39.49945,3737],[-106.11414,39.50012,3743],[-106.11476,39.50357,3759],[-106.1147,39.50382,3762],[-106.11418,39.50452,3772],[-106.11322,39.50502,3762],[-106.11331,39.50567,3756],[-106.11302,39.50556,3751],[-106.11261,39.5052,3744],[-106.1125,39.50533,3741],[-106.11253,39.50578,3734],[-106.11294,39.50648,3721],[-106.11233,39.5065,3709],[-106.11191,39.50668,3696],[-106.11209,39.50726,3689],[-106.11176,39.50839,3683],[-106.11183,39.50883,3682],[-106.11171,39.50985,3677],[-106.11092,39.51095,3667],[-106.11031,39.51251,3655],[-106.10988,39.51317,3641],[-106.10942,39.51434,3631],[-106.10961,39.51566,3635],[-106.10927,39.51661,3629],[-106.10926,39.51758,3626],[-106.11005,39.5194,3624],[-106.11004,39.52135,3611],[-106.11022,39.52159,3609],[-106.11038,39.52163,3607],[-106.11128,39.52132,3601],[-106.11087,39.5217,3595],[-106.1107,39.52216,3585],[-106.11107,39.52196,3578],[-106.11126,39.52198,3576],[-106.11142,39.52274,3564],[-106.11169,39.52292,3559],[-106.11178,39.52314,3554],[-106.11146,39.52407,3534],[-106.1109,39.5244,3521],[-106.11048,39.52481,3507],[-106.10965,39.52689,3459],[-106.10893,39.52763,3451],[-106.10844,39.52794,3446],[-106.10762,39.52919,3422],[-106.10742,39.53032,3410],[-106.10726,39.53066,3411],[-106.10765,39.53154,3411],[-106.10855,39.53292,3407],[-106.10862,39.53348,3401],[-106.10836,39.53383,3399],[-106.10675,39.53454,3379],[-106.10663,39.5345,3374],[-106.10676,39.53426,3372],[-106.10666,39.53422,3369],[-106.10506,39.53469,3352],[-106.10319,39.53495,3335],[-106.10281,39.53481,3329],[-106.10218,39.53491,3322],[-106.10127,39.5347,3316],[-106.10077,39.53471,3313],[-106.10001,39.53509,3304],[-106.09983,39.5351,3302],[-106.09969,39.5349,3298],[-106.09933,39.53491,3296],[-106.09822,39.53536,3287],[-106.098,39.5353,3283],[-106.09817,39.53518,3281],[-106.09858,39.53442,3275],[-106.09827,39.53427,3270],[-106.09795,39.53435,3268],[-106.09788,39.53427,3266],[-106.09818,39.53406,3261],[-106.09857,39.53396,3259],[-106.09878,39.53333,3252],[-106.09873,39.53303,3253],[-106.0983,39.53297,3250],[-106.09748,39.53313,3245],[-106.09688,39.5339,3237],[-106.09654,39.53412,3234],[-106.09558,39.53405,3219],[-106.09378,39.53429,3208],[-106.09232,39.534,3185],[-106.0915,39.53423,3175],[-106.09033,39.53436,3162],[-106.08987,39.53456,3154],[-106.08924,39.53502,3144],[-106.08904,39.53558,3137],[-106.08859,39.53575,3130],[-106.08813,39.53653,3124],[-106.0877,39.5368,3117],[-106.08743,39.53735,3111],[-106.08789,39.53852,3097],[-106.08854,39.5391,3092],[-106.08912,39.53936,3088],[-106.08917,39.53953,3083],[-106.08888,39.53978,3077],[-106.08742,39.54003,3062],[-106.08693,39.54027,3058],[-106.08691,39.54036,3057],[-106.08777,39.54116,3054],[-106.08778,39.54212,3034],[-106.08679,39.543,3017],[-106.08661,39.54362,3008],[-106.08624,39.54408,3000],[-106.08578,39.54509,2990],[-106.08506,39.54547,2985],[-106.0843,39.54625,2978],[-106.0835,39.54773,2970],[-106.0832,39.54939,2951],[-106.08325,39.55315,2921],[-106.0828,39.55394,2916],[-106.08274,39.55425,2914],[-106.08325,39.55523,2906],[-106.08304,39.55614,2900],[-106.08322,39.55663,2895],[-106.0832,39.55724,2892],[-106.08365,39.55818,2886],[-106.08451,39.55945,2879],[-106.08477,39.5602,2877],[-106.08542,39.56106,2873],[-106.08539,39.56173,2869],[-106.08527,39.56186,2866],[-106.08495,39.56142,2868],[-106.08485,39.56105,2867],[-106.08307,39.55894,2880],[-106.08302,39.55848,2882],[-106.08259,39.55816,2882],[-106.08268,39.55725,2884],[-106.0825,39.55698,2885],[-106.08244,39.55643,2888],[-106.08192,39.55573,2893],[-106.0814,39.55416,2901],[-106.08158,39.55376,2904],[-106.08182,39.55227,2909],[-106.0817,39.55187,2912],[-106.08182,39.5514,2914],[-106.08178,39.55096,2918],[-106.08236,39.54768,2948],[-106.08273,39.54716,2951],[-106.08379,39.54648,2957],[-106.08452,39.54551,2963],[-106.08457,39.54489,2968],[-106.08503,39.54416,2974],[-106.08508,39.54177,2993],[-106.08472,39.54121,2999],[-106.08385,39.54067,3008],[-106.0833,39.54001,3015],[-106.08315,39.53962,3019],[-106.08317,39.53887,3025],[-106.08287,39.53811,3032],[-106.08208,39.53775,3040],[-106.08166,39.53767,3041],[-106.08136,39.53708,3046],[-106.08085,39.53649,3053],[-106.0802,39.53523,3065],[-106.08001,39.53426,3064],[-106.08144,39.53269,3067],[-106.08137,39.53231,3068],[-106.07831,39.52955,3062],[-106.07693,39.52848,3057],[-106.07702,39.52787,3054],[-106.07769,39.52706,3051],[-106.07812,39.52679,3048],[-106.07813,39.52655,3047],[-106.0777,39.52572,3049],[-106.07758,39.52512,3051],[-106.07706,39.52437,3042],[-106.077,39.52355,3039],[-106.0768,39.52305,3039],[-106.07655,39.52154,3034],[-106.0764,39.52124,3034],[-106.07594,39.52082,3031],[-106.07609,39.52047,3030],[-106.07676,39.51968,3033],[-106.07635,39.51917,3035],[-106.07594,39.51896,3034],[-106.07492,39.51765,3048],[-106.07501,39.5175,3050],[-106.07547,39.51732,3053],[-106.07619,39.51729,3056],[-106.07658,39.51714,3057],[-106.07775,39.51702,3061],[-106.07811,39.51643,3061],[-106.07825,39.51588,3061],[-106.0791,39.5151,3061],[-106.07952,39.51489,3061],[-106.08096,39.51449,3062],[-106.08151,39.51413,3063],[-106.08143,39.51397,3061],[-106.0809,39.51394,3061],[-106.07994,39.51336,3069],[-106.07941,39.51299,3070],[-106.07913,39.51256,3071],[-106.07906,39.5118,3077],[-106.07928,39.5111,3079],[-106.07891,39.50972,3088],[-106.07909,39.5092,3092],[-106.07952,39.50887,3094],[-106.07976,39.50852,3093],[-106.0803,39.50817,3097],[-106.08099,39.50663,3095],[-106.08101,39.50651,3096],[-106.08037,39.50559,3098],[-106.08046,39.50505,3100],[-106.08191,39.5038,3102],[-106.08176,39.5035,3100],[-106.07996,39.50327,3094],[-106.07941,39.50311,3093],[-106.07901,39.50214,3101],[-106.07897,39.50114,3107],[-106.07924,39.50067,3108],[-106.07967,39.50044,3104],[-106.08006,39.50001,3101],[-106.08109,39.49925,3097],[-106.0812,39.49899,3095],[-106.08087,39.49898,3091],[-106.08065,39.49887,3092],[-106.0798,39.49836,3090],[-106.07904,39.49772,3090],[-106.07777,39.49709,3088],[-106.07654,39.49695,3088],[-106.07561,39.4972,3086],[-106.07521,39.49721,3085],[-106.07489,39.49699,3086],[-106.07462,39.49696,3087],[-106.07428,39.49665,3090],[-106.07385,39.4966,3090],[-106.07322,39.4962,3089],[-106.07255,39.49614,3088],[-106.07234,39.49601,3090],[-106.072,39.4956,3092],[-106.0718,39.4949,3095],[-106.07146,39.49479,3095],[-106.07137,39.49459,3095],[-106.07155,39.49385,3095],[-106.07123,39.49331,3088],[-106.07109,39.49197,3086],[-106.07099,39.49185,3084],[-106.07072,39.4918,3080],[-106.07062,39.49145,3075],[-106.07018,39.49147,3071],[-106.07027,39.49086,3060],[-106.06916,39.49024,3050],[-106.06905,39.48965,3051],[-106.06938,39.489,3055],[-106.0693,39.4888,3055],[-106.06879,39.4884,3051],[-106.06829,39.48822,3050],[-106.06797,39.48783,3050],[-106.06828,39.48648,3060]]}}
