{"type":"Feature","properties":{"stage":2,"name":"Colorado Trail","miles":41.42,"hasElevation":true},"geometry":{"type":"LineString","coordinates":[[-106.04471,39.48083,2948],[-106.04131,39.48125,2954],[-106.04161,39.48382,2952],[-106.04176,39.48416,2952],[-106.04121,39.48555,2963],[-106.04018,39.4864,2967],[-106.03942,39.48728,2970],[-106.03911,39.48744,2970],[-106.03862,39.48744,2970],[-106.03713,39.48708,2968],[-106.03593,39.48609,2968],[-106.03509,39.48582,2969],[-106.03333,39.48584,2971],[-106.03191,39.48601,2973],[-106.02995,39.48575,2976],[-106.02808,39.48622,2979],[-106.02735,39.48593,2981],[-106.02556,39.48464,2990],[-106.02466,39.48471,2995],[-106.02401,39.48454,3001],[-106.02309,39.48507,3015],[-106.02258,39.48521,3021],[-106.02277,39.48538,3023],[-106.0236,39.48533,3030],[-106.02555,39.48683,3042],[-106.02599,39.48761,3051],[-106.02622,39.48878,3057],[-106.02654,39.48887,3058],[-106.02741,39.48877,3060],[-106.02892,39.48929,3061],[-106.03021,39.4901,3062],[-106.03041,39.49036,3066],[-106.03086,39.49063,3074],[-106.03116,39.49103,3081],[-106.03167,39.49139,3087],[-106.03173,39.4916,3089],[-106.0316,39.4922,3094],[-106.03174,39.49319,3108],[-106.03262,39.49418,3120],[-106.03289,39.49619,3125],[-106.03288,39.49672,3124],[-106.0325,39.49775,3124],[-106.03215,39.49944,3123],[-106.03206,39.50191,3122],[-106.03178,39.5022,3122],[-106.03065,39.50245,3120],[-106.02994,39.50247,3118],[-106.02776,39.50283,3118],[-106.02654,39.50317,3118],[-106.02611,39.50317,3118],[-106.02558,39.50299,3117],[-106.02463,39.50212,3105],[-106.02419,39.50095,3105],[-106.02425,39.50044,3110],[-106.02365,39.50014,3109],[-106.02331,39.49967,3109],[-106.02243,39.49914,3108],[-106.02065,39.49932,3110],[-106.01831,39.50001,3105],[-106.01715,39.50013,3101],[-106.01674,39.49998,3102],[-106.01552,39.49917,3106],[-106.01397,39.49863,3114],[-106.01135,39.49808,3116],[-106.00984,39.49738,3112],[-106.0087,39.4967,3115],[-106.00794,39.49664,3116],[-106.00768,39.49649,3121],[-106.00671,39.49625,3133],[-106.00629,39.49627,3137],[-106.00557,39.49647,3145],[-106.00462,39.49653,3159],[-106.00355,39.49688,3176],[-106.00333,39.49735,3188],[-106.00351,39.49784,3195],[-106.0035,39.49831,3204],[-106.00327,39.49852,3209],[-106.00222,39.4988,3219],[-106.0014,39.49923,3228],[-106.00045,39.49945,3238],[-105.99966,39.4998,3251],[-105.99899,39.49984,3259],[-105.99836,39.50006,3270],[-105.99786,39.49999,3277],[-105.99686,39.5001,3288],[-105.99592,39.50038,3297],[-105.99558,39.50154,3310],[-105.99498,39.50174,3310],[-105.99463,39.50219,3307],[-105.99464,39.50243,3306],[-105.99509,39.50308,3305],[-105.99508,39.50333,3304],[-105.99469,39.50426,3301],[-105.99403,39.50502,3296],[-105.99399,39.50548,3295],[-105.99358,39.5065,3293],[-105.99279,39.50755,3289],[-105.9923,39.50862,3282],[-105.99141,39.5093,3276],[-105.99132,39.50964,3273],[-105.99228,39.5112,3251],[-105.99288,39.51166,3243],[-105.99314,39.5125,3231],[-105.99411,39.5134,3217],[-105.99551,39.51403,3204],[-105.99584,39.5143,3197],[-105.99583,39.51479,3190],[-105.99631,39.51529,3193],[-105.99667,39.51595,3194],[-105.99661,39.5162,3192],[-105.99622,39.51649,3189],[-105.99559,39.51663,3183],[-105.99588,39.51695,3178],[-105.99648,39.51683,3178],[-105.99684,39.51664,3180],[-105.99699,39.51641,3182],[-105.99701,39.5147,3176],[-105.9971,39.51484,3174],[-105.99719,39.5153,3173],[-105.99775,39.51666,3167],[-105.99766,39.51722,3164],[-105.99791,39.51761,3158],[-105.99835,39.518,3147],[-105.99719,39.51883,3138],[-105.99673,39.51892,3135],[-105.99683,39.51914,3133],[-105.99727,39.51931,3130],[-105.99803,39.51899,3125],[-105.9987,39.51884,3121],[-105.999,39.51869,3121],[-105.99943,39.5182,3121],[-105.99955,39.51785,3118],[-105.99973,39.51547,3095],[-105.99993,39.51471,3086],[-106.00044,39.51754,3085],[-106.00042,39.51828,3086],[-106.00032,39.51859,3086],[-105.99995,39.51899,3087],[-105.99941,39.51934,3091],[-105.99861,39.51968,3096],[-105.99794,39.52046,3104],[-105.99664,39.52055,3106],[-105.99588,39.52027,3103],[-105.99563,39.52043,3101],[-105.99526,39.52047,3099],[-105.99522,39.52058,3097],[-105.99591,39.52105,3092],[-105.99531,39.52093,3087],[-105.99556,39.52127,3082],[-105.99514,39.52122,3078],[-105.99532,39.52139,3076],[-105.99522,39.52145,3074],[-105.99428,39.52098,3064],[-105.99446,39.51996,3059],[-105.99432,39.51927,3059],[-105.99323,39.51797,3058],[-105.99299,39.51791,3057],[-105.9929,39.51817,3056],[-105.99242,39.5185,3053],[-105.9921,39.51924,3051],[-105.99167,39.51973,3050],[-105.99173,39.5198,3048],[-105.9919,39.51974,3047],[-105.99254,39.51892,3044],[-105.99313,39.51902,3040],[-105.99344,39.51946,3037],[-105.99322,39.52035,3029],[-105.99283,39.52111,3017],[-105.99246,39.52155,3008],[-105.99268,39.52262,2994],[-105.99249,39.52254,2991],[-105.99237,39.52221,2991],[-105.99213,39.52212,2991],[-105.99178,39.52275,2988],[-105.9912,39.52326,2988],[-105.99064,39.52358,2988],[-105.98997,39.52372,2988],[-105.98916,39.52358,2988],[-105.98688,39.52365,2988],[-105.98589,39.52351,2988],[-105.98573,39.52336,2988],[-105.98578,39.52255,2989],[-105.98531,39.52128,2989],[-105.98507,39.52111,2989],[-105.98456,39.52105,2990],[-105.98377,39.52149,2989],[-105.98294,39.52226,2989],[-105.98216,39.52254,2989],[-105.98169,39.52249,2989],[-105.9814,39.52209,2989],[-105.98023,39.52156,2989],[-105.9794,39.52239,2989],[-105.97762,39.52283,2989],[-105.97469,39.52296,2989],[-105.9737,39.52287,2989],[-105.97284,39.52249,2990],[-105.97269,39.52208,2990],[-105.97273,39.52185,2989],[-105.9735,39.52065,2990],[-105.97367,39.52009,2990],[-105.97364,39.5196,2989],[-105.97383,39.51908,2989],[-105.97352,39.51885,2989],[-105.97281,39.51935,2990],[-105.97179,39.5203,2989],[-105.96978,39.52157,2988],[-105.96901,39.52174,2989],[-105.96802,39.52171,2989],[-105.96726,39.52148,2989],[-105.967,39.52082,2989],[-105.96628,39.5209,2987],[-105.96591,39.52083,2987],[-105.9637,39.52002,2988],[-105.96296,39.51957,2988],[-105.96145,39.51938,2988],[-105.96048,39.51904,2988],[-105.95998,39.51875,2988],[-105.95865,39.51853,2988],[-105.95692,39.51764,2988],[-105.95673,39.51745,2988],[-105.95661,39.51706,2988],[-105.95639,39.51702,2988],[-105.9561,39.51671,2991],[-105.95568,39.51659,2993],[-105.95548,39.51642,2995],[-105.9547,39.51539,3004],[-105.954,39.51412,3011],[-105.95337,39.51351,3012],[-105.95302,39.51279,3016],[-105.95245,39.51236,3016],[-105.95105,39.51169,3013],[-105.95046,39.51111,3012],[-105.94974,39.50993,3019],[-105.94965,39.50922,3021],[-105.94898,39.50803,3013],[-105.94857,39.50657,3012],[-105.9483,39.50648,3010],[-105.94777,39.50653,3009],[-105.94639,39.50639,3009],[-105.94646,39.50531,3014],[-105.94628,39.5048,3017],[-105.94635,39.50407,3020],[-105.94609,39.50361,3022],[-105.94605,39.50289,3024],[-105.9456,39.50216,3027],[-105.94574,39.50119,3029],[-105.94524,39.4993,3035],[-105.94519,39.49819,3043],[-105.94531,39.49772,3042],[-105.94504,39.49595,3045],[-105.94492,39.49571,3047],[-105.94461,39.49549,3049],[-105.9442,39.49542,3050],[-105.9437,39.49553,3051],[-105.94171,39.49664,3062],[-105.9409,39.49694,3066],[-105.94073,39.49715,3068],[-105.94006,39.49749,3071],[-105.93899,39.49775,3073],[-105.93801,39.49776,3071],[-105.93716,39.4981,3074],[-105.93561,39.4984,3077],[-105.93411,39.49842,3081],[-105.93288,39.4982,3086],[-105.932,39.49827,3093],[-105.93135,39.49804,3095],[-105.93045,39.49801,3098],[-105.92913,39.49778,3101],[-105.92743,39.49791,3106],[-105.92632,39.49772,3109],[-105.92564,39.49786,3112],[-105.92567,39.49801,3115],[-105.9258,39.49805,3116],[-105.9266,39.49804,3113],[-105.92747,39.49833,3118],[-105.92911,39.49829,3112],[-105.9295,39.4984,3109],[-105.93076,39.49847,3109],[-105.93118,39.49868,3108],[-105.93183,39.49855,3105],[-105.93257,39.49865,3109],[-105.93286,39.49883,3113],[-105.93359,39.49905,3120],[-105.93372,39.49928,3123],[-105.93527,39.49979,3126],[-105.93577,39.49978,3126],[-105.93676,39.49954,3122],[-105.93765,39.49952,3117],[-105.93837,39.5001,3112],[-105.93823,39.50014,3110],[-105.93798,39.50002,3108],[-105.93778,39.50015,3106],[-105.93793,39.50048,3102],[-105.93842,39.50065,3095],[-105.93853,39.5008,3092],[-105.93894,39.50086,3088],[-105.94,39.50154,3076],[-105.94019,39.5024,3075],[-105.94046,39.50271,3075],[-105.94042,39.50294,3075],[-105.94099,39.50387,3068],[-105.94116,39.50499,3056],[-105.94149,39.50538,3052],[-105.94228,39.50596,3044],[-105.94306,39.50693,3040],[-105.94321,39.50812,3036],[-105.94299,39.50967,3038],[-105.9423,39.51099,3033],[-105.942,39.51225,3033],[-105.94169,39.51251,3032],[-105.94115,39.51273,3031],[-105.94008,39.51291,3036],[-105.93944,39.51318,3039],[-105.93796,39.51325,3038],[-105.9372,39.51375,3032],[-105.93727,39.5141,3031],[-105.93687,39.51444,3032],[-105.93676,39.51488,3034],[-105.93644,39.51517,3035],[-105.93621,39.51529,3036],[-105.93588,39.51524,3038],[-105.93537,39.51553,3041],[-105.9344,39.51572,3046],[-105.93351,39.51617,3052],[-105.93351,39.51632,3053],[-105.93372,39.51645,3055],[-105.93436,39.51657,3057],[-105.93508,39.51654,3057],[-105.93593,39.51663,3057],[-105.9371,39.51703,3062],[-105.9376,39.51754,3069],[-105.93783,39.5187,3076],[-105.93833,39.51917,3079],[-105.93883,39.51914,3087],[-105.93777,39.52124,3107],[-105.93758,39.52131,3109],[-105.93743,39.52118,3110],[-105.93694,39.52208,3127],[-105.93603,39.5203,3147],[-105.93518,39.51965,3156],[-105.93494,39.51963,3157],[-105.93465,39.51978,3161],[-105.93368,39.52073,3177],[-105.93364,39.52143,3189],[-105.93314,39.52195,3195],[-105.93321,39.52243,3200],[-105.93302,39.5227,3202],[-105.9336,39.5229,3210],[-105.93347,39.52339,3216],[-105.93316,39.52392,3224],[-105.93254,39.52401,3229],[-105.93272,39.52448,3236],[-105.93249,39.52539,3244],[-105.93254,39.52632,3252],[-105.93237,39.52887,3286],[-105.93255,39.52979,3295],[-105.93274,39.53005,3299],[-105.93281,39.53046,3305],[-105.93346,39.53087,3314],[-105.93332,39.53129,3320],[-105.93342,39.53152,3323],[-105.93427,39.53191,3334],[-105.93437,39.53214,3337],[-105.9348,39.53255,3345],[-105.93477,39.53292,3350],[-105.93441,39.53352,3351],[-105.93501,39.5354,3374],[-105.93557,39.53572,3381],[-105.93638,39.53591,3386],[-105.93848,39.53594,3403],[-105.93979,39.53653,3409],[-105.94025,39.53689,3411],[-105.94101,39.53777,3412],[-105.94354,39.53965,3404],[-105.94506,39.54127,3399],[-105.9457,39.54143,3400],[-105.94621,39.5417,3400],[-105.94675,39.54223,3406],[-105.9474,39.54251,3412],[-105.94849,39.54279,3412],[-105.9491,39.54314,3410],[-105.94924,39.54361,3410],[-105.94878,39.54429,3409],[-105.94882,39.5447,3408],[-105.95015,39.54538,3401],[-105.95074,39.5459,3398],[-105.95126,39.54606,3396],[-105.95235,39.54619,3392],[-105.95328,39.54683,3390],[-105.95438,39.54689,3393],[-105.95659,39.5475,3396],[-105.9569,39.5477,3398],[-105.95758,39.54888,3399],[-105.9573,39.54986,3388],[-105.95783,39.5502,3384],[-105.95826,39.5511,3375],[-105.95912,39.55165,3367],[-105.9589,39.55115,3363],[-105.959,39.54989,3354],[-105.95956,39.54808,3341],[-105.95982,39.54773,3337],[-105.96041,39.5474,3334],[-105.96184,39.54712,3326],[-105.96216,39.54676,3321],[-105.96217,39.54651,3318],[-105.96252,39.54686,3314],[-105.96251,39.5471,3313],[-105.96088,39.54805,3303],[-105.96298,39.5477,3284],[-105.96169,39.54848,3268],[-105.96352,39.54812,3254],[-105.96468,39.54766,3243],[-105.96635,39.54737,3230],[-105.96568,39.54791,3223],[-105.96502,39.54806,3220],[-105.96448,39.54836,3216],[-105.96492,39.54824,3212],[-105.96533,39.54833,3210],[-105.96578,39.54825,3208],[-105.96718,39.54749,3209],[-105.96804,39.54651,3207],[-105.96864,39.54541,3200],[-105.96942,39.54454,3193],[-105.96943,39.54424,3189],[-105.9692,39.54374,3181],[-105.96995,39.54396,3176],[-105.97036,39.54418,3170],[-105.97012,39.54351,3163],[-105.96948,39.54286,3153],[-105.96913,39.54273,3151],[-105.96864,39.54272,3148],[-105.96796,39.54225,3138],[-105.96859,39.54234,3134],[-105.96878,39.54223,3132],[-105.96965,39.5421,3126],[-105.96995,39.5419,3122],[-105.96974,39.54174,3116],[-105.9699,39.54164,3113],[-105.9703,39.54166,3110],[-105.97111,39.54191,3104],[-105.97154,39.54228,3098],[-105.97162,39.5432,3096],[-105.97188,39.54373,3098],[-105.97239,39.54426,3099],[-105.97259,39.54514,3101],[-105.97209,39.54648,3110],[-105.9715,39.54672,3110],[-105.97119,39.5467,3109],[-105.97056,39.54713,3108],[-105.9706,39.54734,3107],[-105.97038,39.54814,3101],[-105.97028,39.54825,3099],[-105.97,39.54827,3098],[-105.96954,39.54895,3098],[-105.96924,39.55022,3093],[-105.96898,39.55055,3091],[-105.96846,39.55077,3087],[-105.96871,39.55085,3081],[-105.96949,39.55047,3075],[-105.97014,39.54967,3062],[-105.97121,39.54863,3052],[-105.9715,39.54861,3050],[-105.97195,39.54839,3046],[-105.97266,39.54832,3040],[-105.97272,39.54809,3038],[-105.97298,39.54803,3035],[-105.97337,39.54768,3029],[-105.97424,39.54837,3020],[-105.97437,39.54936,3007],[-105.97379,39.54968,2998],[-105.97437,39.55001,2991],[-105.97498,39.55004,2987],[-105.9757,39.54971,2978],[-105.97656,39.54966,2970],[-105.97762,39.54901,2961],[-105.97855,39.54873,2950],[-105.97965,39.54895,2943],[-105.98084,39.54973,2935],[-105.98226,39.55008,2928],[-105.98264,39.5504,2925],[-105.98277,39.5507,2924],[-105.98293,39.55201,2920],[-105.98274,39.55307,2918],[-105.98299,39.55374,2915],[-105.98334,39.554,2914],[-105.9838,39.5547,2910],[-105.985,39.55555,2904],[-105.98641,39.55681,2900],[-105.98775,39.55749,2897],[-105.98807,39.55828,2894],[-105.98863,39.55908,2891],[-105.98992,39.56034,2889],[-105.99032,39.56102,2889],[-105.9905,39.56179,2890],[-105.99081,39.56203,2890],[-105.99126,39.56218,2887],[-105.99146,39.56213,2885],[-105.99197,39.56145,2879],[-105.99255,39.56111,2875],[-105.99317,39.56093,2872],[-105.99457,39.56105,2870],[-105.99548,39.56038,2866],[-105.99575,39.5596,2872],[-105.99621,39.5592,2877],[-105.99643,39.55875,2881],[-105.99676,39.55706,2895],[-105.99777,39.556,2906],[-105.99873,39.55522,2913],[-105.99906,39.55469,2915],[-105.99916,39.55416,2918],[-105.9991,39.55373,2921],[-105.99887,39.55309,2924],[-105.99852,39.55254,2925],[-105.99814,39.55236,2926],[-105.99765,39.55253,2927],[-105.99695,39.55248,2929],[-105.99683,39.55214,2930],[-105.99729,39.5514,2933],[-105.99848,39.55022,2946],[-105.99889,39.54963,2953],[-105.99895,39.54886,2960],[-105.99878,39.54825,2966],[-105.9985,39.54795,2970],[-105.99857,39.54736,2976],[-105.99892,39.54652,2981],[-105.99937,39.54605,2983],[-105.99934,39.54542,2985],[-105.99947,39.54544,2985],[-105.99974,39.54591,2983],[-106.00017,39.54597,2980],[-106.00024,39.54556,2978],[-106.00015,39.54523,2978],[-105.99992,39.54497,2979],[-106.00006,39.54486,2979],[-106.00008,39.54454,2977],[-106.00021,39.54438,2975],[-106.00019,39.54409,2975],[-106.00041,39.54403,2975],[-106.0006,39.54439,2975],[-106.00111,39.54454,2972],[-106.00149,39.54416,2965],[-106.00134,39.545,2966],[-106.00105,39.54505,2968],[-106.00079,39.54523,2970],[-106.00059,39.5456,2973],[-106.00061,39.54584,2975],[-106.00172,39.54586,2980],[-106.00237,39.54617,2983],[-106.00254,39.54599,2984],[-106.00279,39.54598,2986],[-106.00295,39.54614,2989],[-106.00319,39.54617,2991],[-106.00344,39.54656,2994],[-106.00377,39.54647,2995],[-106.00433,39.54649,2999],[-106.00516,39.54603,3003],[-106.00552,39.54611,3002],[-106.00581,39.54635,3000],[-106.00658,39.54577,2996],[-106.00676,39.54534,2994],[-106.00669,39.54516,2993],[-106.0064,39.54503,2993],[-106.00634,39.54471,2993],[-106.00649,39.54446,2991],[-106.00624,39.54418,2990],[-106.00638,39.5439,2989],[-106.00633,39.54359,2988],[-106.00674,39.54332,2984],[-106.00623,39.54307,2982],[-106.00604,39.5427,2978],[-106.00639,39.54246,2976],[-106.00656,39.54208,2976],[-106.00575,39.54088,2973],[-106.00504,39.54059,2972],[-106.00416,39.53962,2964],[-106.00374,39.53955,2962],[-106.00351,39.53977,2959],[-106.00359,39.53995,2956],[-106.00348,39.54005,2955],[-106.00288,39.53998,2950],[-106.00253,39.53976,2947],[-106.00188,39.53987,2943],[-106.0013,39.53954,2938],[-106.00002,39.53976,2929],[-105.99987,39.5397,2927],[-105.99987,39.53883,2919],[-106.00007,39.53851,2915],[-105.99971,39.53776,2911],[-105.99984,39.53722,2907],[-105.99972,39.53648,2901],[-105.9992,39.53605,2899],[-105.99945,39.5348,2898],[-105.99936,39.53424,2899],[-105.99883,39.53377,2896],[-105.99747,39.53346,2897],[-105.9969,39.53313,2897],[-105.99716,39.53253,2897],[-105.99791,39.53231,2897],[-105.99832,39.53193,2896],[-105.99827,39.53154,2898],[-105.99766,39.53061,2900],[-105.99808,39.52988,2901],[-105.99629,39.52923,2903],[-105.99618,39.52898,2903],[-105.99489,39.52806,2910],[-105.99498,39.52794,2913],[-105.99474,39.52769,2918],[-105.9935,39.52708,2919],[-105.99381,39.52704,2925],[-105.99408,39.52718,2926],[-105.99537,39.52749,2935],[-105.99634,39.52737,2943],[-105.99538,39.52663,2950],[-105.9941,39.52624,2957],[-105.99328,39.52578,2964],[-105.99358,39.52578,2966],[-105.99339,39.52564,2969],[-105.9939,39.52553,2975],[-105.99344,39.52532,2979],[-105.99295,39.52461,2985],[-105.99269,39.52235,2998],[-105.99242,39.52164,3008],[-105.9929,39.52102,3017],[-105.99332,39.5202,3031],[-105.99348,39.51973,3037],[-105.9934,39.51913,3041],[-105.99315,39.51891,3042],[-105.99274,39.51881,3046],[-105.99252,39.51896,3047],[-105.99199,39.51971,3049],[-105.99162,39.51987,3051],[-105.99204,39.5194,3053],[-105.99236,39.51852,3056],[-105.99271,39.51813,3057],[-105.99276,39.51777,3059],[-105.9929,39.51772,3060],[-105.99313,39.51783,3060],[-105.99384,39.5186,3061],[-105.99425,39.51929,3061],[-105.99432,39.51969,3061],[-105.99403,39.52086,3063],[-105.9949,39.52135,3073],[-105.99519,39.52142,3076],[-105.99504,39.52119,3078],[-105.99554,39.52127,3082],[-105.99524,39.52089,3087],[-105.99587,39.521,3092],[-105.99506,39.52042,3098],[-105.99515,39.52027,3099],[-105.99538,39.52022,3101],[-105.99545,39.52005,3102],[-105.99625,39.52044,3106],[-105.99727,39.52052,3110],[-105.99772,39.52047,3109],[-105.99839,39.51979,3102],[-105.99976,39.51912,3091],[-106.0001,39.51876,3089],[-106.00038,39.51781,3087],[-106.00002,39.51561,3084],[-105.99999,39.5145,3083],[-106.00034,39.51372,3082],[-106.00091,39.51302,3081],[-106.00109,39.51302,3080],[-106.00127,39.5132,3079],[-106.00143,39.51386,3079],[-106.00188,39.51432,3083],[-106.00272,39.51457,3087],[-106.0033,39.51491,3087],[-106.00539,39.51687,3095],[-106.00581,39.51709,3095],[-106.00633,39.51719,3094],[-106.00784,39.51682,3089],[-106.009,39.51618,3082],[-106.0106,39.51557,3073],[-106.01146,39.51506,3065],[-106.01277,39.51508,3064],[-106.01369,39.51481,3064],[-106.01493,39.51416,3062],[-106.01566,39.51353,3063],[-106.01582,39.5135,3064],[-106.01638,39.5136,3063],[-106.01654,39.51379,3061],[-106.016,39.51419,3057],[-106.01549,39.5143,3054],[-106.01487,39.51459,3052],[-106.01384,39.51535,3048],[-106.01434,39.51528,3043],[-106.01437,39.51544,3039],[-106.01515,39.51519,3036],[-106.01528,39.5154,3034],[-106.01564,39.51551,3031],[-106.01559,39.51572,3028],[-106.01613,39.5162,3023],[-106.0161,39.51651,3019],[-106.01662,39.51654,3016],[-106.01656,39.51678,3011],[-106.01624,39.5171,3005],[-106.01547,39.51737,2996],[-106.01605,39.51772,2991],[-106.01668,39.51767,2987],[-106.01708,39.51785,2985],[-106.01726,39.51805,2985],[-106.0173,39.51867,2985],[-106.01743,39.51884,2984],[-106.01861,39.51938,2984],[-106.01963,39.51971,2984],[-106.02106,39.52008,2984],[-106.02175,39.52007,2983],[-106.02228,39.51947,2983],[-106.02316,39.51898,2983],[-106.02402,39.51863,2983],[-106.02469,39.51796,2983],[-106.025,39.51682,2983],[-106.02461,39.5163,2983],[-106.02428,39.51556,2981],[-106.02433,39.51546,2979],[-106.02531,39.51677,2969],[-106.02544,39.51738,2963],[-106.02515,39.51918,2943],[-106.02552,39.52019,2934],[-106.02581,39.51884,2919],[-106.02632,39.51781,2917],[-106.0266,39.5168,2921],[-106.02622,39.5164,2923],[-106.02568,39.51607,2927],[-106.02555,39.51553,2929],[-106.02438,39.51387,2941],[-106.0232,39.513,2948],[-106.02219,39.51255,2950],[-106.0219,39.51232,2950],[-106.02161,39.51149,2952],[-106.02103,39.51106,2953],[-106.02065,39.51038,2957],[-106.01979,39.50972,2960],[-106.01957,39.50928,2963],[-106.01955,39.50874,2968],[-106.01918,39.50838,2971],[-106.01896,39.50798,2973],[-106.0192,39.50735,2978],[-106.01915,39.50714,2980],[-106.01837,39.50621,2985],[-106.01831,39.50539,2989],[-106.01778,39.50446,2997],[-106.01802,39.50425,3001],[-106.01884,39.50425,3008],[-106.02096,39.50514,3027],[-106.02166,39.5053,3033],[-106.02268,39.50529,3041],[-106.02316,39.50548,3043],[-106.02402,39.50563,3045],[-106.02515,39.50492,3060],[-106.02622,39.50495,3067],[-106.02715,39.50483,3074],[-106.03007,39.50341,3096],[-106.03072,39.50339,3101],[-106.03054,39.50319,3103],[-106.03087,39.50323,3105],[-106.03067,39.50301,3107],[-106.03107,39.50309,3108],[-106.03136,39.50276,3114],[-106.03116,39.50266,3115],[-106.03147,39.50261,3117],[-106.03132,39.50234,3121],[-106.03089,39.50234,3123],[-106.03044,39.50218,3126],[-106.03052,39.50207,3128],[-106.03084,39.5021,3127],[-106.03104,39.50194,3129],[-106.03061,39.50169,3132],[-106.03094,39.50166,3133],[-106.03173,39.50072,3135],[-106.03187,39.49981,3132],[-106.0322,39.4991,3129],[-106.03217,39.49869,3128],[-106.03239,39.49784,3127],[-106.03284,39.497,3125],[-106.03263,39.49582,3131],[-106.03205,39.49444,3134],[-106.03121,39.49374,3135],[-106.02982,39.49224,3128],[-106.02956,39.4921,3129],[-106.02766,39.49226,3139],[-106.0274,39.49248,3142],[-106.02712,39.4933,3148],[-106.0267,39.49395,3151],[-106.02625,39.49404,3150],[-106.02465,39.49409,3144],[-106.02374,39.49462,3145],[-106.02296,39.49441,3142],[-106.02155,39.49349,3150],[-106.02131,39.49309,3154],[-106.02132,39.49192,3150],[-106.02116,39.49158,3150],[-106.01956,39.49083,3156],[-106.01894,39.48982,3151],[-106.01815,39.48921,3148],[-106.01685,39.48796,3151],[-106.01656,39.4871,3150],[-106.01688,39.48591,3144],[-106.01674,39.48568,3142],[-106.01594,39.48557,3139],[-106.01523,39.48563,3139],[-106.01431,39.48524,3139],[-106.01341,39.48517,3140],[-106.01207,39.48556,3140],[-106.01077,39.4866,3140],[-106.00977,39.48712,3140],[-106.00944,39.48718,3136],[-106.00835,39.48689,3122],[-106.00772,39.48701,3114],[-106.00747,39.48676,3108],[-106.007,39.48679,3104],[-106.00606,39.48665,3096],[-106.00525,39.4864,3086],[-106.00521,39.48628,3083],[-106.00536,39.48613,3080],[-106.00621,39.48587,3074],[-106.00706,39.48531,3069],[-106.00734,39.48471,3064]]}}
